{
  "type": "FeatureCollection",
  "features": [
    {
      "type": "Feature",
      "geometry": {
        "type": "LineString",
        "coordinates": [
          [
            8.484500216,
            48.853572593
          ],
          [
            8.484506403,
            48.853568236
          ],
          [
            8.484514435,
            48.853565464
          ],
          [
            8.484525193,
            48.853563334
          ],
          [
            8.484539443,
            48.853561057
          ],
          [
            8.48455583,
            48.853558818
          ],
          [
            8.484574085,
            48.853556462
          ],
          [
            8.48459412,
            48.853553853
          ],
          [
            8.484615692,
            48.853551108
          ],
          [
            8.484638433,
            48.853548253
          ],
          [
            8.484662334,
            48.85354538
          ],
          [
            8.484687119,
            48.853542399
          ],
          [
            8.484712529,
            48.853539308
          ],
          [
            8.484738425,
            48.853536048
          ],
          [
            8.484764663,
            48.853532558
          ],
          [
            8.484791341,
            48.853528846
          ],
          [
            8.484818478,
            48.853524964
          ],
          [
            8.484846128,
            48.853520921
          ],
          [
            8.484874046,
            48.85351658
          ],
          [
            8.484902402,
            48.853511983
          ],
          [
            8.484931155,
            48.853507082
          ],
          [
            8.48496038,
            48.853502049
          ],
          [
            8.484990137,
            48.853496844
          ],
          [
            8.485020286,
            48.853491465
          ],
          [
            8.48505058,
            48.853486131
          ],
          [
            8.485081244,
            48.85348075
          ],
          [
            8.485112179,
            48.853475388
          ],
          [
            8.485143079,
            48.853470231
          ],
          [
            8.485172113,
            48.853465899
          ],
          [
            8.48519874,
            48.853462326
          ],
          [
            8.485222582,
            48.853459617
          ],
          [
            8.485243268,
            48.853457624
          ],
          [
            8.485260793,
            48.853456244
          ],
          [
            8.485274918,
            48.853455254
          ],
          [
            8.48528533,
            48.853454559
          ],
          [
            8.485291993,
            48.853454083
          ],
          [
            8.485295044,
            48.853453786
          ],
          [
            8.485294884,
            48.853453452
          ],
          [
            8.485292161,
            48.853453177
          ],
          [
            8.485287156,
            48.853453015
          ],
          [
            8.48528011,
            48.853453055
          ],
          [
            8.485271336,
            48.853453436
          ],
          [
            8.485260788,
            48.853454309
          ],
          [
            8.485248291,
            48.853455876
          ],
          [
            8.485233704,
            48.853458152
          ],
          [
            8.485216714,
            48.853461028
          ],
          [
            8.485197624,
            48.853464475
          ],
          [
            8.485176645,
            48.853468215
          ],
          [
            8.485153908,
            48.853472145
          ],
          [
            8.485129643,
            48.853476148
          ],
          [
            8.485104194,
            48.853480218
          ],
          [
            8.485077694,
            48.853484192
          ],
          [
            8.485050494,
            48.853488166
          ],
          [
            8.485022705,
            48.853492092
          ],
          [
            8.484994508,
            48.853496189
          ],
          [
            8.484966064,
            48.853500473
          ],
          [
            8.484937404,
            48.853504861
          ],
          [
            8.484908334,
            48.853509383
          ],
          [
            8.484879171,
            48.853513853
          ],
          [
            8.484849806,
            48.853518514
          ],
          [
            8.484820501,
            48.853523454
          ],
          [
            8.484791243,
            48.853528669
          ],
          [
            8.484761685,
            48.853534064
          ],
          [
            8.484731974,
            48.853539489
          ],
          [
            8.484702136,
            48.853545041
          ],
          [
            8.484672422,
            48.853550659
          ],
          [
            8.484644855,
            48.853555946
          ],
          [
            8.48462043,
            48.853561006
          ],
          [
            8.484598964,
            48.853565319
          ],
          [
            8.484579951,
            48.85356864
          ],
          [
            8.484563442,
            48.853570971
          ],
          [
            8.484549658,
            48.85357287
          ],
          [
            8.484539022,
            48.853574482
          ],
          [
            8.484531688,
            48.853575774
          ],
          [
            8.48452765,
            48.853576597
          ],
          [
            8.484526352,
            48.853576983
          ],
          [
            8.484526824,
            48.853576782
          ],
          [
            8.484528214,
            48.853575811
          ],
          [
            8.484529998,
            48.853573962
          ],
          [
            8.484531736,
            48.853571084
          ],
          [
            8.484533114,
            48.853566927
          ],
          [
            8.484534408,
            48.853561548
          ],
          [
            8.484535823,
            48.853554709
          ],
          [
            8.48453739,
            48.853546128
          ],
          [
            8.484539419,
            48.853535689
          ],
          [
            8.484542052,
            48.853523485
          ],
          [
            8.484545316,
            48.853509921
          ],
          [
            8.484549039,
            48.853495153
          ],
          [
            8.484553389,
            48.853479426
          ],
          [
            8.484558146,
            48.853462807
          ],
          [
            8.48456333,
            48.853445412
          ],
          [
            8.484568928,
            48.853427454
          ],
          [
            8.484574937,
            48.853409101
          ],
          [
            8.484581243,
            48.853390443
          ],
          [
            8.484587506,
            48.853371522
          ],
          [
            8.484593658,
            48.853352418
          ],
          [
            8.484599905,
            48.853333078
          ],
          [
            8.484606007,
            48.853313535
          ],
          [
            8.484612001,
            48.853293796
          ],
          [
            8.484617927,
            48.853273859
          ],
          [
            8.484623834,
            48.853253801
          ],
          [
            8.484629782,
            48.853233429
          ],
          [
            8.484635728,
            48.85321298
          ],
          [
            8.484641542,
            48.853192336
          ],
          [
            8.484647553,
            48.853171441
          ],
          [
            8.484653818,
            48.853150438
          ],
          [
            8.484662348,
            48.853130091
          ],
          [
            8.484671887,
            48.853111828
          ],
          [
            8.484680705,
            48.853095012
          ],
          [
            8.484688452,
            48.853079825
          ],
          [
            8.484694993,
            48.853066306
          ],
          [
            8.484700536,
            48.853054348
          ],
          [
            8.484706073,
            48.853043541
          ],
          [
            8.484712589,
            48.853033268
          ],
          [
            8.48471984,
            48.853023468
          ],
          [
            8.48472793,
            48.853014073
          ],
          [
            8.484736801,
            48.853004971
          ],
          [
            8.484746403,
            48.852996174
          ],
          [
            8.484756324,
            48.85298742
          ],
          [
            8.484766235,
            48.85297873
          ],
          [
            8.484776043,
            48.852970017
          ],
          [
            8.484785751,
            48.852961257
          ],
          [
            8.484795661,
            48.852952486
          ],
          [
            8.484805778,
            48.852943624
          ],
          [
            8.484816231,
            48.852934735
          ],
          [
            8.484827211,
            48.852926106
          ],
          [
            8.484838578,
            48.852917746
          ],
          [
            8.484850351,
            48.852909659
          ],
          [
            8.484862409,
            48.852901731
          ],
          [
            8.484874496,
            48.852893813
          ],
          [
            8.484886573,
            48.852885834
          ],
          [
            8.484898704,
            48.852877814
          ],
          [
            8.484910897,
            48.852869749
          ],
          [
            8.484923099,
            48.85286168
          ],
          [
            8.484935403,
            48.852853627
          ],
          [
            8.484947713,
            48.85284557
          ],
          [
            8.484960087,
            48.852837577
          ],
          [
            8.484972493,
            48.852829614
          ],
          [
            8.484984891,
            48.852821562
          ],
          [
            8.484997348,
            48.852813512
          ],
          [
            8.485009726,
            48.852805431
          ],
          [
            8.485022049,
            48.852797298
          ],
          [
            8.485034336,
            48.852789205
          ],
          [
            8.485046708,
            48.852781161
          ],
          [
            8.485059108,
            48.852773166
          ],
          [
            8.485071406,
            48.852765189
          ],
          [
            8.485083592,
            48.852757229
          ],
          [
            8.485095627,
            48.852749274
          ],
          [
            8.485107563,
            48.852741307
          ],
          [
            8.485119495,
            48.852733298
          ],
          [
            8.485131328,
            48.85272529
          ],
          [
            8.485143073,
            48.852717326
          ],
          [
            8.485154884,
            48.85270939
          ],
          [
            8.48516672,
            48.852701457
          ],
          [
            8.48517848,
            48.852693545
          ],
          [
            8.485190123,
            48.852685591
          ],
          [
            8.485201683,
            48.852677589
          ],
          [
            8.485213261,
            48.852669526
          ],
          [
            8.485224899,
            48.852661475
          ],
          [
            8.485236578,
            48.852653445
          ],
          [
            8.48524829,
            48.852645431
          ],
          [
            8.485259978,
            48.852637467
          ],
          [
            8.485271619,
            48.852629625
          ],
          [
            8.485283282,
            48.852621713
          ],
          [
            8.485295025,
            48.852613706
          ],
          [
            8.48530687,
            48.852605671
          ],
          [
            8.485318766,
            48.852597572
          ],
          [
            8.485330676,
            48.852589441
          ],
          [
            8.485342671,
            48.85258129
          ],
          [
            8.485354661,
            48.85257311
          ],
          [
            8.485366597,
            48.852564994
          ],
          [
            8.485378546,
            48.852556951
          ],
          [
            8.485390473,
            48.852548928
          ],
          [
            8.485402421,
            48.852540998
          ],
          [
            8.485414543,
            48.852533139
          ],
          [
            8.48542684,
            48.852525286
          ],
          [
            8.485439275,
            48.852517433
          ],
          [
            8.485451712,
            48.852509529
          ],
          [
            8.485464093,
            48.852501626
          ],
          [
            8.485476322,
            48.852493635
          ],
          [
            8.485488412,
            48.852485624
          ],
          [
            8.485500349,
            48.852477628
          ],
          [
            8.485512141,
            48.852469541
          ],
          [
            8.485523788,
            48.852461371
          ],
          [
            8.485535409,
            48.852453342
          ],
          [
            8.485547041,
            48.852445231
          ],
          [
            8.485558645,
            48.852437124
          ],
          [
            8.485570215,
            48.852429063
          ],
          [
            8.485581844,
            48.85242112
          ],
          [
            8.485593301,
            48.852413327
          ],
          [
            8.485603501,
            48.852406605
          ],
          [
            8.485613262,
            48.852400328
          ],
          [
            8.485622682,
            48.852394128
          ],
          [
            8.485631817,
            48.85238795
          ],
          [
            8.485640737,
            48.852381695
          ],
          [
            8.485649475,
            48.852375299
          ],
          [
            8.485658215,
            48.852368785
          ],
          [
            8.485666972,
            48.852362181
          ],
          [
            8.485675732,
            48.85235549
          ],
          [
            8.485684588,
            48.852348815
          ],
          [
            8.485693569,
            48.852342114
          ],
          [
            8.485702696,
            48.852335442
          ],
          [
            8.485711947,
            48.852328846
          ],
          [
            8.485721161,
            48.85232227
          ],
          [
            8.485730303,
            48.852315767
          ],
          [
            8.485739389,
            48.852309294
          ],
          [
            8.485747243,
            48.852304241
          ],
          [
            8.485754252,
            48.852301524
          ],
          [
            8.485760427,
            48.852301417
          ],
          [
            8.485766263,
            48.852303572
          ],
          [
            8.485772105,
            48.852307375
          ],
          [
            8.485778158,
            48.85231214
          ],
          [
            8.485784439,
            48.8523175
          ],
          [
            8.485791056,
            48.8523232
          ],
          [
            8.485797968,
            48.852329097
          ],
          [
            8.485805214,
            48.852335138
          ],
          [
            8.4858126,
            48.852341335
          ],
          [
            8.485820078,
            48.852347621
          ],
          [
            8.485827447,
            48.852354004
          ],
          [
            8.485834854,
            48.852360547
          ],
          [
            8.485842313,
            48.852367144
          ],
          [
            8.485849906,
            48.85237382
          ],
          [
            8.485857596,
            48.852380562
          ],
          [
            8.485865404,
            48.852387371
          ],
          [
            8.485873268,
            48.852394231
          ],
          [
            8.485881033,
            48.852401134
          ],
          [
            8.485888737,
            48.85240816
          ],
          [
            8.485896345,
            48.852415257
          ],
          [
            8.485903811,
            48.852422357
          ],
          [
            8.485911371,
            48.852429395
          ],
          [
            8.485919082,
            48.852436357
          ],
          [
            8.485927087,
            48.852443255
          ],
          [
            8.485934751,
            48.852449906
          ],
          [
            8.485939605,
            48.852455824
          ],
          [
            8.485940422,
            48.852461295
          ],
          [
            8.485937505,
            48.852466521
          ],
          [
            8.485932196,
            48.852472038
          ],
          [
            8.485925353,
            48.852478163
          ],
          [
            8.485917426,
            48.852484779
          ],
          [
            8.485908655,
            48.852491816
          ],
          [
            8.485899085,
            48.852499178
          ],
          [
            8.485888906,
            48.852506769
          ],
          [
            8.485878247,
            48.852514563
          ],
          [
            8.485867077,
            48.85252264
          ],
          [
            8.485855566,
            48.852530863
          ],
          [
            8.485843696,
            48.852539217
          ],
          [
            8.485831571,
            48.852547624
          ],
          [
            8.48581933,
            48.852556184
          ],
          [
            8.485807321,
            48.852564868
          ],
          [
            8.485795751,
            48.852573747
          ],
          [
            8.485784505,
            48.852582833
          ],
          [
            8.485773254,
            48.8525919
          ],
          [
            8.48576186,
            48.852600748
          ],
          [
            8.485750205,
            48.852609407
          ],
          [
            8.485738415,
            48.852617966
          ],
          [
            8.485726559,
            48.852626402
          ],
          [
            8.485714585,
            48.852634785
          ],
          [
            8.485702479,
            48.852643118
          ],
          [
            8.485690056,
            48.852651396
          ],
          [
            8.485677555,
            48.852659626
          ],
          [
            8.48566495,
            48.85266782
          ],
          [
            8.485652331,
            48.852676026
          ],
          [
            8.485639779,
            48.852684279
          ],
          [
            8.48562731,
            48.852692414
          ],
          [
            8.485614966,
            48.852700517
          ],
          [
            8.485602645,
            48.852708636
          ],
          [
            8.485590401,
            48.852716813
          ],
          [
            8.485578583,
            48.852724962
          ],
          [
            8.485567306,
            48.852733337
          ],
          [
            8.485556595,
            48.852741891
          ],
          [
            8.485546062,
            48.852750359
          ],
          [
            8.485535518,
            48.852758731
          ],
          [
            8.485524888,
            48.852766942
          ],
          [
            8.485513952,
            48.852775086
          ],
          [
            8.485502646,
            48.852783191
          ],
          [
            8.485490943,
            48.852791159
          ],
          [
            8.485478994,
            48.852799091
          ],
          [
            8.485466724,
            48.852806903
          ],
          [
            8.485454281,
            48.852814688
          ],
          [
            8.485441744,
            48.852822372
          ],
          [
            8.485429295,
            48.852830154
          ],
          [
            8.485416967,
            48.852838083
          ],
          [
            8.485404644,
            48.852846117
          ],
          [
            8.485392455,
            48.852854241
          ],
          [
            8.485380442,
            48.852862395
          ],
          [
            8.485368585,
            48.852870597
          ],
          [
            8.485356677,
            48.85287886
          ],
          [
            8.485345022,
            48.852887146
          ],
          [
            8.485333475,
            48.852895492
          ],
          [
            8.485322065,
            48.852903752
          ],
          [
            8.485310682,
            48.852911966
          ],
          [
            8.48529934,
            48.852920144
          ],
          [
            8.485287923,
            48.85292828
          ],
          [
            8.485276305,
            48.852936439
          ],
          [
            8.485264659,
            48.852944619
          ],
          [
            8.485253149,
            48.852952789
          ],
          [
            8.485241815,
            48.852960934
          ],
          [
            8.485230585,
            48.852969106
          ],
          [
            8.485219139,
            48.852977266
          ],
          [
            8.485207688,
            48.852985352
          ],
          [
            8.485196125,
            48.852993415
          ],
          [
            8.485184536,
            48.853001574
          ],
          [
            8.485172851,
            48.853009662
          ],
          [
            8.485161271,
            48.853017796
          ],
          [
            8.485149708,
            48.853025834
          ],
          [
            8.485137965,
            48.853033792
          ],
          [
            8.485126038,
            48.853041698
          ],
          [
            8.485113976,
            48.853049505
          ],
          [
            8.485102032,
            48.853057355
          ],
          [
            8.485090042,
            48.853065213
          ],
          [
            8.485078082,
            48.853072981
          ],
          [
            8.485066093,
            48.85308089
          ],
          [
            8.485054225,
            48.853088823
          ],
          [
            8.485042592,
            48.853096911
          ],
          [
            8.485031042,
            48.853105098
          ],
          [
            8.485019541,
            48.853113361
          ],
          [
            8.485008114,
            48.85312161
          ],
          [
            8.484996596,
            48.853129762
          ],
          [
            8.484984822,
            48.853137862
          ],
          [
            8.484972904,
            48.853145879
          ],
          [
            8.484960857,
            48.853153946
          ],
          [
            8.484948957,
            48.85316199
          ],
          [
            8.484938243,
            48.853170838
          ],
          [
            8.484928198,
            48.853180583
          ],
          [
            8.484918436,
            48.853191032
          ],
          [
            8.484908789,
            48.853202394
          ],
          [
            8.48489881,
            48.853214536
          ],
          [
            8.484888477,
            48.853227576
          ],
          [
            8.484877659,
            48.85324149
          ],
          [
            8.484866374,
            48.853256174
          ],
          [
            8.484854705,
            48.853271331
          ],
          [
            8.484842681,
            48.853286845
          ],
          [
            8.484830138,
            48.853302772
          ],
          [
            8.48481712,
            48.853319033
          ],
          [
            8.484803873,
            48.853335489
          ],
          [
            8.48479022,
            48.853352148
          ],
          [
            8.484776399,
            48.853368971
          ],
          [
            8.484762403,
            48.853385972
          ],
          [
            8.484748394,
            48.853403119
          ],
          [
            8.484734284,
            48.853420477
          ],
          [
            8.484720121,
            48.85343808
          ],
          [
            8.484705987,
            48.853455906
          ],
          [
            8.484691848,
            48.853473876
          ],
          [
            8.484677845,
            48.853492084
          ],
          [
            8.48466362,
            48.85351042
          ],
          [
            8.484649342,
            48.853528954
          ],
          [
            8.484634991,
            48.853547597
          ],
          [
            8.484620547,
            48.853566276
          ],
          [
            8.484606193,
            48.853585129
          ],
          [
            8.484591524,
            48.853603945
          ],
          [
            8.484576737,
            48.853622755
          ],
          [
            8.484562065,
            48.853641722
          ],
          [
            8.484547132,
            48.853660624
          ],
          [
            8.48453188,
            48.853679486
          ],
          [
            8.484516747,
            48.853698496
          ],
          [
            8.484501833,
            48.853717668
          ],
          [
            8.48448715,
            48.853737067
          ],
          [
            8.484473157,
            48.85375541
          ],
          [
            8.484460896,
            48.853772432
          ],
          [
            8.484450982,
            48.853788096
          ],
          [
            8.484443041,
            48.853802235
          ],
          [
            8.484436337,
            48.853814322
          ],
          [
            8.484429983,
            48.853824304
          ],
          [
            8.484423754,
            48.853832134
          ],
          [
            8.484416871,
            48.853837785
          ],
          [
            8.48441037,
            48.853841528
          ],
          [
            8.484404382,
            48.853843424
          ],
          [
            8.484400134,
            48.853843893
          ],
          [
            8.484398618,
            48.853843263
          ],
          [
            8.484399398,
            48.853841545
          ],
          [
            8.484402499,
            48.853838778
          ],
          [
            8.484407721,
            48.853834902
          ],
          [
            8.484414741,
            48.853829822
          ],
          [
            8.484423159,
            48.853823679
          ],
          [
            8.484432557,
            48.853816881
          ],
          [
            8.484442486,
            48.853809606
          ],
          [
            8.484452813,
            48.853802058
          ],
          [
            8.484463484,
            48.853794433
          ],
          [
            8.484474538,
            48.853786678
          ],
          [
            8.484485744,
            48.853778735
          ],
          [
            8.484497043,
            48.853770864
          ],
          [
            8.484508412,
            48.853763059
          ],
          [
            8.484519884,
            48.853755235
          ],
          [
            8.484531356,
            48.853747468
          ],
          [
            8.484542772,
            48.85373966
          ],
          [
            8.484554106,
            48.853731869
          ],
          [
            8.48456537,
            48.853724033
          ],
          [
            8.484576764,
            48.853716363
          ],
          [
            8.484588407,
            48.853708763
          ],
          [
            8.48460018,
            48.853701136
          ],
          [
            8.484611925,
            48.853693411
          ],
          [
            8.484623566,
            48.853685721
          ],
          [
            8.484635296,
            48.853678051
          ],
          [
            8.484647123,
            48.853670378
          ],
          [
            8.484658861,
            48.853662658
          ],
          [
            8.484670525,
            48.853654858
          ],
          [
            8.484682173,
            48.853647028
          ],
          [
            8.484693868,
            48.853639111
          ],
          [
            8.484705635,
            48.853631173
          ],
          [
            8.484717426,
            48.853623265
          ],
          [
            8.484729222,
            48.853615299
          ],
          [
            8.484741037,
            48.853607337
          ],
          [
            8.484752837,
            48.853599347
          ],
          [
            8.484764585,
            48.853591349
          ],
          [
            8.484776391,
            48.853583392
          ],
          [
            8.48478823,
            48.85357547
          ],
          [
            8.484800086,
            48.853567545
          ],
          [
            8.484812079,
            48.853559634
          ],
          [
            8.484824085,
            48.853551737
          ],
          [
            8.484836035,
            48.853543831
          ],
          [
            8.484847989,
            48.853535918
          ],
          [
            8.484859937,
            48.853528007
          ],
          [
            8.484871802,
            48.853520069
          ],
          [
            8.484883656,
            48.853512115
          ],
          [
            8.484895398,
            48.853504179
          ],
          [
            8.484907052,
            48.853496253
          ],
          [
            8.484918882,
            48.853488377
          ],
          [
            8.484930953,
            48.853480514
          ],
          [
            8.484943137,
            48.853472636
          ],
          [
            8.484955348,
            48.853464745
          ],
          [
            8.484967476,
            48.853456824
          ],
          [
            8.484979574,
            48.853448859
          ],
          [
            8.484991529,
            48.853440849
          ],
          [
            8.485003432,
            48.853432834
          ],
          [
            8.485015283,
            48.853424897
          ],
          [
            8.48502704,
            48.853416977
          ],
          [
            8.485038683,
            48.853409127
          ],
          [
            8.485050144,
            48.853401311
          ],
          [
            8.485061456,
            48.853393468
          ],
          [
            8.485072832,
            48.853385595
          ],
          [
            8.485084305,
            48.853377717
          ],
          [
            8.485095805,
            48.853369753
          ],
          [
            8.485107416,
            48.853361832
          ],
          [
            8.485119164,
            48.853353943
          ],
          [
            8.485130881,
            48.853345998
          ],
          [
            8.485142634,
            48.853338074
          ],
          [
            8.485154452,
            48.853330151
          ],
          [
            8.485166195,
            48.853322192
          ],
          [
            8.485177861,
            48.853314158
          ],
          [
            8.485189603,
            48.853306078
          ],
          [
            8.485201465,
            48.85329796
          ],
          [
            8.485213441,
            48.853289877
          ],
          [
            8.485225459,
            48.853281717
          ],
          [
            8.485237556,
            48.853273591
          ],
          [
            8.485249687,
            48.853265432
          ],
          [
            8.485261843,
            48.853257288
          ],
          [
            8.485274028,
            48.853249146
          ],
          [
            8.485286187,
            48.853240939
          ],
          [
            8.485298242,
            48.853232802
          ],
          [
            8.485309955,
            48.853224792
          ],
          [
            8.485321512,
            48.853216881
          ],
          [
            8.48533315,
            48.853208959
          ],
          [
            8.485344904,
            48.853200967
          ],
          [
            8.485356943,
            48.853192967
          ],
          [
            8.485369029,
            48.853184949
          ],
          [
            8.485381131,
            48.853176916
          ],
          [
            8.485393304,
            48.853168962
          ],
          [
            8.485405508,
            48.853161059
          ],
          [
            8.485417732,
            48.853153182
          ],
          [
            8.485430007,
            48.853145292
          ],
          [
            8.485442221,
            48.853137456
          ],
          [
            8.485454406,
            48.853129664
          ],
          [
            8.485466522,
            48.853121893
          ],
          [
            8.485478639,
            48.853114075
          ],
          [
            8.485490786,
            48.853106197
          ],
          [
            8.485502951,
            48.853098325
          ],
          [
            8.48551502,
            48.853090303
          ],
          [
            8.485527063,
            48.853082295
          ],
          [
            8.485539172,
            48.853074235
          ],
          [
            8.485551385,
            48.853066218
          ],
          [
            8.485563619,
            48.853058227
          ],
          [
            8.485575826,
            48.853050223
          ],
          [
            8.485587908,
            48.853042219
          ],
          [
            8.485599726,
            48.853034236
          ],
          [
            8.485611627,
            48.853026222
          ],
          [
            8.485623467,
            48.853018159
          ],
          [
            8.485635219,
            48.853010119
          ],
          [
            8.485646836,
            48.853002064
          ],
          [
            8.485658405,
            48.852993945
          ],
          [
            8.485670002,
            48.852985778
          ],
          [
            8.485681591,
            48.852977562
          ],
          [
            8.485693109,
            48.852969345
          ],
          [
            8.485704573,
            48.852961113
          ],
          [
            8.485716165,
            48.852952862
          ],
          [
            8.485727762,
            48.85294462
          ],
          [
            8.485739387,
            48.852936431
          ],
          [
            8.485751103,
            48.852928278
          ],
          [
            8.485762827,
            48.852920099
          ],
          [
            8.485774577,
            48.852912012
          ],
          [
            8.485786324,
            48.852903989
          ],
          [
            8.485798013,
            48.852896062
          ],
          [
            8.485809729,
            48.852888144
          ],
          [
            8.485821539,
            48.852880232
          ],
          [
            8.485833164,
            48.852872276
          ],
          [
            8.485844792,
            48.852864252
          ],
          [
            8.485856458,
            48.852856107
          ],
          [
            8.485868062,
            48.852847973
          ],
          [
            8.485879723,
            48.852839818
          ],
          [
            8.485891313,
            48.852831731
          ],
          [
            8.485902956,
            48.852823639
          ],
          [
            8.485914623,
            48.85281558
          ],
          [
            8.485926297,
            48.852807522
          ],
          [
            8.485937965,
            48.852799451
          ],
          [
            8.485949651,
            48.852791418
          ],
          [
            8.485961292,
            48.85278344
          ],
          [
            8.485972871,
            48.852775508
          ],
          [
            8.485984488,
            48.852767652
          ],
          [
            8.48599494,
            48.852760739
          ],
          [
            8.486004752,
            48.85275444
          ],
          [
            8.486014326,
            48.852748251
          ],
          [
            8.486023586,
            48.852742071
          ],
          [
            8.486032681,
            48.852735904
          ],
          [
            8.48604177,
            48.85272977
          ],
          [
            8.486050933,
            48.852723484
          ],
          [
            8.486060109,
            48.85271722
          ],
          [
            8.486069414,
            48.852710907
          ],
          [
            8.486078846,
            48.852704613
          ],
          [
            8.486088304,
            48.852698284
          ],
          [
            8.48609781,
            48.852691938
          ],
          [
            8.486107291,
            48.852685493
          ],
          [
            8.486116656,
            48.852678936
          ],
          [
            8.486125878,
            48.852672411
          ],
          [
            8.486135084,
            48.852665845
          ],
          [
            8.486143358,
            48.852660139
          ],
          [
            8.486150458,
            48.852656373
          ],
          [
            8.486156275,
            48.85265539
          ],
          [
            8.486161407,
            48.852656898
          ],
          [
            8.486166357,
            48.852660567
          ],
          [
            8.486171547,
            48.852665579
          ],
          [
            8.486177152,
            48.85267141
          ],
          [
            8.486183331,
            48.852677614
          ],
          [
            8.486189943,
            48.852683979
          ],
          [
            8.486196907,
            48.852690477
          ],
          [
            8.486204161,
            48.852697043
          ],
          [
            8.486211636,
            48.852703624
          ],
          [
            8.486219293,
            48.852710187
          ],
          [
            8.486226933,
            48.852716804
          ],
          [
            8.486234488,
            48.852723456
          ],
          [
            8.486241881,
            48.852730178
          ],
          [
            8.486249153,
            48.852736994
          ],
          [
            8.486256459,
            48.852743897
          ],
          [
            8.486263813,
            48.852750875
          ],
          [
            8.486271035,
            48.852757902
          ],
          [
            8.486278163,
            48.852765018
          ],
          [
            8.48628526,
            48.852772222
          ],
          [
            8.486292418,
            48.852779483
          ],
          [
            8.486299649,
            48.852786813
          ],
          [
            8.486306921,
            48.852794179
          ],
          [
            8.486314296,
            48.852801544
          ],
          [
            8.486321835,
            48.852808902
          ],
          [
            8.486327699,
            48.852815657
          ],
          [
            8.486330049,
            48.852821713
          ],
          [
            8.486328227,
            48.852827462
          ],
          [
            8.486323209,
            48.852833276
          ],
          [
            8.486316278,
            48.852839585
          ],
          [
            8.486308006,
            48.852846463
          ],
          [
            8.486298654,
            48.852853623
          ],
          [
            8.486288879,
            48.852861173
          ],
          [
            8.486279002,
            48.852869048
          ],
          [
            8.486268811,
            48.852876985
          ],
          [
            8.486258643,
            48.852884866
          ],
          [
            8.486248406,
            48.852892756
          ],
          [
            8.486237946,
            48.852900696
          ],
          [
            8.486227319,
            48.85290859
          ],
          [
            8.486216563,
            48.852916461
          ],
          [
            8.486206005,
            48.852924324
          ],
          [
            8.48619564,
            48.852932247
          ],
          [
            8.486185503,
            48.852940125
          ],
          [
            8.48617545,
            48.852948003
          ],
          [
            8.486165595,
            48.852955776
          ],
          [
            8.486155712,
            48.852963496
          ],
          [
            8.486145795,
            48.852971151
          ],
          [
            8.48613562,
            48.852978772
          ],
          [
            8.486125276,
            48.852986396
          ],
          [
            8.486114645,
            48.852994094
          ],
          [
            8.486103746,
            48.853001888
          ],
          [
            8.486092547,
            48.853009629
          ],
          [
            8.486081154,
            48.853017398
          ],
          [
            8.486069709,
            48.853025256
          ],
          [
            8.486058166,
            48.853033121
          ],
          [
            8.486046811,
            48.853041029
          ],
          [
            8.486035425,
            48.853048909
          ],
          [
            8.486024097,
            48.853056915
          ],
          [
            8.486012994,
            48.853064908
          ],
          [
            8.486001914,
            48.853072922
          ],
          [
            8.485990885,
            48.853081031
          ],
          [
            8.485980086,
            48.853089065
          ],
          [
            8.485969345,
            48.853097104
          ],
          [
            8.485958533,
            48.853105071
          ],
          [
            8.485947593,
            48.853113005
          ],
          [
            8.485936417,
            48.853120878
          ],
          [
            8.485925266,
            48.853128772
          ],
          [
            8.48591394,
            48.853136664
          ],
          [
            8.48590259,
            48.853144454
          ],
          [
            8.485891229,
            48.853152154
          ],
          [
            8.485879708,
            48.853159894
          ],
          [
            8.48586805,
            48.853167639
          ],
          [
            8.48585643,
            48.853175331
          ],
          [
            8.485844867,
            48.853183069
          ],
          [
            8.485833244,
            48.85319085
          ],
          [
            8.48582163,
            48.853198758
          ],
          [
            8.485810133,
            48.853206716
          ],
          [
            8.485798601,
            48.85321471
          ],
          [
            8.485787039,
            48.8532227
          ],
          [
            8.485775562,
            48.853230703
          ],
          [
            8.485764158,
            48.853238704
          ],
          [
            8.485752728,
            48.853246689
          ],
          [
            8.485741268,
            48.853254597
          ],
          [
            8.485729789,
            48.853262454
          ],
          [
            8.485718332,
            48.853270205
          ],
          [
            8.485706832,
            48.853277908
          ],
          [
            8.485695211,
            48.853285671
          ],
          [
            8.485683699,
            48.853293491
          ],
          [
            8.485672217,
            48.853301312
          ],
          [
            8.485660751,
            48.853309155
          ],
          [
            8.485649215,
            48.853316996
          ],
          [
            8.485637767,
            48.853324843
          ],
          [
            8.485626381,
            48.853332728
          ],
          [
            8.485615008,
            48.853340653
          ],
          [
            8.485603794,
            48.853348644
          ],
          [
            8.485592685,
            48.853356702
          ],
          [
            8.485581755,
            48.853364797
          ],
          [
            8.485571067,
            48.85337279
          ],
          [
            8.485560644,
            48.853380788
          ],
          [
            8.485550194,
            48.853388817
          ],
          [
            8.485539601,
            48.853396839
          ],
          [
            8.485528866,
            48.853404748
          ],
          [
            8.485518006,
            48.853412555
          ],
          [
            8.485507095,
            48.853420092
          ],
          [
            8.485496157,
            48.853427413
          ],
          [
            8.48548522,
            48.85343465
          ],
          [
            8.485474138,
            48.853441854
          ],
          [
            8.485462885,
            48.853449129
          ],
          [
            8.48545146,
            48.85345653
          ],
          [
            8.48543998,
            48.853464034
          ],
          [
            8.485428461,
            48.853471699
          ],
          [
            8.485416767,
            48.853479513
          ],
          [
            8.485404959,
            48.853487449
          ],
          [
            8.485393,
            48.853495401
          ],
          [
            8.485380999,
            48.853503311
          ],
          [
            8.485368953,
            48.853511135
          ],
          [
            8.485356723,
            48.853518854
          ],
          [
            8.485344426,
            48.853526604
          ],
          [
            8.48533225,
            48.853534308
          ],
          [
            8.485320119,
            48.853542012
          ],
          [
            8.485307877,
            48.853549637
          ],
          [
            8.485295638,
            48.8535573
          ],
          [
            8.485283493,
            48.853564995
          ],
          [
            8.485271301,
            48.853572701
          ],
          [
            8.485259013,
            48.853580494
          ],
          [
            8.485246783,
            48.853588347
          ],
          [
            8.485234661,
            48.853596276
          ],
          [
            8.485222648,
            48.853604317
          ],
          [
            8.48521063,
            48.853612194
          ],
          [
            8.485198476,
            48.853620016
          ],
          [
            8.485186475,
            48.853627682
          ],
          [
            8.485174721,
            48.853635256
          ],
          [
            8.485163327,
            48.853642733
          ],
          [
            8.485152177,
            48.853650215
          ],
          [
            8.485141118,
            48.853657606
          ],
          [
            8.48513,
            48.853665144
          ],
          [
            8.48511895,
            48.853672747
          ],
          [
            8.485107975,
            48.853680423
          ],
          [
            8.485097005,
            48.853688132
          ],
          [
            8.48508573,
            48.853696018
          ],
          [
            8.485074354,
            48.853703773
          ],
          [
            8.485062565,
            48.853711515
          ],
          [
            8.485050546,
            48.853719246
          ],
          [
            8.485038358,
            48.853726888
          ],
          [
            8.485026195,
            48.853734579
          ],
          [
            8.48501397,
            48.853742324
          ],
          [
            8.485001591,
            48.853750066
          ],
          [
            8.484989275,
            48.853757609
          ],
          [
            8.484977095,
            48.853765208
          ],
          [
            8.484964937,
            48.853772836
          ],
          [
            8.48495288,
            48.853780502
          ],
          [
            8.48494099,
            48.853788205
          ],
          [
            8.484929164,
            48.853795921
          ],
          [
            8.484917038,
            48.853803596
          ],
          [
            8.484904813,
            48.853811207
          ],
          [
            8.484892609,
            48.853818869
          ],
          [
            8.48488034,
            48.853826629
          ],
          [
            8.484868352,
            48.853834299
          ],
          [
            8.484857831,
            48.853841114
          ],
          [
            8.484848003,
            48.853847595
          ],
          [
            8.484838526,
            48.853853873
          ],
          [
            8.484829166,
            48.853860158
          ],
          [
            8.48482,
            48.853866498
          ],
          [
            8.484810998,
            48.853872893
          ],
          [
            8.484801962,
            48.853879327
          ],
          [
            8.484792905,
            48.853885816
          ],
          [
            8.484783963,
            48.853892372
          ],
          [
            8.484775122,
            48.853899072
          ],
          [
            8.484766378,
            48.853905817
          ],
          [
            8.484757693,
            48.853912609
          ],
          [
            8.484748877,
            48.853919476
          ],
          [
            8.484740116,
            48.853926341
          ],
          [
            8.484731161,
            48.853933102
          ],
          [
            8.484721906,
            48.853939571
          ],
          [
            8.484714412,
            48.853945006
          ],
          [
            8.484710915,
            48.853950083
          ],
          [
            8.484711606,
            48.853954911
          ],
          [
            8.484715983,
            48.853959993
          ],
          [
            8.484722324,
            48.853965333
          ],
          [
            8.484729718,
            48.853970617
          ],
          [
            8.484737894,
            48.853975644
          ],
          [
            8.484746594,
            48.853980597
          ],
          [
            8.484755495,
            48.85398557
          ],
          [
            8.484764698,
            48.853990536
          ],
          [
            8.484774259,
            48.853995462
          ],
          [
            8.484784241,
            48.854000474
          ],
          [
            8.48479443,
            48.85400546
          ],
          [
            8.484804712,
            48.854010541
          ],
          [
            8.484815183,
            48.854015696
          ],
          [
            8.484825731,
            48.854020865
          ],
          [
            8.484836227,
            48.854026023
          ],
          [
            8.48484657,
            48.854031192
          ],
          [
            8.484856926,
            48.854036469
          ],
          [
            8.484867247,
            48.854041835
          ],
          [
            8.48487774,
            48.854047302
          ],
          [
            8.484888347,
            48.854052779
          ],
          [
            8.484898603,
            48.854058311
          ],
          [
            8.484908516,
            48.854063944
          ],
          [
            8.484918375,
            48.854069605
          ],
          [
            8.484928182,
            48.854075103
          ],
          [
            8.484936571,
            48.854079356
          ],
          [
            8.484944452,
            48.854081167
          ],
          [
            8.484952236,
            48.854080244
          ],
          [
            8.484960215,
            48.854076796
          ],
          [
            8.484968427,
            48.854071682
          ],
          [
            8.484976975,
            48.854065499
          ],
          [
            8.484986048,
            48.854058663
          ],
          [
            8.484995817,
            48.854051498
          ],
          [
            8.485006369,
            48.854044207
          ],
          [
            8.485017551,
            48.854036955
          ],
          [
            8.485029237,
            48.854029681
          ],
          [
            8.485040996,
            48.854022279
          ],
          [
            8.485052654,
            48.854014751
          ],
          [
            8.485064307,
            48.854007232
          ],
          [
            8.485075904,
            48.853999709
          ],
          [
            8.485087396,
            48.853992093
          ],
          [
            8.485098835,
            48.853984456
          ],
          [
            8.485110137,
            48.853976834
          ],
          [
            8.485121391,
            48.853968996
          ],
          [
            8.485132667,
            48.853961006
          ],
          [
            8.48514393,
            48.853953005
          ],
          [
            8.485155335,
            48.853944939
          ],
          [
            8.485166786,
            48.8539369
          ],
          [
            8.485178292,
            48.853928782
          ],
          [
            8.485189868,
            48.853920691
          ],
          [
            8.485201441,
            48.853912617
          ],
          [
            8.485213044,
            48.853904547
          ],
          [
            8.485224779,
            48.853896506
          ],
          [
            8.485236526,
            48.853888624
          ],
          [
            8.48524842,
            48.853880749
          ],
          [
            8.485260483,
            48.853872841
          ],
          [
            8.485272709,
            48.853864814
          ],
          [
            8.48528495,
            48.853856813
          ],
          [
            8.485297111,
            48.853848831
          ],
          [
            8.485309038,
            48.853840877
          ],
          [
            8.485320838,
            48.853832874
          ],
          [
            8.485332544,
            48.853824902
          ],
          [
            8.485344211,
            48.853817029
          ],
          [
            8.48535591,
            48.853809149
          ],
          [
            8.485367578,
            48.853801276
          ],
          [
            8.48537925,
            48.853793433
          ],
          [
            8.485390783,
            48.853785514
          ],
          [
            8.485402171,
            48.853777548
          ],
          [
            8.485413571,
            48.853769551
          ],
          [
            8.485425023,
            48.853761576
          ],
          [
            8.485436685,
            48.853753593
          ],
          [
            8.485448503,
            48.853745717
          ],
          [
            8.48546046,
            48.853737878
          ],
          [
            8.485472568,
            48.853729958
          ],
          [
            8.485484678,
            48.853722098
          ],
          [
            8.485496773,
            48.853714313
          ],
          [
            8.48550883,
            48.853706481
          ],
          [
            8.485520747,
            48.853698656
          ],
          [
            8.485532573,
            48.853690791
          ],
          [
            8.485544295,
            48.853682776
          ],
          [
            8.485555881,
            48.853674637
          ],
          [
            8.4855674,
            48.853666518
          ],
          [
            8.485578769,
            48.85365826
          ],
          [
            8.485590182,
            48.853650088
          ],
          [
            8.485601665,
            48.853641962
          ],
          [
            8.485613151,
            48.853633782
          ],
          [
            8.485624604,
            48.853625538
          ],
          [
            8.485636142,
            48.853617296
          ],
          [
            8.485647823,
            48.853609105
          ],
          [
            8.485659575,
            48.853600811
          ],
          [
            8.485671294,
            48.853592641
          ],
          [
            8.485682864,
            48.853584488
          ],
          [
            8.485694469,
            48.853576419
          ],
          [
            8.485705989,
            48.853568378
          ],
          [
            8.485717462,
            48.853560408
          ],
          [
            8.485728929,
            48.853552523
          ],
          [
            8.485740505,
            48.853544656
          ],
          [
            8.48575206,
            48.853536647
          ],
          [
            8.485763627,
            48.853528683
          ],
          [
            8.485775282,
            48.853520781
          ],
          [
            8.485787035,
            48.853512896
          ],
          [
            8.485798833,
            48.853505041
          ],
          [
            8.485810562,
            48.853497236
          ],
          [
            8.48582218,
            48.853489383
          ],
          [
            8.485833763,
            48.853481523
          ],
          [
            8.485845392,
            48.853473609
          ],
          [
            8.485856955,
            48.853465648
          ],
          [
            8.485868574,
            48.853457681
          ],
          [
            8.485880098,
            48.85344967
          ],
          [
            8.485891511,
            48.853441673
          ],
          [
            8.485902948,
            48.853433717
          ],
          [
            8.485914539,
            48.853425705
          ],
          [
            8.485926173,
            48.853417691
          ],
          [
            8.485937687,
            48.85340961
          ],
          [
            8.485949079,
            48.853401505
          ],
          [
            8.485960639,
            48.853393455
          ],
          [
            8.485972382,
            48.853385492
          ],
          [
            8.485984299,
            48.853377757
          ],
          [
            8.485996312,
            48.853370068
          ],
          [
            8.486008301,
            48.853362423
          ],
          [
            8.486020231,
            48.853354693
          ],
          [
            8.486032155,
            48.853347016
          ],
          [
            8.486044085,
            48.853339308
          ],
          [
            8.48605599,
            48.853331535
          ],
          [
            8.486068003,
            48.853323775
          ],
          [
            8.486080014,
            48.853315884
          ],
          [
            8.486091946,
            48.853307947
          ],
          [
            8.486103874,
            48.853300013
          ],
          [
            8.486115835,
            48.85329207
          ],
          [
            8.48612794,
            48.85328412
          ],
          [
            8.486140058,
            48.853276236
          ],
          [
            8.486152049,
            48.853268324
          ],
          [
            8.486163936,
            48.8532603
          ],
          [
            8.48617566,
            48.853252208
          ],
          [
            8.486187369,
            48.853244022
          ],
          [
            8.486198982,
            48.853235797
          ],
          [
            8.486210617,
            48.85322771
          ],
          [
            8.486222249,
            48.853219639
          ],
          [
            8.486234042,
            48.853211583
          ],
          [
            8.486245905,
            48.853203581
          ],
          [
            8.486257745,
            48.853195568
          ],
          [
            8.486269444,
            48.853187509
          ],
          [
            8.486281047,
            48.8531795
          ],
          [
            8.486292742,
            48.853171543
          ],
          [
            8.486304475,
            48.853163466
          ],
          [
            8.486316227,
            48.853155475
          ],
          [
            8.486328032,
            48.853147464
          ],
          [
            8.486339762,
            48.853139426
          ],
          [
            8.486351548,
            48.85313134
          ],
          [
            8.486363352,
            48.853123234
          ],
          [
            8.486375123,
            48.85311512
          ],
          [
            8.48638692,
            48.85310705
          ],
          [
            8.486398746,
            48.853099031
          ],
          [
            8.486410486,
            48.853091006
          ],
          [
            8.486422206,
            48.853083003
          ],
          [
            8.486433882,
            48.853075019
          ],
          [
            8.486445414,
            48.85306711
          ],
          [
            8.486456996,
            48.853059213
          ],
          [
            8.48646863,
            48.853051366
          ],
          [
            8.486480287,
            48.853043485
          ],
          [
            8.486491941,
            48.853035603
          ],
          [
            8.486503549,
            48.853027614
          ],
          [
            8.486515091,
            48.85301963
          ],
          [
            8.48652667,
            48.853011619
          ],
          [
            8.486537796,
            48.853003854
          ],
          [
            8.486547305,
            48.852997563
          ],
          [
            8.486554806,
            48.852992511
          ],
          [
            8.486560058,
            48.852988894
          ],
          [
            8.4865632,
            48.852986938
          ],
          [
            8.486563977,
            48.852986474
          ],
          [
            8.486561982,
            48.852987275
          ],
          [
            8.486557696,
            48.852989035
          ],
          [
            8.486551176,
            48.852991565
          ],
          [
            8.486542773,
            48.852994714
          ],
          [
            8.486532498,
            48.852998335
          ],
          [
            8.486520021,
            48.853002492
          ],
          [
            8.486505439,
            48.853007509
          ],
          [
            8.486488955,
            48.853013126
          ],
          [
            8.486470733,
            48.853019224
          ],
          [
            8.486451409,
            48.853025753
          ],
          [
            8.486430962,
            48.85303245
          ],
          [
            8.486409473,
            48.853039313
          ],
          [
            8.486387241,
            48.853046268
          ],
          [
            8.486364883,
            48.853053332
          ],
          [
            8.486342169,
            48.853060567
          ],
          [
            8.486319724,
            48.853067857
          ],
          [
            8.48629728,
            48.853075189
          ],
          [
            8.486275077,
            48.853082566
          ],
          [
            8.486253042,
            48.85308998
          ],
          [
            8.486231009,
            48.853097439
          ],
          [
            8.486209062,
            48.853104744
          ],
          [
            8.486186864,
            48.85311207
          ],
          [
            8.486164403,
            48.853119512
          ],
          [
            8.486141791,
            48.853126853
          ],
          [
            8.486119153,
            48.853134135
          ],
          [
            8.486096447,
            48.853141533
          ],
          [
            8.4860739,
            48.853148897
          ],
          [
            8.486051448,
            48.853156263
          ],
          [
            8.486029338,
            48.853163592
          ],
          [
            8.486007133,
            48.853171047
          ],
          [
            8.485985098,
            48.853178605
          ],
          [
            8.485963106,
            48.853186131
          ],
          [
            8.485941217,
            48.853193521
          ],
          [
            8.485919511,
            48.853200903
          ],
          [
            8.485897735,
            48.853208163
          ],
          [
            8.485875817,
            48.853215227
          ],
          [
            8.485853984,
            48.853222162
          ],
          [
            8.485832149,
            48.853229038
          ],
          [
            8.485810418,
            48.853236041
          ],
          [
            8.485788738,
            48.853242858
          ],
          [
            8.485767041,
            48.853249643
          ],
          [
            8.485745387,
            48.853256589
          ],
          [
            8.485723792,
            48.853263498
          ],
          [
            8.485701916,
            48.853270356
          ],
          [
            8.485680103,
            48.853277321
          ],
          [
            8.4856581,
            48.853284359
          ],
          [
            8.485636233,
            48.85329145
          ],
          [
            8.485614422,
            48.853298752
          ],
          [
            8.485592541,
            48.853305888
          ],
          [
            8.485570798,
            48.853313068
          ],
          [
            8.4855491,
            48.85332029
          ],
          [
            8.485527442,
            48.853327471
          ],
          [
            8.485505785,
            48.853334721
          ],
          [
            8.485484053,
            48.853341958
          ],
          [
            8.485462278,
            48.853349258
          ],
          [
            8.485440456,
            48.853356524
          ],
          [
            8.485418601,
            48.853363919
          ],
          [
            8.485396344,
            48.85337103
          ],
          [
            8.485373609,
            48.853377857
          ],
          [
            8.485349928,
            48.853384958
          ],
          [
            8.485325225,
            48.853391997
          ],
          [
            8.485299726,
            48.853399165
          ],
          [
            8.485273668,
            48.853406299
          ],
          [
            8.48524705,
            48.853413339
          ],
          [
            8.48521986,
            48.853420346
          ],
          [
            8.485192263,
            48.853427322
          ],
          [
            8.485164212,
            48.853434421
          ],
          [
            8.485135883,
            48.853441461
          ],
          [
            8.485107107,
            48.8534487
          ],
          [
            8.48507809,
            48.853455955
          ],
          [
            8.485048848,
            48.853463246
          ],
          [
            8.485019432,
            48.853470406
          ],
          [
            8.484989734,
            48.853477616
          ],
          [
            8.484959722,
            48.853484946
          ],
          [
            8.484929622,
            48.853492337
          ],
          [
            8.484899504,
            48.853499909
          ],
          [
            8.484869462,
            48.853507592
          ],
          [
            8.484839107,
            48.853515247
          ],
          [
            8.484808653,
            48.85352297
          ],
          [
            8.484778196,
            48.853530667
          ],
          [
            8.484747679,
            48.853538402
          ],
          [
            8.484718339,
            48.85354552
          ],
          [
            8.484692425,
            48.853551243
          ],
          [
            8.484670331,
            48.853556086
          ],
          [
            8.484653262,
            48.853559786
          ],
          [
            8.484640163,
            48.853562727
          ],
          [
            8.484626025,
            48.853566043
          ],
          [
            8.484612257,
            48.853569423
          ],
          [
            8.484604523,
            48.853571469
          ],
          [
            8.484603827,
            48.853571788
          ],
          [
            8.484608978,
            48.853570863
          ],
          [
            8.484617135,
            48.85356936
          ],
          [
            8.484623575,
            48.853567943
          ],
          [
            8.484629311,
            48.853566929
          ],
          [
            8.484632687,
            48.853566619
          ],
          [
            8.484634933,
            48.853566576
          ],
          [
            8.484636516,
            48.853566905
          ],
          [
            8.484637793,
            48.85356735
          ],
          [
            8.484638803,
            48.853567729
          ],
          [
            8.484639323,
            48.853568118
          ],
          [
            8.484639671,
            48.853568405
          ],
          [
            8.48464,
            48.853568845
          ],
          [
            8.484640266,
            48.853569132
          ],
          [
            8.48464029,
            48.853569139
          ],
          [
            8.484639923,
            48.853568687
          ],
          [
            8.484639484,
            48.853568172
          ],
          [
            8.484639035,
            48.853567823
          ],
          [
            8.484638141,
            48.85356759
          ],
          [
            8.484637195,
            48.853567371
          ],
          [
            8.484636998,
            48.853566922
          ],
          [
            8.484636269,
            48.853566556
          ],
          [
            8.484633383,
            48.853566639
          ],
          [
            8.48462398,
            48.853567895
          ],
          [
            8.48461275,
            48.853569547
          ],
          [
            8.484604179,
            48.853570517
          ],
          [
            8.484596406,
            48.853571307
          ],
          [
            8.484591148,
            48.853571912
          ],
          [
            8.484588438,
            48.853572297
          ],
          [
            8.484586233,
            48.853572603
          ],
          [
            8.484584469,
            48.853572912
          ],
          [
            8.484582835,
            48.85357326
          ],
          [
            8.484581376,
            48.853573535
          ],
          [
            8.484580379,
            48.853573696
          ],
          [
            8.484579796,
            48.853573863
          ],
          [
            8.48457938,
            48.853574062
          ],
          [
            8.484579122,
            48.853574161
          ],
          [
            8.484579095,
            48.85357414
          ],
          [
            8.484579425,
            48.853574209
          ],
          [
            8.484579676,
            48.853574421
          ],
          [
            8.484579664,
            48.85357466
          ],
          [
            8.484579356,
            48.853574993
          ],
          [
            8.484578825,
            48.853575479
          ],
          [
            8.484578601,
            48.853575937
          ],
          [
            8.48457874,
            48.853576186
          ],
          [
            8.484578607,
            48.853576303
          ],
          [
            8.484576519,
            48.853576808
          ],
          [
            8.484572774,
            48.853577526
          ],
          [
            8.484568568,
            48.85357807
          ],
          [
            8.484564885,
            48.853578414
          ],
          [
            8.484560397,
            48.853578687
          ],
          [
            8.484555753,
            48.853578911
          ],
          [
            8.48455169,
            48.853579121
          ],
          [
            8.484549593,
            48.853579335
          ],
          [
            8.484548196,
            48.853579502
          ],
          [
            8.484547038,
            48.853579544
          ],
          [
            8.484546088,
            48.853579616
          ],
          [
            8.484545384,
            48.853579701
          ],
          [
            8.484544651,
            48.853579908
          ],
          [
            8.484543777,
            48.853580187
          ],
          [
            8.484543058,
            48.853580515
          ],
          [
            8.484542243,
            48.853580684
          ],
          [
            8.484541867,
            48.853580508
          ],
          [
            8.48454177,
            48.853580497
          ],
          [
            8.484541762,
            48.853580492
          ],
          [
            8.484541766,
            48.853580488
          ],
          [
            8.484541783,
            48.853580474
          ],
          [
            8.4845418,
            48.853580467
          ],
          [
            8.484541818,
            48.853580466
          ],
          [
            8.484541835,
            48.853580462
          ],
          [
            8.484541853,
            48.853580455
          ],
          [
            8.484541869,
            48.853580445
          ],
          [
            8.484541885,
            48.853580434
          ],
          [
            8.484541898,
            48.853580425
          ],
          [
            8.484541908,
            48.85358042
          ],
          [
            8.484541918,
            48.85358041
          ],
          [
            8.484541926,
            48.853580404
          ],
          [
            8.484541931,
            48.853580401
          ],
          [
            8.484541933,
            48.853580402
          ],
          [
            8.484541925,
            48.853580409
          ],
          [
            8.48454191,
            48.85358042
          ],
          [
            8.484541887,
            48.853580433
          ]
        ]
      }
    }
  ]
}