{
  "type": "FeatureCollection",
  "features": [
    {
      "type": "Feature",
      "geometry": {
        "type": "LineString",
        "coordinates": [
          [
            8.484497061,
            48.853579544
          ],
          [
            8.484500408,
            48.853574033
          ],
          [
            8.4845066,
            48.853569718
          ],
          [
            8.484514763,
            48.853566891
          ],
          [
            8.484525667,
            48.853564736
          ],
          [
            8.484539938,
            48.853562454
          ],
          [
            8.484556348,
            48.853560229
          ],
          [
            8.484574615,
            48.853557865
          ],
          [
            8.484594665,
            48.853555253
          ],
          [
            8.484616249,
            48.853552505
          ],
          [
            8.484639,
            48.853549652
          ],
          [
            8.48466291,
            48.853546774
          ],
          [
            8.484687701,
            48.853543787
          ],
          [
            8.484713114,
            48.853540692
          ],
          [
            8.484739013,
            48.853537431
          ],
          [
            8.484765251,
            48.853533934
          ],
          [
            8.484791933,
            48.853530218
          ],
          [
            8.484819072,
            48.853526331
          ],
          [
            8.48484672,
            48.853522281
          ],
          [
            8.484874637,
            48.853517934
          ],
          [
            8.484902994,
            48.85351333
          ],
          [
            8.484931747,
            48.853508423
          ],
          [
            8.484960975,
            48.853503388
          ],
          [
            8.484990732,
            48.853498179
          ],
          [
            8.485020879,
            48.853492795
          ],
          [
            8.485051171,
            48.85348746
          ],
          [
            8.485081833,
            48.853482075
          ],
          [
            8.485112767,
            48.853476712
          ],
          [
            8.485143651,
            48.853471557
          ],
          [
            8.485172657,
            48.853467231
          ],
          [
            8.485199252,
            48.853463661
          ],
          [
            8.485223059,
            48.853460956
          ],
          [
            8.485243706,
            48.853458968
          ],
          [
            8.48526119,
            48.853457587
          ],
          [
            8.485275271,
            48.853456597
          ],
          [
            8.485285641,
            48.853455898
          ],
          [
            8.485292258,
            48.85345542
          ],
          [
            8.485295268,
            48.853455116
          ],
          [
            8.485295071,
            48.853454774
          ],
          [
            8.485292318,
            48.853454492
          ],
          [
            8.485287285,
            48.853454324
          ],
          [
            8.485280215,
            48.853454357
          ],
          [
            8.485271422,
            48.853454731
          ],
          [
            8.48526085,
            48.853455598
          ],
          [
            8.485248331,
            48.85345716
          ],
          [
            8.485233721,
            48.853459429
          ],
          [
            8.485216706,
            48.853462297
          ],
          [
            8.485197598,
            48.853465734
          ],
          [
            8.485176603,
            48.853469461
          ],
          [
            8.485153853,
            48.853473376
          ],
          [
            8.485129579,
            48.853477364
          ],
          [
            8.485104125,
            48.853481417
          ],
          [
            8.485077626,
            48.853485372
          ],
          [
            8.485050432,
            48.853489329
          ],
          [
            8.485022655,
            48.853493235
          ],
          [
            8.484994472,
            48.853497316
          ],
          [
            8.484966048,
            48.853501584
          ],
          [
            8.484937409,
            48.853505955
          ],
          [
            8.484908365,
            48.853510459
          ],
          [
            8.484879232,
            48.853514911
          ],
          [
            8.484849903,
            48.853519557
          ],
          [
            8.48482064,
            48.853524482
          ],
          [
            8.484791425,
            48.853529684
          ],
          [
            8.484761917,
            48.853535062
          ],
          [
            8.484732258,
            48.853540473
          ],
          [
            8.484702483,
            48.853546012
          ],
          [
            8.484672854,
            48.853551607
          ],
          [
            8.484645525,
            48.85355677
          ],
          [
            8.484621374,
            48.853561513
          ],
          [
            8.484599976,
            48.85356556
          ],
          [
            8.484581032,
            48.853568815
          ],
          [
            8.484564611,
            48.85357113
          ],
          [
            8.484550912,
            48.853573025
          ],
          [
            8.484540359,
            48.853574632
          ],
          [
            8.484533107,
            48.853575922
          ],
          [
            8.484529144,
            48.853576746
          ],
          [
            8.484527905,
            48.853577134
          ],
          [
            8.484528421,
            48.853576934
          ],
          [
            8.484529847,
            48.853575964
          ],
          [
            8.484531658,
            48.853574115
          ],
          [
            8.484533412,
            48.853571231
          ],
          [
            8.484534806,
            48.85356707
          ],
          [
            8.484536117,
            48.853561686
          ],
          [
            8.484537544,
            48.853554838
          ],
          [
            8.484539123,
            48.853546244
          ],
          [
            8.484541164,
            48.853535791
          ],
          [
            8.484543811,
            48.853523578
          ],
          [
            8.484547082,
            48.853510007
          ],
          [
            8.484550814,
            48.853495234
          ],
          [
            8.484555169,
            48.853479501
          ],
          [
            8.484559927,
            48.853462877
          ],
          [
            8.484565112,
            48.853445482
          ],
          [
            8.484570708,
            48.853427522
          ],
          [
            8.484576714,
            48.853409172
          ],
          [
            8.484583011,
            48.853390517
          ],
          [
            8.484589262,
            48.853371598
          ],
          [
            8.4845954,
            48.853352497
          ],
          [
            8.484601633,
            48.853333159
          ],
          [
            8.484607715,
            48.853313618
          ],
          [
            8.484613691,
            48.853293883
          ],
          [
            8.484619593,
            48.85327395
          ],
          [
            8.484625477,
            48.853253897
          ],
          [
            8.4846314,
            48.853233532
          ],
          [
            8.484637317,
            48.853213092
          ],
          [
            8.484643101,
            48.853192455
          ],
          [
            8.484649077,
            48.85317157
          ],
          [
            8.484655327,
            48.853150609
          ],
          [
            8.484663861,
            48.853130467
          ],
          [
            8.48467332,
            48.853112387
          ],
          [
            8.484682078,
            48.853095632
          ],
          [
            8.484689784,
            48.853080488
          ],
          [
            8.484696284,
            48.853067001
          ],
          [
            8.484701798,
            48.853055078
          ],
          [
            8.484707321,
            48.853044293
          ],
          [
            8.484713824,
            48.853034042
          ],
          [
            8.484721064,
            48.853024264
          ],
          [
            8.484729146,
            48.853014889
          ],
          [
            8.48473801,
            48.853005807
          ],
          [
            8.484747609,
            48.852997029
          ],
          [
            8.48475752,
            48.852988292
          ],
          [
            8.484767424,
            48.852979619
          ],
          [
            8.484777225,
            48.85297092
          ],
          [
            8.484786925,
            48.852962177
          ],
          [
            8.484796826,
            48.852953435
          ],
          [
            8.484806938,
            48.852944589
          ],
          [
            8.484817392,
            48.852935713
          ],
          [
            8.484828374,
            48.8529271
          ],
          [
            8.484839745,
            48.852918754
          ],
          [
            8.48485152,
            48.852910679
          ],
          [
            8.484863581,
            48.852902763
          ],
          [
            8.484875668,
            48.852894853
          ],
          [
            8.484887745,
            48.852886883
          ],
          [
            8.484899878,
            48.852878871
          ],
          [
            8.484912071,
            48.852870812
          ],
          [
            8.484924276,
            48.852862752
          ],
          [
            8.484936581,
            48.852854705
          ],
          [
            8.484948893,
            48.852846654
          ],
          [
            8.484961268,
            48.852838668
          ],
          [
            8.484973674,
            48.85283071
          ],
          [
            8.484986073,
            48.852822661
          ],
          [
            8.484998531,
            48.852814616
          ],
          [
            8.48501091,
            48.852806539
          ],
          [
            8.485023232,
            48.852798408
          ],
          [
            8.485035519,
            48.852790321
          ],
          [
            8.48504789,
            48.852782279
          ],
          [
            8.485060291,
            48.852774287
          ],
          [
            8.485072588,
            48.852766313
          ],
          [
            8.485084771,
            48.852758354
          ],
          [
            8.485096805,
            48.852750402
          ],
          [
            8.48510874,
            48.852742436
          ],
          [
            8.485120671,
            48.852734427
          ],
          [
            8.485132501,
            48.85272642
          ],
          [
            8.485144245,
            48.852718458
          ],
          [
            8.485156056,
            48.852710521
          ],
          [
            8.485167891,
            48.852702589
          ],
          [
            8.485179648,
            48.852694676
          ],
          [
            8.485191289,
            48.852686722
          ],
          [
            8.485202848,
            48.852678718
          ],
          [
            8.485214424,
            48.852670653
          ],
          [
            8.485226061,
            48.852662601
          ],
          [
            8.48523774,
            48.85265457
          ],
          [
            8.485249451,
            48.852646553
          ],
          [
            8.485261136,
            48.852638589
          ],
          [
            8.485272776,
            48.852630744
          ],
          [
            8.485284439,
            48.852622829
          ],
          [
            8.485296183,
            48.852614817
          ],
          [
            8.485308027,
            48.852606779
          ],
          [
            8.485319921,
            48.852598676
          ],
          [
            8.485331832,
            48.85259054
          ],
          [
            8.485343827,
            48.852582386
          ],
          [
            8.485355816,
            48.852574201
          ],
          [
            8.485367752,
            48.85256608
          ],
          [
            8.485379701,
            48.852558033
          ],
          [
            8.485391628,
            48.852550004
          ],
          [
            8.485403577,
            48.852542068
          ],
          [
            8.485415701,
            48.852534203
          ],
          [
            8.485428001,
            48.852526344
          ],
          [
            8.485440437,
            48.852518483
          ],
          [
            8.485452876,
            48.852510571
          ],
          [
            8.485465257,
            48.852502659
          ],
          [
            8.485477487,
            48.852494658
          ],
          [
            8.485489578,
            48.852486638
          ],
          [
            8.485501517,
            48.852478631
          ],
          [
            8.485513309,
            48.852470532
          ],
          [
            8.485524958,
            48.85246235
          ],
          [
            8.485536583,
            48.85245431
          ],
          [
            8.485548218,
            48.852446184
          ],
          [
            8.485559825,
            48.852438064
          ],
          [
            8.485571399,
            48.852429989
          ],
          [
            8.485583033,
            48.85242203
          ],
          [
            8.485594485,
            48.852414226
          ],
          [
            8.485604677,
            48.852407495
          ],
          [
            8.485614437,
            48.8524012
          ],
          [
            8.485623855,
            48.852394979
          ],
          [
            8.485632988,
            48.85238878
          ],
          [
            8.485641906,
            48.8523825
          ],
          [
            8.485650639,
            48.85237608
          ],
          [
            8.485659376,
            48.852369539
          ],
          [
            8.485668127,
            48.85236291
          ],
          [
            8.485676879,
            48.852356189
          ],
          [
            8.485685725,
            48.852349485
          ],
          [
            8.485694694,
            48.852342753
          ],
          [
            8.485703805,
            48.85233605
          ],
          [
            8.485713036,
            48.852329422
          ],
          [
            8.485722224,
            48.852322812
          ],
          [
            8.485731337,
            48.852316274
          ],
          [
            8.485740373,
            48.852309786
          ],
          [
            8.485748046,
            48.852304863
          ],
          [
            8.485754608,
            48.852302345
          ],
          [
            8.485760179,
            48.852302293
          ],
          [
            8.485765583,
            48.852304363
          ],
          [
            8.485771278,
            48.852308105
          ],
          [
            8.48577727,
            48.852312841
          ],
          [
            8.485783515,
            48.85231818
          ],
          [
            8.485790098,
            48.852323862
          ],
          [
            8.485796983,
            48.852329744
          ],
          [
            8.485804206,
            48.852335771
          ],
          [
            8.48581157,
            48.852341957
          ],
          [
            8.485819028,
            48.852348235
          ],
          [
            8.48582638,
            48.852354611
          ],
          [
            8.485833778,
            48.852361148
          ],
          [
            8.48584123,
            48.85236774
          ],
          [
            8.485848822,
            48.852374413
          ],
          [
            8.485856513,
            48.852381151
          ],
          [
            8.485864327,
            48.852387958
          ],
          [
            8.4858722,
            48.852394814
          ],
          [
            8.485879977,
            48.852401714
          ],
          [
            8.485887699,
            48.852408735
          ],
          [
            8.485895327,
            48.852415826
          ],
          [
            8.485902822,
            48.852422917
          ],
          [
            8.485910415,
            48.852429944
          ],
          [
            8.485918167,
            48.852436892
          ],
          [
            8.485926216,
            48.852443776
          ],
          [
            8.485933857,
            48.852450376
          ],
          [
            8.485938495,
            48.852456097
          ],
          [
            8.485939155,
            48.852461202
          ],
          [
            8.48593631,
            48.852466126
          ],
          [
            8.485931081,
            48.852471537
          ],
          [
            8.485924282,
            48.852477625
          ],
          [
            8.485916386,
            48.852484211
          ],
          [
            8.485907639,
            48.852491218
          ],
          [
            8.485898089,
            48.852498553
          ],
          [
            8.485887927,
            48.852506115
          ],
          [
            8.485877282,
            48.852513882
          ],
          [
            8.485866122,
            48.852521933
          ],
          [
            8.48585462,
            48.852530131
          ],
          [
            8.485842756,
            48.85253846
          ],
          [
            8.485830636,
            48.852546842
          ],
          [
            8.4858184,
            48.85255538
          ],
          [
            8.485806396,
            48.852564042
          ],
          [
            8.485794831,
            48.852572903
          ],
          [
            8.485783586,
            48.85258197
          ],
          [
            8.485772332,
            48.852591018
          ],
          [
            8.485760935,
            48.852599846
          ],
          [
            8.485749277,
            48.852608487
          ],
          [
            8.485737485,
            48.852617029
          ],
          [
            8.485725628,
            48.85262545
          ],
          [
            8.485713651,
            48.852633817
          ],
          [
            8.485701541,
            48.852642135
          ],
          [
            8.485689113,
            48.852650401
          ],
          [
            8.485676614,
            48.852658615
          ],
          [
            8.485664006,
            48.852666796
          ],
          [
            8.485651387,
            48.852674991
          ],
          [
            8.485638836,
            48.852683233
          ],
          [
            8.485626368,
            48.852691357
          ],
          [
            8.485614026,
            48.85269945
          ],
          [
            8.485601703,
            48.852707561
          ],
          [
            8.485589464,
            48.85271573
          ],
          [
            8.485577651,
            48.852723871
          ],
          [
            8.48556638,
            48.852732243
          ],
          [
            8.485555673,
            48.852740793
          ],
          [
            8.48554514,
            48.852749255
          ],
          [
            8.485534599,
            48.852757622
          ],
          [
            8.485523968,
            48.852765828
          ],
          [
            8.485513032,
            48.852773967
          ],
          [
            8.485501722,
            48.852782068
          ],
          [
            8.485490019,
            48.852790032
          ],
          [
            8.485478071,
            48.852797958
          ],
          [
            8.485465803,
            48.852805767
          ],
          [
            8.485453362,
            48.852813546
          ],
          [
            8.485440828,
            48.852821226
          ],
          [
            8.485428376,
            48.852829007
          ],
          [
            8.485416043,
            48.852836936
          ],
          [
            8.485403723,
            48.852844969
          ],
          [
            8.485391539,
            48.85285309
          ],
          [
            8.485379527,
            48.852861243
          ],
          [
            8.485367672,
            48.852869445
          ],
          [
            8.485355768,
            48.852877707
          ],
          [
            8.485344117,
            48.852885992
          ],
          [
            8.485332571,
            48.852894338
          ],
          [
            8.485321164,
            48.852902598
          ],
          [
            8.485309783,
            48.852910811
          ],
          [
            8.485298443,
            48.85291899
          ],
          [
            8.485287026,
            48.852927126
          ],
          [
            8.485275408,
            48.852935288
          ],
          [
            8.485263763,
            48.852943467
          ],
          [
            8.485252258,
            48.852951639
          ],
          [
            8.485240926,
            48.852959785
          ],
          [
            8.485229697,
            48.85296796
          ],
          [
            8.48521825,
            48.852976122
          ],
          [
            8.485206799,
            48.852984208
          ],
          [
            8.485195235,
            48.852992276
          ],
          [
            8.485183647,
            48.853000438
          ],
          [
            8.485171959,
            48.853008529
          ],
          [
            8.485160382,
            48.853016666
          ],
          [
            8.485148816,
            48.853024707
          ],
          [
            8.485137071,
            48.853032667
          ],
          [
            8.48512514,
            48.853040578
          ],
          [
            8.485113077,
            48.853048387
          ],
          [
            8.48510113,
            48.853056242
          ],
          [
            8.485089136,
            48.853064105
          ],
          [
            8.485077173,
            48.853071877
          ],
          [
            8.48506518,
            48.853079791
          ],
          [
            8.485053306,
            48.85308773
          ],
          [
            8.485041669,
            48.853095825
          ],
          [
            8.48503011,
            48.853104018
          ],
          [
            8.4850186,
            48.853112288
          ],
          [
            8.485007161,
            48.853120541
          ],
          [
            8.484995631,
            48.853128701
          ],
          [
            8.48498384,
            48.853136805
          ],
          [
            8.484971906,
            48.85314483
          ],
          [
            8.484959841,
            48.853152902
          ],
          [
            8.484947914,
            48.853160973
          ],
          [
            8.484937145,
            48.853169928
          ],
          [
            8.484927069,
            48.853179723
          ],
          [
            8.484917289,
            48.853190192
          ],
          [
            8.484907623,
            48.85320157
          ],
          [
            8.484897625,
            48.853213728
          ],
          [
            8.484887273,
            48.853226782
          ],
          [
            8.484876438,
            48.85324071
          ],
          [
            8.484865136,
            48.853255404
          ],
          [
            8.484853451,
            48.85327057
          ],
          [
            8.484841414,
            48.853286091
          ],
          [
            8.484828859,
            48.853302027
          ],
          [
            8.484815831,
            48.853318296
          ],
          [
            8.484802577,
            48.853334758
          ],
          [
            8.484788916,
            48.853351426
          ],
          [
            8.484775093,
            48.853368255
          ],
          [
            8.484761094,
            48.853385265
          ],
          [
            8.484747085,
            48.853402421
          ],
          [
            8.484732974,
            48.853419788
          ],
          [
            8.484718812,
            48.853437403
          ],
          [
            8.484704677,
            48.853455241
          ],
          [
            8.484690541,
            48.853473225
          ],
          [
            8.48467654,
            48.85349145
          ],
          [
            8.484662313,
            48.853509802
          ],
          [
            8.484648038,
            48.853528356
          ],
          [
            8.484633684,
            48.853547019
          ],
          [
            8.484619241,
            48.85356572
          ],
          [
            8.484604883,
            48.8535846
          ],
          [
            8.484590208,
            48.853603441
          ],
          [
            8.484575419,
            48.853622282
          ],
          [
            8.484560739,
            48.853641282
          ],
          [
            8.484545795,
            48.853660218
          ],
          [
            8.484530534,
            48.85367912
          ],
          [
            8.484515389,
            48.853698175
          ],
          [
            8.484500463,
            48.853717396
          ],
          [
            8.484485762,
            48.853736851
          ],
          [
            8.484471732,
            48.853755341
          ],
          [
            8.484459535,
            48.853772709
          ],
          [
            8.484449963,
            48.853788741
          ],
          [
            8.484442547,
            48.8538031
          ],
          [
            8.484436396,
            48.853815209
          ],
          [
            8.484430461,
            48.853825065
          ],
          [
            8.48442437,
            48.853832847
          ],
          [
            8.484417502,
            48.853838539
          ],
          [
            8.484411001,
            48.853842317
          ],
          [
            8.484405118,
            48.853844191
          ],
          [
            8.484400976,
            48.853844641
          ],
          [
            8.484399492,
            48.853844043
          ],
          [
            8.484400304,
            48.853842352
          ],
          [
            8.484403433,
            48.853839611
          ],
          [
            8.48440868,
            48.853835756
          ],
          [
            8.48441572,
            48.853830697
          ],
          [
            8.484424151,
            48.853824571
          ],
          [
            8.48443356,
            48.853817795
          ],
          [
            8.484443495,
            48.853810539
          ],
          [
            8.484453826,
            48.853803013
          ],
          [
            8.484464501,
            48.853795411
          ],
          [
            8.484475555,
            48.853787674
          ],
          [
            8.484486759,
            48.853779751
          ],
          [
            8.484498055,
            48.853771899
          ],
          [
            8.484509421,
            48.85376411
          ],
          [
            8.484520889,
            48.853756303
          ],
          [
            8.484532356,
            48.853748551
          ],
          [
            8.484543767,
            48.853740756
          ],
          [
            8.484555095,
            48.853732977
          ],
          [
            8.484566354,
            48.853725153
          ],
          [
            8.484577745,
            48.853717497
          ],
          [
            8.484589385,
            48.853709909
          ],
          [
            8.484601153,
            48.85370229
          ],
          [
            8.48461289,
            48.853694575
          ],
          [
            8.484624526,
            48.853686895
          ],
          [
            8.484636254,
            48.853679232
          ],
          [
            8.484648076,
            48.853671568
          ],
          [
            8.484659809,
            48.853663854
          ],
          [
            8.484671468,
            48.853656062
          ],
          [
            8.484683113,
            48.853648238
          ],
          [
            8.484694807,
            48.853640326
          ],
          [
            8.484706572,
            48.853632394
          ],
          [
            8.484718361,
            48.853624491
          ],
          [
            8.484730154,
            48.853616532
          ],
          [
            8.484741969,
            48.853608575
          ],
          [
            8.484753766,
            48.85360059
          ],
          [
            8.484765513,
            48.853592595
          ],
          [
            8.484777319,
            48.853584645
          ],
          [
            8.484789156,
            48.853576726
          ],
          [
            8.484801011,
            48.853568806
          ],
          [
            8.484813006,
            48.853560899
          ],
          [
            8.484825011,
            48.853553006
          ],
          [
            8.48483696,
            48.853545104
          ],
          [
            8.484848914,
            48.853537194
          ],
          [
            8.484860862,
            48.853529286
          ],
          [
            8.484872727,
            48.853521351
          ],
          [
            8.484884582,
            48.8535134
          ],
          [
            8.484896323,
            48.853505466
          ],
          [
            8.484907977,
            48.853497543
          ],
          [
            8.484919809,
            48.853489671
          ],
          [
            8.484931882,
            48.85348181
          ],
          [
            8.484944067,
            48.853473934
          ],
          [
            8.484956277,
            48.853466046
          ],
          [
            8.484968405,
            48.853458126
          ],
          [
            8.484980503,
            48.853450162
          ],
          [
            8.484992457,
            48.853442155
          ],
          [
            8.485004359,
            48.853434142
          ],
          [
            8.48501621,
            48.853426207
          ],
          [
            8.485027966,
            48.853418288
          ],
          [
            8.485039609,
            48.853410441
          ],
          [
            8.485051069,
            48.853402624
          ],
          [
            8.485062381,
            48.853394782
          ],
          [
            8.485073758,
            48.85338691
          ],
          [
            8.485085232,
            48.853379032
          ],
          [
            8.485096733,
            48.853371069
          ],
          [
            8.485108346,
            48.85336315
          ],
          [
            8.485120096,
            48.853355261
          ],
          [
            8.485131812,
            48.853347316
          ],
          [
            8.485143566,
            48.853339393
          ],
          [
            8.485155385,
            48.85333147
          ],
          [
            8.485167128,
            48.853323511
          ],
          [
            8.485178794,
            48.853315477
          ],
          [
            8.485190538,
            48.853307396
          ],
          [
            8.485202401,
            48.853299279
          ],
          [
            8.485214378,
            48.853291196
          ],
          [
            8.485226397,
            48.853283035
          ],
          [
            8.485238496,
            48.853274909
          ],
          [
            8.485250627,
            48.853266749
          ],
          [
            8.485262784,
            48.853258605
          ],
          [
            8.48527497,
            48.853250462
          ],
          [
            8.485287129,
            48.853242254
          ],
          [
            8.485299182,
            48.853234118
          ],
          [
            8.485310891,
            48.853226109
          ],
          [
            8.485322447,
            48.853218198
          ],
          [
            8.485334088,
            48.853210274
          ],
          [
            8.485345842,
            48.853202281
          ],
          [
            8.485357885,
            48.85319428
          ],
          [
            8.48536997,
            48.85318626
          ],
          [
            8.485382072,
            48.853178227
          ],
          [
            8.485394244,
            48.853170272
          ],
          [
            8.485406449,
            48.853162369
          ],
          [
            8.485418673,
            48.85315449
          ],
          [
            8.485430948,
            48.8531466
          ],
          [
            8.485443159,
            48.853138762
          ],
          [
            8.485455344,
            48.85313097
          ],
          [
            8.485467459,
            48.853123197
          ],
          [
            8.485479575,
            48.853115377
          ],
          [
            8.485491721,
            48.853107496
          ],
          [
            8.485503884,
            48.853099622
          ],
          [
            8.485515953,
            48.853091597
          ],
          [
            8.485527994,
            48.853083585
          ],
          [
            8.485540104,
            48.853075523
          ],
          [
            8.485552316,
            48.853067504
          ],
          [
            8.485564548,
            48.853059511
          ],
          [
            8.485576753,
            48.853051504
          ],
          [
            8.485588832,
            48.853043498
          ],
          [
            8.485600647,
            48.85303551
          ],
          [
            8.485612548,
            48.853027493
          ],
          [
            8.485624386,
            48.853019427
          ],
          [
            8.485636137,
            48.853011383
          ],
          [
            8.485647752,
            48.853003324
          ],
          [
            8.48565932,
            48.8529952
          ],
          [
            8.485670917,
            48.852987029
          ],
          [
            8.485682505,
            48.852978808
          ],
          [
            8.485694021,
            48.852970587
          ],
          [
            8.485705486,
            48.85296235
          ],
          [
            8.485717079,
            48.852954094
          ],
          [
            8.485728676,
            48.852945847
          ],
          [
            8.485740302,
            48.852937654
          ],
          [
            8.485752019,
            48.852929495
          ],
          [
            8.485763745,
            48.85292131
          ],
          [
            8.485775497,
            48.852913217
          ],
          [
            8.485787246,
            48.852905189
          ],
          [
            8.485798936,
            48.852897255
          ],
          [
            8.485810656,
            48.85288933
          ],
          [
            8.485822467,
            48.852881411
          ],
          [
            8.485834095,
            48.852873446
          ],
          [
            8.485845728,
            48.852865412
          ],
          [
            8.485857397,
            48.852857257
          ],
          [
            8.485869005,
            48.852849113
          ],
          [
            8.485880671,
            48.852840948
          ],
          [
            8.485892266,
            48.852832851
          ],
          [
            8.485903914,
            48.852824746
          ],
          [
            8.485915587,
            48.852816676
          ],
          [
            8.485927266,
            48.852808605
          ],
          [
            8.485938939,
            48.85280052
          ],
          [
            8.48595063,
            48.852792473
          ],
          [
            8.485962276,
            48.85278448
          ],
          [
            8.485973858,
            48.852776531
          ],
          [
            8.485985475,
            48.852768661
          ],
          [
            8.485995918,
            48.85276174
          ],
          [
            8.48600573,
            48.852755423
          ],
          [
            8.486015303,
            48.852749214
          ],
          [
            8.48602456,
            48.852743012
          ],
          [
            8.486033652,
            48.852736823
          ],
          [
            8.486042738,
            48.852730663
          ],
          [
            8.486051894,
            48.852724351
          ],
          [
            8.486061062,
            48.852718059
          ],
          [
            8.486070355,
            48.852711717
          ],
          [
            8.486079773,
            48.852705391
          ],
          [
            8.48608921,
            48.852699031
          ],
          [
            8.486098693,
            48.85269265
          ],
          [
            8.486108144,
            48.852686168
          ],
          [
            8.486117473,
            48.852679573
          ],
          [
            8.486126653,
            48.852673009
          ],
          [
            8.486135808,
            48.852666403
          ],
          [
            8.486143952,
            48.852660738
          ],
          [
            8.486150661,
            48.852657151
          ],
          [
            8.48615588,
            48.852656258
          ],
          [
            8.486160641,
            48.852657709
          ],
          [
            8.48616553,
            48.852661313
          ],
          [
            8.486170667,
            48.852666294
          ],
          [
            8.486176226,
            48.852672105
          ],
          [
            8.486182381,
            48.85267829
          ],
          [
            8.486188973,
            48.852684638
          ],
          [
            8.486195918,
            48.852691123
          ],
          [
            8.486203156,
            48.852697677
          ],
          [
            8.486210616,
            48.852704248
          ],
          [
            8.486218262,
            48.852710805
          ],
          [
            8.486225892,
            48.852717416
          ],
          [
            8.486233436,
            48.852724064
          ],
          [
            8.486240825,
            48.852730783
          ],
          [
            8.486248095,
            48.852737598
          ],
          [
            8.486255406,
            48.852744499
          ],
          [
            8.486262764,
            48.852751474
          ],
          [
            8.486269995,
            48.852758498
          ],
          [
            8.486277137,
            48.85276561
          ],
          [
            8.486284253,
            48.852772808
          ],
          [
            8.486291432,
            48.852780061
          ],
          [
            8.48629869,
            48.852787381
          ],
          [
            8.486305991,
            48.852794734
          ],
          [
            8.486313399,
            48.852802083
          ],
          [
            8.486320966,
            48.852809418
          ],
          [
            8.486326704,
            48.852816057
          ],
          [
            8.48632882,
            48.85282181
          ],
          [
            8.486326967,
            48.852827198
          ],
          [
            8.486322035,
            48.852832831
          ],
          [
            8.486315139,
            48.852839089
          ],
          [
            8.486306885,
            48.852845931
          ],
          [
            8.486297615,
            48.852853075
          ],
          [
            8.486287918,
            48.852860609
          ],
          [
            8.486278064,
            48.852868457
          ],
          [
            8.486267892,
            48.852876367
          ],
          [
            8.486257742,
            48.85288422
          ],
          [
            8.486247518,
            48.852892086
          ],
          [
            8.486237067,
            48.8529
          ],
          [
            8.486226449,
            48.85290787
          ],
          [
            8.486215699,
            48.852915717
          ],
          [
            8.486205147,
            48.852923561
          ],
          [
            8.486194789,
            48.852931461
          ],
          [
            8.486184656,
            48.852939318
          ],
          [
            8.486174606,
            48.852947177
          ],
          [
            8.486164752,
            48.85295493
          ],
          [
            8.486154872,
            48.85296263
          ],
          [
            8.486144957,
            48.852970265
          ],
          [
            8.486134781,
            48.85297787
          ],
          [
            8.486124434,
            48.85298548
          ],
          [
            8.486113801,
            48.852993163
          ],
          [
            8.4861029,
            48.853000943
          ],
          [
            8.486091693,
            48.853008671
          ],
          [
            8.486080292,
            48.853016426
          ],
          [
            8.486068847,
            48.853024273
          ],
          [
            8.486057305,
            48.853032128
          ],
          [
            8.486045952,
            48.853040024
          ],
          [
            8.486034566,
            48.853047896
          ],
          [
            8.486023242,
            48.853055893
          ],
          [
            8.486012142,
            48.853063877
          ],
          [
            8.486001053,
            48.853071882
          ],
          [
            8.485990018,
            48.853079983
          ],
          [
            8.485979221,
            48.853088008
          ],
          [
            8.485968481,
            48.853096041
          ],
          [
            8.485957669,
            48.853104
          ],
          [
            8.485946729,
            48.853111927
          ],
          [
            8.485935557,
            48.853119794
          ],
          [
            8.485924407,
            48.853127682
          ],
          [
            8.485913082,
            48.853135569
          ],
          [
            8.485901736,
            48.853143351
          ],
          [
            8.485890378,
            48.853151046
          ],
          [
            8.485878857,
            48.853158779
          ],
          [
            8.485867195,
            48.853166521
          ],
          [
            8.485855571,
            48.853174209
          ],
          [
            8.485844008,
            48.853181943
          ],
          [
            8.485832389,
            48.853189721
          ],
          [
            8.485820778,
            48.853197626
          ],
          [
            8.485809284,
            48.853205582
          ],
          [
            8.485797753,
            48.853213573
          ],
          [
            8.485786193,
            48.853221559
          ],
          [
            8.485774719,
            48.85322956
          ],
          [
            8.485763318,
            48.853237558
          ],
          [
            8.485751888,
            48.85324554
          ],
          [
            8.48574043,
            48.853253445
          ],
          [
            8.485728952,
            48.8532613
          ],
          [
            8.485717496,
            48.853269048
          ],
          [
            8.485705998,
            48.85327675
          ],
          [
            8.485694376,
            48.853284513
          ],
          [
            8.485682868,
            48.853292331
          ],
          [
            8.485671385,
            48.853300151
          ],
          [
            8.485659921,
            48.853307993
          ],
          [
            8.485648386,
            48.853315834
          ],
          [
            8.48563694,
            48.853323681
          ],
          [
            8.485625555,
            48.853331564
          ],
          [
            8.485614183,
            48.853339491
          ],
          [
            8.48560297,
            48.853347483
          ],
          [
            8.485591864,
            48.85335554
          ],
          [
            8.485580936,
            48.853363633
          ],
          [
            8.485570251,
            48.853371625
          ],
          [
            8.485559829,
            48.853379624
          ],
          [
            8.485549379,
            48.853387654
          ],
          [
            8.485538786,
            48.853395674
          ],
          [
            8.48552805,
            48.853403582
          ],
          [
            8.485517191,
            48.853411389
          ],
          [
            8.485506277,
            48.853418923
          ],
          [
            8.485495339,
            48.853426242
          ],
          [
            8.485484401,
            48.85343348
          ],
          [
            8.485473319,
            48.853440684
          ],
          [
            8.485462064,
            48.85344796
          ],
          [
            8.485450638,
            48.853455363
          ],
          [
            8.485439158,
            48.853462869
          ],
          [
            8.485427638,
            48.853470535
          ],
          [
            8.485415941,
            48.853478353
          ],
          [
            8.485404132,
            48.853486289
          ],
          [
            8.48539217,
            48.853494243
          ],
          [
            8.48538017,
            48.853502153
          ],
          [
            8.485368123,
            48.853509979
          ],
          [
            8.485355894,
            48.8535177
          ],
          [
            8.485343597,
            48.85352545
          ],
          [
            8.485331422,
            48.853533157
          ],
          [
            8.485319291,
            48.853540862
          ],
          [
            8.485307047,
            48.853548489
          ],
          [
            8.48529481,
            48.853556154
          ],
          [
            8.485282666,
            48.853563851
          ],
          [
            8.485270471,
            48.853571562
          ],
          [
            8.485258183,
            48.853579356
          ],
          [
            8.485245952,
            48.853587213
          ],
          [
            8.485233832,
            48.853595147
          ],
          [
            8.48522182,
            48.853603189
          ],
          [
            8.4852098,
            48.853611069
          ],
          [
            8.485197644,
            48.853618893
          ],
          [
            8.485185645,
            48.853626562
          ],
          [
            8.485173893,
            48.853634139
          ],
          [
            8.485162502,
            48.853641619
          ],
          [
            8.485151353,
            48.853649105
          ],
          [
            8.485140293,
            48.8536565
          ],
          [
            8.485129175,
            48.853664045
          ],
          [
            8.485118126,
            48.853671655
          ],
          [
            8.485107152,
            48.853679335
          ],
          [
            8.485096179,
            48.853687051
          ],
          [
            8.485084902,
            48.853694943
          ],
          [
            8.485073522,
            48.853702704
          ],
          [
            8.485061729,
            48.853710454
          ],
          [
            8.485049709,
            48.853718191
          ],
          [
            8.485037522,
            48.853725839
          ],
          [
            8.48502536,
            48.85373354
          ],
          [
            8.485013136,
            48.853741292
          ],
          [
            8.485000759,
            48.853749044
          ],
          [
            8.484988446,
            48.853756596
          ],
          [
            8.484976269,
            48.853764204
          ],
          [
            8.484964115,
            48.853771845
          ],
          [
            8.484952063,
            48.853779524
          ],
          [
            8.484940178,
            48.853787238
          ],
          [
            8.484928353,
            48.853794969
          ],
          [
            8.484916227,
            48.853802656
          ],
          [
            8.484904005,
            48.853810281
          ],
          [
            8.484891806,
            48.853817959
          ],
          [
            8.484879538,
            48.853825737
          ],
          [
            8.484867562,
            48.853833419
          ],
          [
            8.484857053,
            48.853840245
          ],
          [
            8.484847227,
            48.853846744
          ],
          [
            8.484837751,
            48.85385304
          ],
          [
            8.484828389,
            48.853859345
          ],
          [
            8.484819221,
            48.853865709
          ],
          [
            8.484810214,
            48.853872127
          ],
          [
            8.484801169,
            48.853878585
          ],
          [
            8.484792102,
            48.853885099
          ],
          [
            8.484783149,
            48.853891683
          ],
          [
            8.484774293,
            48.85389841
          ],
          [
            8.48476553,
            48.853905186
          ],
          [
            8.48475682,
            48.85391201
          ],
          [
            8.484747974,
            48.853918907
          ],
          [
            8.484739181,
            48.853925806
          ],
          [
            8.484730183,
            48.853932601
          ],
          [
            8.484720878,
            48.853939113
          ],
          [
            8.484713283,
            48.853944725
          ],
          [
            8.484709777,
            48.853950163
          ],
          [
            8.484710726,
            48.853955339
          ],
          [
            8.484715373,
            48.853960595
          ],
          [
            8.484721729,
            48.85396599
          ],
          [
            8.484729088,
            48.853971293
          ],
          [
            8.484737228,
            48.853976334
          ],
          [
            8.484745893,
            48.853981302
          ],
          [
            8.484754761,
            48.853986287
          ],
          [
            8.484763939,
            48.853991261
          ],
          [
            8.484773474,
            48.853996196
          ],
          [
            8.484783441,
            48.854001214
          ],
          [
            8.484793613,
            48.854006205
          ],
          [
            8.484803883,
            48.854011291
          ],
          [
            8.48481435,
            48.854016449
          ],
          [
            8.484824896,
            48.85402162
          ],
          [
            8.484835398,
            48.854026782
          ],
          [
            8.484845746,
            48.854031955
          ],
          [
            8.484856114,
            48.854037238
          ],
          [
            8.484866453,
            48.854042612
          ],
          [
            8.484876973,
            48.854048088
          ],
          [
            8.484887603,
            48.854053575
          ],
          [
            8.48489789,
            48.854059121
          ],
          [
            8.484907841,
            48.854064772
          ],
          [
            8.484917743,
            48.854070452
          ],
          [
            8.484927615,
            48.854075975
          ],
          [
            8.484936279,
            48.854080279
          ],
          [
            8.484944714,
            48.854082064
          ],
          [
            8.484952974,
            48.854080962
          ],
          [
            8.484961146,
            48.854077393
          ],
          [
            8.484969416,
            48.854072284
          ],
          [
            8.484977992,
            48.854066128
          ],
          [
            8.484987087,
            48.85405932
          ],
          [
            8.484996879,
            48.854052185
          ],
          [
            8.485007448,
            48.854044925
          ],
          [
            8.485018644,
            48.854037702
          ],
          [
            8.485030339,
            48.854030454
          ],
          [
            8.485042101,
            48.854023078
          ],
          [
            8.48505376,
            48.854015575
          ],
          [
            8.485065414,
            48.854008081
          ],
          [
            8.485077009,
            48.854000582
          ],
          [
            8.485088497,
            48.853992988
          ],
          [
            8.485099932,
            48.853985375
          ],
          [
            8.485111228,
            48.853977774
          ],
          [
            8.485122478,
            48.853969954
          ],
          [
            8.485133746,
            48.853961983
          ],
          [
            8.485145004,
            48.853954002
          ],
          [
            8.485156404,
            48.853945953
          ],
          [
            8.485167847,
            48.853937932
          ],
          [
            8.485179348,
            48.85392983
          ],
          [
            8.485190916,
            48.853921755
          ],
          [
            8.485202483,
            48.853913696
          ],
          [
            8.48521408,
            48.853905641
          ],
          [
            8.48522581,
            48.853897614
          ],
          [
            8.485237553,
            48.853889745
          ],
          [
            8.485249443,
            48.853881881
          ],
          [
            8.485261504,
            48.853873984
          ],
          [
            8.485273726,
            48.853865967
          ],
          [
            8.485285964,
            48.853857976
          ],
          [
            8.485298119,
            48.853850003
          ],
          [
            8.485310041,
            48.853842057
          ],
          [
            8.485321836,
            48.853834062
          ],
          [
            8.48533354,
            48.853826099
          ],
          [
            8.485345204,
            48.853818234
          ],
          [
            8.485356902,
            48.85381036
          ],
          [
            8.485368567,
            48.853802494
          ],
          [
            8.485380238,
            48.853794657
          ],
          [
            8.485391768,
            48.853786743
          ],
          [
            8.485403154,
            48.853778783
          ],
          [
            8.485414554,
            48.85377079
          ],
          [
            8.485426006,
            48.853762819
          ],
          [
            8.485437669,
            48.853754843
          ],
          [
            8.485449489,
            48.853746971
          ],
          [
            8.485461445,
            48.853739135
          ],
          [
            8.485473555,
            48.853731218
          ],
          [
            8.485485665,
            48.853723362
          ],
          [
            8.48549776,
            48.853715579
          ],
          [
            8.485509818,
            48.85370775
          ],
          [
            8.485521733,
            48.853699928
          ],
          [
            8.485533559,
            48.853692063
          ],
          [
            8.485545279,
            48.85368405
          ],
          [
            8.485556865,
            48.853675913
          ],
          [
            8.485568383,
            48.853667796
          ],
          [
            8.485579749,
            48.85365954
          ],
          [
            8.485591163,
            48.853651371
          ],
          [
            8.485602646,
            48.853643247
          ],
          [
            8.485614131,
            48.853635068
          ],
          [
            8.485625583,
            48.853626826
          ],
          [
            8.485637122,
            48.853618586
          ],
          [
            8.485648803,
            48.853610396
          ],
          [
            8.485660556,
            48.853602103
          ],
          [
            8.485672272,
            48.853593935
          ],
          [
            8.485683842,
            48.853585783
          ],
          [
            8.485695447,
            48.853577716
          ],
          [
            8.485706967,
            48.853569676
          ],
          [
            8.485718438,
            48.853561707
          ],
          [
            8.485729907,
            48.853553824
          ],
          [
            8.485741485,
            48.853545956
          ],
          [
            8.485753039,
            48.853537946
          ],
          [
            8.485764605,
            48.853529983
          ],
          [
            8.485776263,
            48.853522081
          ],
          [
            8.485788017,
            48.853514196
          ],
          [
            8.485799815,
            48.853506341
          ],
          [
            8.485811544,
            48.853498534
          ],
          [
            8.485823161,
            48.85349068
          ],
          [
            8.485834745,
            48.853482819
          ],
          [
            8.485846375,
            48.853474903
          ],
          [
            8.485857937,
            48.853466941
          ],
          [
            8.485869556,
            48.853458972
          ],
          [
            8.485881079,
            48.85345096
          ],
          [
            8.485892492,
            48.853442961
          ],
          [
            8.485903929,
            48.853435004
          ],
          [
            8.485915521,
            48.85342699
          ],
          [
            8.485927154,
            48.853418974
          ],
          [
            8.485938667,
            48.85341089
          ],
          [
            8.485950059,
            48.853402783
          ],
          [
            8.485961621,
            48.85339473
          ],
          [
            8.485973365,
            48.853386768
          ],
          [
            8.485985284,
            48.85337903
          ],
          [
            8.485997298,
            48.853371338
          ],
          [
            8.486009287,
            48.85336369
          ],
          [
            8.486021218,
            48.853355956
          ],
          [
            8.486033143,
            48.853348276
          ],
          [
            8.486045073,
            48.853340564
          ],
          [
            8.486056979,
            48.853332787
          ],
          [
            8.486068993,
            48.853325023
          ],
          [
            8.486081005,
            48.853317125
          ],
          [
            8.486092936,
            48.853309185
          ],
          [
            8.486104865,
            48.853301246
          ],
          [
            8.486116827,
            48.853293299
          ],
          [
            8.486128935,
            48.853285342
          ],
          [
            8.486141054,
            48.853277454
          ],
          [
            8.486153045,
            48.853269535
          ],
          [
            8.486164932,
            48.853261505
          ],
          [
            8.486176656,
            48.853253407
          ],
          [
            8.486188365,
            48.853245213
          ],
          [
            8.486199979,
            48.853236982
          ],
          [
            8.486211615,
            48.853228889
          ],
          [
            8.48622325,
            48.85322081
          ],
          [
            8.486235047,
            48.853212746
          ],
          [
            8.486246914,
            48.853204735
          ],
          [
            8.486258756,
            48.853196713
          ],
          [
            8.486270457,
            48.853188643
          ],
          [
            8.486282063,
            48.853180626
          ],
          [
            8.486293764,
            48.853172657
          ],
          [
            8.4863055,
            48.853164568
          ],
          [
            8.486317257,
            48.853156566
          ],
          [
            8.486329069,
            48.85314854
          ],
          [
            8.486340801,
            48.853140487
          ],
          [
            8.486352595,
            48.853132385
          ],
          [
            8.486364404,
            48.853124263
          ],
          [
            8.48637618,
            48.853116131
          ],
          [
            8.486387984,
            48.853108042
          ],
          [
            8.486399816,
            48.853100004
          ],
          [
            8.486411563,
            48.853091957
          ],
          [
            8.486423291,
            48.853083932
          ],
          [
            8.486434974,
            48.853075924
          ],
          [
            8.486446516,
            48.853067988
          ],
          [
            8.486458108,
            48.853060065
          ],
          [
            8.486469754,
            48.853052188
          ],
          [
            8.486481423,
            48.853044275
          ],
          [
            8.486493089,
            48.853036358
          ],
          [
            8.48650471,
            48.853028333
          ],
          [
            8.486516265,
            48.853020312
          ],
          [
            8.486527863,
            48.853012257
          ],
          [
            8.486539022,
            48.85300442
          ],
          [
            8.48654863,
            48.852997891
          ],
          [
            8.486556046,
            48.852992447
          ],
          [
            8.486560919,
            48.852988498
          ],
          [
            8.486563632,
            48.852986344
          ],
          [
            8.486563957,
            48.852985879
          ],
          [
            8.486561685,
            48.852986743
          ],
          [
            8.486557347,
            48.85298847
          ],
          [
            8.486550821,
            48.85299096
          ],
          [
            8.486542417,
            48.85299407
          ],
          [
            8.486532135,
            48.852997654
          ],
          [
            8.486519652,
            48.853001778
          ],
          [
            8.486505064,
            48.853006769
          ],
          [
            8.486488578,
            48.853012362
          ],
          [
            8.486470358,
            48.853018437
          ],
          [
            8.486451035,
            48.853024942
          ],
          [
            8.486430594,
            48.853031621
          ],
          [
            8.486409108,
            48.853038466
          ],
          [
            8.486386885,
            48.853045403
          ],
          [
            8.486364539,
            48.853052449
          ],
          [
            8.486341838,
            48.853059672
          ],
          [
            8.486319403,
            48.853066944
          ],
          [
            8.486296971,
            48.853074261
          ],
          [
            8.486274779,
            48.853081624
          ],
          [
            8.486252754,
            48.853089024
          ],
          [
            8.48623073,
            48.853096467
          ],
          [
            8.486208793,
            48.853103757
          ],
          [
            8.486186598,
            48.853111072
          ],
          [
            8.486164144,
            48.853118505
          ],
          [
            8.48614154,
            48.853125834
          ],
          [
            8.486118906,
            48.853133104
          ],
          [
            8.486096207,
            48.853140492
          ],
          [
            8.486073667,
            48.853147846
          ],
          [
            8.486051224,
            48.853155203
          ],
          [
            8.486029125,
            48.853162524
          ],
          [
            8.486006924,
            48.853169972
          ],
          [
            8.485984896,
            48.853177523
          ],
          [
            8.485962909,
            48.853185042
          ],
          [
            8.485941026,
            48.853192425
          ],
          [
            8.485919328,
            48.853199797
          ],
          [
            8.485897555,
            48.853207051
          ],
          [
            8.485875638,
            48.853214109
          ],
          [
            8.485853809,
            48.853221036
          ],
          [
            8.485831976,
            48.853227907
          ],
          [
            8.485810251,
            48.853234906
          ],
          [
            8.485788574,
            48.853241717
          ],
          [
            8.485766878,
            48.8532485
          ],
          [
            8.485745227,
            48.853255443
          ],
          [
            8.48572363,
            48.85326235
          ],
          [
            8.485701756,
            48.853269207
          ],
          [
            8.485679942,
            48.85327617
          ],
          [
            8.485657944,
            48.853283211
          ],
          [
            8.485636078,
            48.853290303
          ],
          [
            8.485614269,
            48.853297606
          ],
          [
            8.485592387,
            48.853304742
          ],
          [
            8.485570649,
            48.853311923
          ],
          [
            8.485548954,
            48.853319147
          ],
          [
            8.485527298,
            48.853326329
          ],
          [
            8.48550564,
            48.853333581
          ],
          [
            8.485483915,
            48.853340821
          ],
          [
            8.485462139,
            48.853348123
          ],
          [
            8.485440318,
            48.853355393
          ],
          [
            8.485418464,
            48.853362791
          ],
          [
            8.485396231,
            48.85336988
          ],
          [
            8.485373508,
            48.853376703
          ],
          [
            8.485349826,
            48.853383807
          ],
          [
            8.485325112,
            48.853390849
          ],
          [
            8.485299609,
            48.853398021
          ],
          [
            8.485273545,
            48.853405157
          ],
          [
            8.485246921,
            48.8534122
          ],
          [
            8.485219723,
            48.853419212
          ],
          [
            8.485192119,
            48.853426191
          ],
          [
            8.48516406,
            48.853433296
          ],
          [
            8.485135725,
            48.85344034
          ],
          [
            8.485106943,
            48.853447587
          ],
          [
            8.485077916,
            48.853454846
          ],
          [
            8.48504867,
            48.853462141
          ],
          [
            8.485019245,
            48.853469306
          ],
          [
            8.484989537,
            48.853476525
          ],
          [
            8.484959515,
            48.853483865
          ],
          [
            8.484929408,
            48.853491265
          ],
          [
            8.484899286,
            48.85349885
          ],
          [
            8.484869233,
            48.853506545
          ],
          [
            8.484838868,
            48.853514213
          ],
          [
            8.484808405,
            48.853521951
          ],
          [
            8.48477794,
            48.853529664
          ],
          [
            8.484747415,
            48.853537418
          ],
          [
            8.484718125,
            48.853544523
          ],
          [
            8.484692234,
            48.853550261
          ],
          [
            8.484670187,
            48.853555112
          ],
          [
            8.484653144,
            48.853558827
          ],
          [
            8.484640075,
            48.853561781
          ],
          [
            8.484625894,
            48.85356513
          ],
          [
            8.484612138,
            48.853568535
          ],
          [
            8.484604464,
            48.853570598
          ],
          [
            8.484603813,
            48.853570941
          ],
          [
            8.484609005,
            48.85357004
          ],
          [
            8.484617143,
            48.853568578
          ],
          [
            8.48462356,
            48.853567203
          ],
          [
            8.48462939,
            48.853566198
          ],
          [
            8.484633064,
            48.853565876
          ],
          [
            8.484635617,
            48.853565898
          ],
          [
            8.484637543,
            48.85356639
          ],
          [
            8.484639071,
            48.853567046
          ],
          [
            8.484640217,
            48.853567653
          ],
          [
            8.484640782,
            48.853568305
          ],
          [
            8.48464108,
            48.853568827
          ],
          [
            8.484641325,
            48.853569396
          ],
          [
            8.484641521,
            48.853569724
          ],
          [
            8.484641466,
            48.85356977
          ],
          [
            8.484640946,
            48.853569472
          ],
          [
            8.484640273,
            48.853569131
          ],
          [
            8.484639651,
            48.853568863
          ],
          [
            8.484638654,
            48.853568659
          ],
          [
            8.484637607,
            48.853568468
          ],
          [
            8.484637257,
            48.853568069
          ],
          [
            8.484636432,
            48.853567724
          ],
          [
            8.484633442,
            48.853567823
          ],
          [
            8.484623908,
            48.853569091
          ],
          [
            8.484612658,
            48.853570745
          ],
          [
            8.484604085,
            48.853571744
          ],
          [
            8.484596313,
            48.853572569
          ],
          [
            8.48459106,
            48.853573213
          ],
          [
            8.484588344,
            48.853573635
          ],
          [
            8.484586118,
            48.853573957
          ],
          [
            8.484584333,
            48.853574279
          ],
          [
            8.484582679,
            48.85357464
          ],
          [
            8.484581204,
            48.853574928
          ],
          [
            8.484580197,
            48.8535751
          ],
          [
            8.484579603,
            48.853575279
          ],
          [
            8.484579174,
            48.85357549
          ],
          [
            8.484578907,
            48.853575598
          ],
          [
            8.484578872,
            48.853575588
          ],
          [
            8.484579196,
            48.853575669
          ],
          [
            8.484579435,
            48.853575891
          ],
          [
            8.484579414,
            48.85357614
          ],
          [
            8.484579094,
            48.853576483
          ],
          [
            8.484578558,
            48.853576978
          ],
          [
            8.484578331,
            48.853577443
          ],
          [
            8.484578467,
            48.853577698
          ],
          [
            8.484578315,
            48.853577823
          ],
          [
            8.484576205,
            48.853578338
          ],
          [
            8.484572437,
            48.853579058
          ],
          [
            8.484568234,
            48.853579601
          ],
          [
            8.484564539,
            48.853579949
          ],
          [
            8.484560045,
            48.853580223
          ],
          [
            8.484555397,
            48.853580448
          ],
          [
            8.484551344,
            48.853580661
          ],
          [
            8.484549256,
            48.85358088
          ],
          [
            8.484547858,
            48.853581055
          ],
          [
            8.484546697,
            48.853581102
          ],
          [
            8.484545746,
            48.853581181
          ],
          [
            8.484545038,
            48.853581274
          ],
          [
            8.4845443,
            48.85358149
          ],
          [
            8.48454342,
            48.853581775
          ],
          [
            8.484542696,
            48.853582111
          ],
          [
            8.484541879,
            48.853582284
          ],
          [
            8.484541496,
            48.853582113
          ],
          [
            8.484541408,
            48.853582111
          ],
          [
            8.484541397,
            48.853582112
          ],
          [
            8.484541393,
            48.853582116
          ],
          [
            8.484541399,
            48.853582111
          ],
          [
            8.484541403,
            48.853582113
          ],
          [
            8.484541408,
            48.853582121
          ],
          [
            8.484541411,
            48.853582125
          ],
          [
            8.484541415,
            48.853582125
          ],
          [
            8.484541416,
            48.85358212
          ],
          [
            8.484541418,
            48.853582113
          ],
          [
            8.484541418,
            48.853582106
          ],
          [
            8.484541417,
            48.853582101
          ],
          [
            8.484541417,
            48.853582089
          ],
          [
            8.484541417,
            48.853582076
          ],
          [
            8.484541418,
            48.853582064
          ],
          [
            8.484541419,
            48.853582052
          ],
          [
            8.484541414,
            48.853582042
          ],
          [
            8.484541407,
            48.853582029
          ],
          [
            8.484541399,
            48.853582015
          ],
          [
            8.484541391,
            48.853582001
          ],
          [
            8.484541383,
            48.853581987
          ],
          [
            8.484541374,
            48.853581973
          ],
          [
            8.484541369,
            48.853581958
          ],
          [
            8.484541371,
            48.853581949
          ],
          [
            8.484541383,
            48.85358194
          ],
          [
            8.484541399,
            48.853581933
          ],
          [
            8.484541419,
            48.853581932
          ],
          [
            8.48454144,
            48.853581937
          ],
          [
            8.484541466,
            48.853581945
          ],
          [
            8.484541491,
            48.853581954
          ],
          [
            8.484541517,
            48.853581957
          ],
          [
            8.484541533,
            48.853581955
          ],
          [
            8.484541545,
            48.853581949
          ],
          [
            8.484541559,
            48.853581941
          ],
          [
            8.484541576,
            48.853581936
          ],
          [
            8.484541584,
            48.853581928
          ],
          [
            8.484541583,
            48.853581921
          ],
          [
            8.484541576,
            48.853581915
          ],
          [
            8.484541564,
            48.853581915
          ],
          [
            8.484541556,
            48.853581918
          ],
          [
            8.484541542,
            48.853581919
          ],
          [
            8.484541527,
            48.853581922
          ],
          [
            8.484541515,
            48.853581924
          ],
          [
            8.484541505,
            48.853581924
          ],
          [
            8.484541495,
            48.853581924
          ],
          [
            8.484541487,
            48.85358193
          ],
          [
            8.484541482,
            48.853581939
          ],
          [
            8.484541476,
            48.85358195
          ],
          [
            8.484541474,
            48.853581964
          ],
          [
            8.48454148,
            48.853581975
          ],
          [
            8.484541486,
            48.853581986
          ],
          [
            8.484541496,
            48.853581995
          ],
          [
            8.484541506,
            48.853582001
          ],
          [
            8.484541512,
            48.853582005
          ],
          [
            8.484541512,
            48.853582006
          ],
          [
            8.484541505,
            48.853582006
          ],
          [
            8.484541513,
            48.853582036
          ],
          [
            8.48454151,
            48.853582061
          ],
          [
            8.484541499,
            48.85358206
          ],
          [
            8.484541482,
            48.853582065
          ],
          [
            8.484541497,
            48.853582088
          ],
          [
            8.48454151,
            48.85358211
          ],
          [
            8.484541497,
            48.853582113
          ],
          [
            8.48454149,
            48.85358211
          ],
          [
            8.4845415,
            48.853582118
          ],
          [
            8.484541503,
            48.853582125
          ],
          [
            8.484541481,
            48.853582107
          ],
          [
            8.484541467,
            48.85358208
          ],
          [
            8.484541351,
            48.853582106
          ],
          [
            8.484540866,
            48.853581976
          ],
          [
            8.48453886,
            48.853581415
          ],
          [
            8.48453529,
            48.853580255
          ],
          [
            8.484530912,
            48.853579008
          ],
          [
            8.48452564,
            48.853577484
          ],
          [
            8.48451981,
            48.853575838
          ],
          [
            8.484513747,
            48.853574033
          ],
          [
            8.484507726,
            48.85357238
          ],
          [
            8.484501616,
            48.853570643
          ],
          [
            8.48449517,
            48.853568992
          ],
          [
            8.484488369,
            48.853567103
          ],
          [
            8.484481194,
            48.853565281
          ],
          [
            8.484473973,
            48.853563575
          ],
          [
            8.484466716,
            48.853561918
          ],
          [
            8.484459446,
            48.85356041
          ],
          [
            8.484452408,
            48.853559035
          ],
          [
            8.484445305,
            48.853558009
          ],
          [
            8.484438092,
            48.853557345
          ],
          [
            8.484431172,
            48.853556675
          ],
          [
            8.484424737,
            48.853556173
          ],
          [
            8.484419113,
            48.853555789
          ],
          [
            8.484414137,
            48.853555711
          ],
          [
            8.484410004,
            48.853555736
          ],
          [
            8.484407315,
            48.853555756
          ],
          [
            8.484406677,
            48.853555732
          ],
          [
            8.484406725,
            48.853555655
          ],
          [
            8.484406711,
            48.853555669
          ],
          [
            8.484406657,
            48.853555714
          ],
          [
            8.484406612,
            48.853555748
          ],
          [
            8.484406614,
            48.853555739
          ],
          [
            8.484406625,
            48.853555728
          ],
          [
            8.484406644,
            48.853555715
          ],
          [
            8.484406669,
            48.853555704
          ],
          [
            8.484406695,
            48.853555694
          ],
          [
            8.484406715,
            48.853555688
          ],
          [
            8.484406706,
            48.853555701
          ],
          [
            8.484406699,
            48.853555708
          ],
          [
            8.484406716,
            48.853555698
          ],
          [
            8.484406733,
            48.853555694
          ],
          [
            8.484406748,
            48.853555692
          ],
          [
            8.484406756,
            48.85355569
          ],
          [
            8.484406758,
            48.85355569
          ],
          [
            8.484406756,
            48.853555685
          ],
          [
            8.484406754,
            48.85355568
          ],
          [
            8.484406749,
            48.853555676
          ],
          [
            8.484406736,
            48.853555671
          ],
          [
            8.484406726,
            48.853555664
          ],
          [
            8.484406738,
            48.853555653
          ],
          [
            8.484406749,
            48.853555651
          ],
          [
            8.484406744,
            48.853555661
          ],
          [
            8.484406742,
            48.853555674
          ],
          [
            8.484406742,
            48.853555685
          ],
          [
            8.484406733,
            48.853555693
          ],
          [
            8.484406724,
            48.8535557
          ],
          [
            8.484406717,
            48.853555703
          ],
          [
            8.48440671,
            48.853555703
          ],
          [
            8.48440671,
            48.853555704
          ],
          [
            8.484406715,
            48.85355571
          ],
          [
            8.484406719,
            48.853555719
          ],
          [
            8.484406722,
            48.853555729
          ],
          [
            8.484406731,
            48.853555736
          ],
          [
            8.484406741,
            48.853555743
          ],
          [
            8.484406745,
            48.85355575
          ],
          [
            8.484406744,
            48.853555757
          ],
          [
            8.484406744,
            48.853555759
          ],
          [
            8.484406747,
            48.853555755
          ],
          [
            8.484406758,
            48.853555749
          ],
          [
            8.484406771,
            48.853555745
          ],
          [
            8.484406786,
            48.85355574
          ],
          [
            8.4844068,
            48.853555739
          ],
          [
            8.48440681,
            48.853555738
          ],
          [
            8.484406817,
            48.853555739
          ],
          [
            8.484406821,
            48.853555735
          ],
          [
            8.484406824,
            48.853555732
          ],
          [
            8.484406821,
            48.853555727
          ],
          [
            8.484406817,
            48.853555719
          ],
          [
            8.484406806,
            48.853555714
          ],
          [
            8.484406784,
            48.853555715
          ],
          [
            8.484406759,
            48.853555716
          ],
          [
            8.484406735,
            48.853555718
          ],
          [
            8.484406712,
            48.853555724
          ],
          [
            8.48440669,
            48.853555727
          ],
          [
            8.48440667,
            48.853555728
          ],
          [
            8.484406651,
            48.853555722
          ],
          [
            8.484406638,
            48.853555714
          ],
          [
            8.484406628,
            48.853555706
          ],
          [
            8.484406617,
            48.8535557
          ],
          [
            8.48440661,
            48.853555697
          ],
          [
            8.484406608,
            48.853555699
          ],
          [
            8.484406612,
            48.853555705
          ],
          [
            8.484406624,
            48.853555715
          ],
          [
            8.48440664,
            48.853555719
          ],
          [
            8.484406657,
            48.85355572
          ],
          [
            8.484406676,
            48.853555721
          ],
          [
            8.484406692,
            48.853555719
          ],
          [
            8.484406697,
            48.853555721
          ],
          [
            8.484406701,
            48.853555725
          ],
          [
            8.484406705,
            48.85355573
          ],
          [
            8.484406707,
            48.853555734
          ],
          [
            8.484406712,
            48.853555738
          ],
          [
            8.484406725,
            48.853555739
          ],
          [
            8.48440674,
            48.853555734
          ],
          [
            8.484406751,
            48.853555728
          ],
          [
            8.484406759,
            48.853555724
          ],
          [
            8.484406775,
            48.853555721
          ],
          [
            8.484406791,
            48.85355572
          ],
          [
            8.484406804,
            48.85355572
          ],
          [
            8.484406813,
            48.85355572
          ],
          [
            8.484406814,
            48.853555722
          ],
          [
            8.484406812,
            48.853555723
          ],
          [
            8.484406804,
            48.853555725
          ],
          [
            8.484406792,
            48.853555728
          ],
          [
            8.484406782,
            48.85355573
          ],
          [
            8.48440677,
            48.853555731
          ],
          [
            8.484406765,
            48.853555729
          ],
          [
            8.484406756,
            48.853555727
          ],
          [
            8.48440674,
            48.853555723
          ],
          [
            8.484406728,
            48.853555721
          ],
          [
            8.484406719,
            48.853555721
          ],
          [
            8.484406707,
            48.853555721
          ],
          [
            8.484406688,
            48.853555721
          ],
          [
            8.484406667,
            48.853555719
          ],
          [
            8.484406652,
            48.853555715
          ],
          [
            8.484406642,
            48.853555709
          ],
          [
            8.484406631,
            48.853555698
          ],
          [
            8.484406623,
            48.853555688
          ],
          [
            8.484406616,
            48.853555677
          ],
          [
            8.484406608,
            48.853555666
          ],
          [
            8.484406608,
            48.853555655
          ],
          [
            8.48440662,
            48.853555643
          ],
          [
            8.484406636,
            48.853555628
          ],
          [
            8.484406656,
            48.853555617
          ],
          [
            8.484406674,
            48.853555609
          ],
          [
            8.484406693,
            48.853555604
          ],
          [
            8.48440671,
            48.853555601
          ],
          [
            8.484406726,
            48.853555597
          ],
          [
            8.484406739,
            48.853555593
          ],
          [
            8.484406748,
            48.85355559
          ],
          [
            8.484406751,
            48.853555588
          ],
          [
            8.484406754,
            48.853555588
          ],
          [
            8.484406759,
            48.853555591
          ],
          [
            8.484406763,
            48.853555592
          ],
          [
            8.484406775,
            48.853555601
          ],
          [
            8.484406791,
            48.853555612
          ],
          [
            8.484406801,
            48.853555626
          ],
          [
            8.484406808,
            48.85355564
          ],
          [
            8.484406809,
            48.853555657
          ],
          [
            8.48440681,
            48.853555681
          ],
          [
            8.484406804,
            48.85355571
          ],
          [
            8.484406796,
            48.853555736
          ],
          [
            8.48440679,
            48.853555756
          ],
          [
            8.484406783,
            48.853555772
          ],
          [
            8.484406776,
            48.853555787
          ],
          [
            8.48440677,
            48.853555799
          ],
          [
            8.484406766,
            48.853555807
          ],
          [
            8.484406759,
            48.853555815
          ],
          [
            8.484406758,
            48.853555821
          ],
          [
            8.484406761,
            48.853555824
          ],
          [
            8.484406759,
            48.85355582
          ],
          [
            8.484406756,
            48.853555816
          ],
          [
            8.484406752,
            48.853555808
          ],
          [
            8.484406747,
            48.8535558
          ],
          [
            8.484406745,
            48.853555787
          ],
          [
            8.484406739,
            48.853555776
          ],
          [
            8.48440673,
            48.85355577
          ],
          [
            8.484406716,
            48.853555764
          ],
          [
            8.4844067,
            48.853555757
          ],
          [
            8.484406681,
            48.853555757
          ],
          [
            8.484406663,
            48.853555757
          ],
          [
            8.484406653,
            48.853555753
          ],
          [
            8.484406646,
            48.85355575
          ],
          [
            8.484406636,
            48.85355575
          ],
          [
            8.484406624,
            48.853555754
          ],
          [
            8.484406615,
            48.853555762
          ],
          [
            8.484406607,
            48.853555768
          ],
          [
            8.484406599,
            48.853555775
          ],
          [
            8.484406585,
            48.853555783
          ],
          [
            8.484406571,
            48.853555791
          ],
          [
            8.484406557,
            48.853555799
          ],
          [
            8.484406543,
            48.853555805
          ],
          [
            8.48440653,
            48.853555812
          ],
          [
            8.484406519,
            48.853555821
          ],
          [
            8.484406509,
            48.853555832
          ],
          [
            8.484406499,
            48.853555839
          ],
          [
            8.484406495,
            48.853555846
          ],
          [
            8.484406489,
            48.853555848
          ],
          [
            8.484406486,
            48.853555845
          ],
          [
            8.484406488,
            48.853555838
          ],
          [
            8.484406496,
            48.853555827
          ],
          [
            8.484406507,
            48.853555818
          ],
          [
            8.484406521,
            48.853555811
          ],
          [
            8.48440654,
            48.853555804
          ],
          [
            8.484406564,
            48.853555798
          ],
          [
            8.484406589,
            48.853555794
          ],
          [
            8.484406618,
            48.853555788
          ],
          [
            8.48440665,
            48.853555779
          ],
          [
            8.484406682,
            48.853555774
          ],
          [
            8.484406708,
            48.853555764
          ],
          [
            8.484406727,
            48.853555751
          ],
          [
            8.484406746,
            48.853555741
          ],
          [
            8.484406764,
            48.853555734
          ],
          [
            8.484406783,
            48.853555731
          ],
          [
            8.4844068,
            48.853555731
          ],
          [
            8.484406812,
            48.85355573
          ],
          [
            8.484406818,
            48.853555725
          ],
          [
            8.484406823,
            48.85355572
          ],
          [
            8.48440683,
            48.853555717
          ],
          [
            8.484406839,
            48.853555714
          ],
          [
            8.484406846,
            48.853555716
          ],
          [
            8.484406849,
            48.85355572
          ],
          [
            8.484406847,
            48.853555728
          ],
          [
            8.484406843,
            48.853555738
          ],
          [
            8.484406836,
            48.85355575
          ],
          [
            8.484406829,
            48.853555761
          ],
          [
            8.484406816,
            48.853555771
          ],
          [
            8.484406801,
            48.853555777
          ],
          [
            8.48440678,
            48.853555777
          ],
          [
            8.484406757,
            48.853555776
          ],
          [
            8.484406738,
            48.853555773
          ],
          [
            8.484406719,
            48.85355577
          ],
          [
            8.484406697,
            48.853555766
          ],
          [
            8.484406683,
            48.85355576
          ],
          [
            8.484406673,
            48.853555752
          ],
          [
            8.484406664,
            48.85355574
          ],
          [
            8.484406659,
            48.853555728
          ],
          [
            8.484406656,
            48.85355572
          ],
          [
            8.484406654,
            48.853555717
          ],
          [
            8.484406658,
            48.853555715
          ],
          [
            8.484406668,
            48.853555713
          ],
          [
            8.484406686,
            48.853555712
          ]
        ]
      },
      "properties": {
        "name": "Flight trajectory",
        "description": "Flugbahn der HySpex Mission",
        "source_format": "swir_vnir"
      }
    }
  ]
}