{
  "type": "FeatureCollection",
  "features": [
    {
      "type": "Feature",
      "geometry": {
        "type": "LineString",
        "coordinates": [
          [
            8.484710644,
            48.853524235
          ],
          [
            8.484737435,
            48.85352141
          ],
          [
            8.484764903,
            48.853517742
          ],
          [
            8.48479337,
            48.853512896
          ],
          [
            8.48482228,
            48.853507966
          ],
          [
            8.48485123,
            48.853503653
          ],
          [
            8.484880351,
            48.85349913
          ],
          [
            8.484909746,
            48.85349445
          ],
          [
            8.484939447,
            48.853489715
          ],
          [
            8.48496939,
            48.853484852
          ],
          [
            8.484999669,
            48.85347986
          ],
          [
            8.485030189,
            48.853474741
          ],
          [
            8.485060922,
            48.853469522
          ],
          [
            8.485091901,
            48.853464203
          ],
          [
            8.485123157,
            48.85345881
          ],
          [
            8.485154451,
            48.853453396
          ],
          [
            8.48518413,
            48.853448549
          ],
          [
            8.485211531,
            48.853444402
          ],
          [
            8.485236237,
            48.853440939
          ],
          [
            8.485257947,
            48.853438033
          ],
          [
            8.485276398,
            48.853435715
          ],
          [
            8.485291332,
            48.853433786
          ],
          [
            8.485302609,
            48.853432191
          ],
          [
            8.485310207,
            48.853430927
          ],
          [
            8.485314489,
            48.853430007
          ],
          [
            8.485315984,
            48.853429112
          ],
          [
            8.485314871,
            48.853428338
          ],
          [
            8.485311444,
            48.853427735
          ],
          [
            8.485305949,
            48.853427456
          ],
          [
            8.485298233,
            48.853427618
          ],
          [
            8.485288321,
            48.853428362
          ],
          [
            8.485275967,
            48.853429932
          ],
          [
            8.485261134,
            48.853432074
          ],
          [
            8.485243768,
            48.853434651
          ],
          [
            8.485224092,
            48.853437639
          ],
          [
            8.485202489,
            48.85344095
          ],
          [
            8.485179178,
            48.853444514
          ],
          [
            8.485154647,
            48.85344825
          ],
          [
            8.485129037,
            48.853452068
          ],
          [
            8.485102542,
            48.853455936
          ],
          [
            8.485075382,
            48.853459749
          ],
          [
            8.485047752,
            48.85346355
          ],
          [
            8.485019908,
            48.853467376
          ],
          [
            8.484991808,
            48.853471293
          ],
          [
            8.484963529,
            48.853475355
          ],
          [
            8.484935029,
            48.853479561
          ],
          [
            8.484906253,
            48.853483965
          ],
          [
            8.484877263,
            48.853488569
          ],
          [
            8.484848065,
            48.85349346
          ],
          [
            8.484818596,
            48.853498521
          ],
          [
            8.484788928,
            48.853503771
          ],
          [
            8.484759021,
            48.853509141
          ],
          [
            8.48472886,
            48.853514523
          ],
          [
            8.484698273,
            48.853519992
          ],
          [
            8.484668182,
            48.853525245
          ],
          [
            8.484640728,
            48.853530321
          ],
          [
            8.484616453,
            48.853534926
          ],
          [
            8.484594828,
            48.853538782
          ],
          [
            8.484575811,
            48.853541722
          ],
          [
            8.484559694,
            48.853543886
          ],
          [
            8.484546662,
            48.853545536
          ],
          [
            8.484536967,
            48.853546753
          ],
          [
            8.484530801,
            48.853547348
          ],
          [
            8.484527851,
            48.853547092
          ],
          [
            8.484527172,
            48.85354614
          ],
          [
            8.484527943,
            48.853544256
          ],
          [
            8.484529479,
            48.853541288
          ],
          [
            8.484531093,
            48.853537092
          ],
          [
            8.484532594,
            48.853531597
          ],
          [
            8.484534179,
            48.853524748
          ],
          [
            8.484536044,
            48.853516418
          ],
          [
            8.484538096,
            48.853506516
          ],
          [
            8.484540426,
            48.853494912
          ],
          [
            8.484543279,
            48.853481724
          ],
          [
            8.48454659,
            48.853467164
          ],
          [
            8.484550282,
            48.853451453
          ],
          [
            8.484554495,
            48.853434787
          ],
          [
            8.484559058,
            48.853417352
          ],
          [
            8.484564028,
            48.8533994
          ],
          [
            8.484569305,
            48.853381031
          ],
          [
            8.484574774,
            48.85336234
          ],
          [
            8.484580492,
            48.853343445
          ],
          [
            8.484586312,
            48.853324362
          ],
          [
            8.484592078,
            48.85330517
          ],
          [
            8.484597784,
            48.853285847
          ],
          [
            8.484603536,
            48.853266364
          ],
          [
            8.484609316,
            48.853246746
          ],
          [
            8.484615155,
            48.853226923
          ],
          [
            8.484621015,
            48.853206835
          ],
          [
            8.484626786,
            48.853186559
          ],
          [
            8.484632414,
            48.853166115
          ],
          [
            8.484637935,
            48.853145522
          ],
          [
            8.484643301,
            48.8531248
          ],
          [
            8.484649986,
            48.853104275
          ],
          [
            8.484658735,
            48.853085472
          ],
          [
            8.484667504,
            48.853068316
          ],
          [
            8.484675177,
            48.853052585
          ],
          [
            8.484681912,
            48.853038464
          ],
          [
            8.484687623,
            48.85302596
          ],
          [
            8.48469246,
            48.853015098
          ],
          [
            8.484697873,
            48.853005008
          ],
          [
            8.484704271,
            48.852995493
          ],
          [
            8.484711663,
            48.852986278
          ],
          [
            8.484719781,
            48.852977324
          ],
          [
            8.484728653,
            48.852968491
          ],
          [
            8.484738145,
            48.852959808
          ],
          [
            8.484748031,
            48.852951216
          ],
          [
            8.484758132,
            48.852942686
          ],
          [
            8.484768412,
            48.852934183
          ],
          [
            8.484778866,
            48.852925689
          ],
          [
            8.484789624,
            48.852917368
          ],
          [
            8.48480055,
            48.852909147
          ],
          [
            8.484811569,
            48.852900991
          ],
          [
            8.484822702,
            48.852892868
          ],
          [
            8.484834046,
            48.852884761
          ],
          [
            8.484845463,
            48.852876653
          ],
          [
            8.484857032,
            48.852868621
          ],
          [
            8.484868643,
            48.852860619
          ],
          [
            8.484880436,
            48.852852648
          ],
          [
            8.484892218,
            48.85284476
          ],
          [
            8.484904023,
            48.852836855
          ],
          [
            8.484915877,
            48.852828874
          ],
          [
            8.484927721,
            48.852820833
          ],
          [
            8.484939544,
            48.852812864
          ],
          [
            8.484951421,
            48.852804867
          ],
          [
            8.48496334,
            48.852796803
          ],
          [
            8.484975333,
            48.852788687
          ],
          [
            8.484987299,
            48.852780585
          ],
          [
            8.484999223,
            48.852772461
          ],
          [
            8.485011147,
            48.852764314
          ],
          [
            8.485023012,
            48.852756244
          ],
          [
            8.485034916,
            48.852748114
          ],
          [
            8.485046809,
            48.852740006
          ],
          [
            8.485058643,
            48.852731931
          ],
          [
            8.485070488,
            48.852723894
          ],
          [
            8.485082368,
            48.852715929
          ],
          [
            8.485094166,
            48.852708074
          ],
          [
            8.485105934,
            48.852700261
          ],
          [
            8.48511759,
            48.852692443
          ],
          [
            8.485129207,
            48.852684628
          ],
          [
            8.485140867,
            48.852676834
          ],
          [
            8.485152439,
            48.852669106
          ],
          [
            8.485164056,
            48.852661317
          ],
          [
            8.485175762,
            48.852653532
          ],
          [
            8.485187384,
            48.852645722
          ],
          [
            8.485199023,
            48.852637832
          ],
          [
            8.485210615,
            48.852629936
          ],
          [
            8.485222155,
            48.852622039
          ],
          [
            8.485233663,
            48.852614098
          ],
          [
            8.485245217,
            48.852606116
          ],
          [
            8.485256834,
            48.852598072
          ],
          [
            8.485268462,
            48.852590039
          ],
          [
            8.48528018,
            48.852581989
          ],
          [
            8.485291947,
            48.852573916
          ],
          [
            8.485303854,
            48.852565857
          ],
          [
            8.48531574,
            48.852557832
          ],
          [
            8.485327609,
            48.852549754
          ],
          [
            8.485339616,
            48.852541703
          ],
          [
            8.485351728,
            48.852533721
          ],
          [
            8.485363876,
            48.85252576
          ],
          [
            8.485375928,
            48.852517716
          ],
          [
            8.485387949,
            48.852509623
          ],
          [
            8.485399889,
            48.852501461
          ],
          [
            8.485411852,
            48.852493305
          ],
          [
            8.485423851,
            48.852485207
          ],
          [
            8.485435877,
            48.852477173
          ],
          [
            8.485447927,
            48.852469121
          ],
          [
            8.485460011,
            48.852461095
          ],
          [
            8.485471931,
            48.852453073
          ],
          [
            8.485483806,
            48.852445032
          ],
          [
            8.485495684,
            48.852436987
          ],
          [
            8.485507444,
            48.85242894
          ],
          [
            8.485519114,
            48.852420908
          ],
          [
            8.485530695,
            48.852412866
          ],
          [
            8.48554227,
            48.852404712
          ],
          [
            8.485553872,
            48.852396553
          ],
          [
            8.485565477,
            48.852388408
          ],
          [
            8.485576173,
            48.852381104
          ],
          [
            8.485585934,
            48.852374579
          ],
          [
            8.48559539,
            48.852368309
          ],
          [
            8.485604325,
            48.852362215
          ],
          [
            8.485613052,
            48.852356034
          ],
          [
            8.48562165,
            48.852349711
          ],
          [
            8.485630192,
            48.852343227
          ],
          [
            8.48563869,
            48.852336615
          ],
          [
            8.485647276,
            48.852329986
          ],
          [
            8.485656025,
            48.852323333
          ],
          [
            8.485664897,
            48.852316711
          ],
          [
            8.485674013,
            48.85231018
          ],
          [
            8.485683308,
            48.852303753
          ],
          [
            8.485692761,
            48.852297342
          ],
          [
            8.485702309,
            48.852290983
          ],
          [
            8.485712025,
            48.852284618
          ],
          [
            8.485721325,
            48.852278603
          ],
          [
            8.485729846,
            48.85227463
          ],
          [
            8.485737281,
            48.852273841
          ],
          [
            8.485743495,
            48.852275821
          ],
          [
            8.485749416,
            48.852279765
          ],
          [
            8.485755348,
            48.852284468
          ],
          [
            8.485761547,
            48.852289534
          ],
          [
            8.485768121,
            48.852294915
          ],
          [
            8.48577505,
            48.8523005
          ],
          [
            8.485782253,
            48.852306373
          ],
          [
            8.485789612,
            48.852312593
          ],
          [
            8.485797062,
            48.852319029
          ],
          [
            8.485804614,
            48.852325619
          ],
          [
            8.485812201,
            48.852332391
          ],
          [
            8.485819859,
            48.852339324
          ],
          [
            8.485827584,
            48.852346323
          ],
          [
            8.485835326,
            48.852353297
          ],
          [
            8.485843166,
            48.85236029
          ],
          [
            8.485850994,
            48.852367336
          ],
          [
            8.485858751,
            48.852374431
          ],
          [
            8.48586648,
            48.85238153
          ],
          [
            8.485874256,
            48.852388632
          ],
          [
            8.485882121,
            48.852395671
          ],
          [
            8.485890135,
            48.852402678
          ],
          [
            8.485898158,
            48.852409701
          ],
          [
            8.485906219,
            48.852416729
          ],
          [
            8.485914395,
            48.852423787
          ],
          [
            8.485921417,
            48.852430537
          ],
          [
            8.485925072,
            48.852436988
          ],
          [
            8.485924721,
            48.852443319
          ],
          [
            8.485920728,
            48.852449491
          ],
          [
            8.485914438,
            48.852455639
          ],
          [
            8.485906703,
            48.852461823
          ],
          [
            8.485897859,
            48.852468102
          ],
          [
            8.485888356,
            48.852474609
          ],
          [
            8.485878403,
            48.852481363
          ],
          [
            8.485868135,
            48.852488341
          ],
          [
            8.485857672,
            48.852495593
          ],
          [
            8.485847136,
            48.85250311
          ],
          [
            8.485836462,
            48.852510809
          ],
          [
            8.485825676,
            48.852518656
          ],
          [
            8.485814835,
            48.852526642
          ],
          [
            8.485803959,
            48.852534712
          ],
          [
            8.485792991,
            48.852542786
          ],
          [
            8.485781994,
            48.852550844
          ],
          [
            8.485771071,
            48.852558952
          ],
          [
            8.485760015,
            48.85256705
          ],
          [
            8.485748821,
            48.852575145
          ],
          [
            8.485737535,
            48.852583271
          ],
          [
            8.485726065,
            48.852591435
          ],
          [
            8.48571456,
            48.852599575
          ],
          [
            8.485702936,
            48.852607648
          ],
          [
            8.485691121,
            48.852615683
          ],
          [
            8.485679312,
            48.852623742
          ],
          [
            8.485667433,
            48.852631784
          ],
          [
            8.485655443,
            48.852639784
          ],
          [
            8.485643526,
            48.852647738
          ],
          [
            8.485631652,
            48.852655658
          ],
          [
            8.485619743,
            48.852663605
          ],
          [
            8.48560791,
            48.852671516
          ],
          [
            8.485595985,
            48.852679394
          ],
          [
            8.485583877,
            48.85268725
          ],
          [
            8.485571725,
            48.852695079
          ],
          [
            8.485559595,
            48.852702941
          ],
          [
            8.485547494,
            48.852710847
          ],
          [
            8.485535429,
            48.852718792
          ],
          [
            8.485523474,
            48.852726751
          ],
          [
            8.485511655,
            48.852734739
          ],
          [
            8.485499878,
            48.852742768
          ],
          [
            8.485488095,
            48.852750864
          ],
          [
            8.485476262,
            48.852758937
          ],
          [
            8.48546444,
            48.852766992
          ],
          [
            8.485452736,
            48.852775054
          ],
          [
            8.485441137,
            48.852783182
          ],
          [
            8.485429597,
            48.852791319
          ],
          [
            8.485417983,
            48.852799397
          ],
          [
            8.485406358,
            48.852807483
          ],
          [
            8.48539479,
            48.852815563
          ],
          [
            8.485383289,
            48.852823587
          ],
          [
            8.485371944,
            48.852831653
          ],
          [
            8.485360559,
            48.852839692
          ],
          [
            8.48534913,
            48.852847733
          ],
          [
            8.485337734,
            48.852855757
          ],
          [
            8.485326348,
            48.8528638
          ],
          [
            8.485314943,
            48.85287186
          ],
          [
            8.485303446,
            48.852879938
          ],
          [
            8.485291911,
            48.852888008
          ],
          [
            8.485280234,
            48.852896044
          ],
          [
            8.485268396,
            48.85290408
          ],
          [
            8.485256291,
            48.852912105
          ],
          [
            8.485243979,
            48.852920088
          ],
          [
            8.48523154,
            48.852928002
          ],
          [
            8.485219066,
            48.852935904
          ],
          [
            8.485206601,
            48.852943877
          ],
          [
            8.485194092,
            48.852951853
          ],
          [
            8.485181692,
            48.852959861
          ],
          [
            8.485169476,
            48.852967934
          ],
          [
            8.485157498,
            48.852976096
          ],
          [
            8.485145766,
            48.852984307
          ],
          [
            8.485134214,
            48.852992546
          ],
          [
            8.485122813,
            48.85300076
          ],
          [
            8.485111444,
            48.85300902
          ],
          [
            8.485100139,
            48.853017275
          ],
          [
            8.485088925,
            48.853025594
          ],
          [
            8.4850777,
            48.853033942
          ],
          [
            8.485066413,
            48.853042212
          ],
          [
            8.485055171,
            48.853050446
          ],
          [
            8.485043919,
            48.853058629
          ],
          [
            8.485032614,
            48.853066771
          ],
          [
            8.485021222,
            48.853074942
          ],
          [
            8.485009708,
            48.853083109
          ],
          [
            8.484998199,
            48.853091325
          ],
          [
            8.484986633,
            48.853099546
          ],
          [
            8.484975016,
            48.853107766
          ],
          [
            8.484963444,
            48.853115938
          ],
          [
            8.484951805,
            48.853124066
          ],
          [
            8.484940376,
            48.853132239
          ],
          [
            8.484929915,
            48.853141098
          ],
          [
            8.484920022,
            48.853150781
          ],
          [
            8.484910267,
            48.853161159
          ],
          [
            8.484900483,
            48.8531724
          ],
          [
            8.484890509,
            48.853184433
          ],
          [
            8.484880257,
            48.853197354
          ],
          [
            8.484869561,
            48.85321111
          ],
          [
            8.484858441,
            48.85322563
          ],
          [
            8.484846937,
            48.853240852
          ],
          [
            8.484835066,
            48.853256748
          ],
          [
            8.484822783,
            48.85327316
          ],
          [
            8.484809877,
            48.853290111
          ],
          [
            8.484796474,
            48.853307449
          ],
          [
            8.484782619,
            48.853325102
          ],
          [
            8.484768672,
            48.853343015
          ],
          [
            8.484754631,
            48.853361022
          ],
          [
            8.484740467,
            48.853379125
          ],
          [
            8.484726133,
            48.85339725
          ],
          [
            8.484711543,
            48.853415402
          ],
          [
            8.484696818,
            48.853433665
          ],
          [
            8.484682064,
            48.853452007
          ],
          [
            8.484667288,
            48.853470303
          ],
          [
            8.484652692,
            48.853488742
          ],
          [
            8.484638311,
            48.853507452
          ],
          [
            8.484623987,
            48.853526215
          ],
          [
            8.484609644,
            48.853545095
          ],
          [
            8.484595302,
            48.853564116
          ],
          [
            8.484580918,
            48.853583175
          ],
          [
            8.484566426,
            48.853602339
          ],
          [
            8.484551909,
            48.853621669
          ],
          [
            8.484537368,
            48.853641096
          ],
          [
            8.484522842,
            48.853660616
          ],
          [
            8.484508211,
            48.853680207
          ],
          [
            8.484493485,
            48.853699738
          ],
          [
            8.484478733,
            48.853719236
          ],
          [
            8.484464552,
            48.853737527
          ],
          [
            8.484452317,
            48.853754232
          ],
          [
            8.484442037,
            48.853769253
          ],
          [
            8.484433074,
            48.85378273
          ],
          [
            8.484425261,
            48.853794577
          ],
          [
            8.484418102,
            48.853804325
          ],
          [
            8.484411366,
            48.853811924
          ],
          [
            8.484405358,
            48.853818042
          ],
          [
            8.4844002,
            48.853822643
          ],
          [
            8.484396365,
            48.853825614
          ],
          [
            8.484394118,
            48.853827148
          ],
          [
            8.484393512,
            48.853827348
          ],
          [
            8.484394631,
            48.853826276
          ],
          [
            8.484397638,
            48.853823959
          ],
          [
            8.484402616,
            48.85382043
          ],
          [
            8.484409486,
            48.853815848
          ],
          [
            8.48441805,
            48.853810234
          ],
          [
            8.484427756,
            48.85380401
          ],
          [
            8.48443801,
            48.853797226
          ],
          [
            8.484448551,
            48.853790075
          ],
          [
            8.484459365,
            48.853782739
          ],
          [
            8.484470321,
            48.85377515
          ],
          [
            8.484481537,
            48.853767414
          ],
          [
            8.484492832,
            48.853759703
          ],
          [
            8.484503913,
            48.853751976
          ],
          [
            8.484515021,
            48.853744335
          ],
          [
            8.484526182,
            48.853736779
          ],
          [
            8.484537264,
            48.8537293
          ],
          [
            8.484548212,
            48.853721854
          ],
          [
            8.484559142,
            48.853714361
          ],
          [
            8.484570075,
            48.853706892
          ],
          [
            8.484580986,
            48.85369938
          ],
          [
            8.484591921,
            48.853691827
          ],
          [
            8.484602835,
            48.853684307
          ],
          [
            8.484613819,
            48.853676699
          ],
          [
            8.484624858,
            48.853669093
          ],
          [
            8.484635905,
            48.853661456
          ],
          [
            8.484646877,
            48.853653665
          ],
          [
            8.484657836,
            48.853645766
          ],
          [
            8.484668975,
            48.853637874
          ],
          [
            8.484680186,
            48.85362997
          ],
          [
            8.484691461,
            48.853622054
          ],
          [
            8.484702905,
            48.853614152
          ],
          [
            8.484714438,
            48.853606273
          ],
          [
            8.48472603,
            48.853598391
          ],
          [
            8.484737615,
            48.853590561
          ],
          [
            8.484749157,
            48.853582733
          ],
          [
            8.48476078,
            48.853574918
          ],
          [
            8.484772468,
            48.853567141
          ],
          [
            8.48478398,
            48.853559246
          ],
          [
            8.484795476,
            48.853551256
          ],
          [
            8.484807031,
            48.853543203
          ],
          [
            8.484818689,
            48.853535164
          ],
          [
            8.484830404,
            48.853527173
          ],
          [
            8.484842218,
            48.853519211
          ],
          [
            8.484854049,
            48.853511266
          ],
          [
            8.484865887,
            48.853503285
          ],
          [
            8.484877764,
            48.853495285
          ],
          [
            8.484889634,
            48.853487204
          ],
          [
            8.484901665,
            48.853479092
          ],
          [
            8.484913554,
            48.853471018
          ],
          [
            8.484925392,
            48.853462914
          ],
          [
            8.484937212,
            48.853454786
          ],
          [
            8.484948973,
            48.853446678
          ],
          [
            8.484960608,
            48.853438549
          ],
          [
            8.484972217,
            48.853430428
          ],
          [
            8.484983861,
            48.85342231
          ],
          [
            8.484995508,
            48.853414146
          ],
          [
            8.485007107,
            48.853405895
          ],
          [
            8.485018731,
            48.853397701
          ],
          [
            8.485030431,
            48.853389525
          ],
          [
            8.485042127,
            48.853381324
          ],
          [
            8.485053875,
            48.853373074
          ],
          [
            8.485065554,
            48.853364829
          ],
          [
            8.485077231,
            48.853356514
          ],
          [
            8.485088879,
            48.853348271
          ],
          [
            8.485100395,
            48.853340058
          ],
          [
            8.485111796,
            48.853331816
          ],
          [
            8.485123195,
            48.853323604
          ],
          [
            8.48513467,
            48.853315296
          ],
          [
            8.485146099,
            48.853306899
          ],
          [
            8.485157543,
            48.853298516
          ],
          [
            8.485168972,
            48.853290069
          ],
          [
            8.485180364,
            48.853281689
          ],
          [
            8.485191708,
            48.853273288
          ],
          [
            8.485203116,
            48.853264995
          ],
          [
            8.485214653,
            48.853256778
          ],
          [
            8.485226158,
            48.853248535
          ],
          [
            8.485237813,
            48.85324037
          ],
          [
            8.485249608,
            48.853232243
          ],
          [
            8.485261448,
            48.85322415
          ],
          [
            8.485273433,
            48.853216089
          ],
          [
            8.485285554,
            48.853208091
          ],
          [
            8.485297439,
            48.853200114
          ],
          [
            8.485309203,
            48.853192139
          ],
          [
            8.485320975,
            48.853184077
          ],
          [
            8.485332663,
            48.853175935
          ],
          [
            8.485344291,
            48.853167747
          ],
          [
            8.485355927,
            48.853159551
          ],
          [
            8.48536765,
            48.853151321
          ],
          [
            8.48537941,
            48.853143068
          ],
          [
            8.485391234,
            48.85313489
          ],
          [
            8.485403077,
            48.85312679
          ],
          [
            8.485414957,
            48.853118714
          ],
          [
            8.485426839,
            48.853110629
          ],
          [
            8.485438689,
            48.853102506
          ],
          [
            8.485450554,
            48.853094414
          ],
          [
            8.485462422,
            48.853086307
          ],
          [
            8.485474257,
            48.853078173
          ],
          [
            8.48548604,
            48.853070051
          ],
          [
            8.485497717,
            48.853061933
          ],
          [
            8.485509277,
            48.853053785
          ],
          [
            8.485520874,
            48.853045555
          ],
          [
            8.485532457,
            48.853037325
          ],
          [
            8.485544051,
            48.853029117
          ],
          [
            8.485555713,
            48.853020947
          ],
          [
            8.48556746,
            48.853012726
          ],
          [
            8.485579157,
            48.853004498
          ],
          [
            8.48559078,
            48.852996282
          ],
          [
            8.485602286,
            48.852988137
          ],
          [
            8.485613688,
            48.852979973
          ],
          [
            8.485625075,
            48.852971772
          ],
          [
            8.485636445,
            48.852963584
          ],
          [
            8.485647956,
            48.852955462
          ],
          [
            8.485659472,
            48.852947374
          ],
          [
            8.485670871,
            48.852939243
          ],
          [
            8.485682283,
            48.852931127
          ],
          [
            8.485693632,
            48.852923
          ],
          [
            8.48570493,
            48.852914834
          ],
          [
            8.485716217,
            48.852906664
          ],
          [
            8.485727441,
            48.852898432
          ],
          [
            8.485738721,
            48.85289012
          ],
          [
            8.485750023,
            48.852881753
          ],
          [
            8.485761251,
            48.852873314
          ],
          [
            8.485772605,
            48.852864928
          ],
          [
            8.485784015,
            48.852856567
          ],
          [
            8.485795424,
            48.852848187
          ],
          [
            8.485806824,
            48.852839821
          ],
          [
            8.485818272,
            48.852831604
          ],
          [
            8.485829795,
            48.852823412
          ],
          [
            8.485841475,
            48.852815288
          ],
          [
            8.485853124,
            48.852807196
          ],
          [
            8.485864761,
            48.852799118
          ],
          [
            8.485876386,
            48.852791086
          ],
          [
            8.485888011,
            48.852783037
          ],
          [
            8.485899662,
            48.852774942
          ],
          [
            8.485911289,
            48.85276685
          ],
          [
            8.485922901,
            48.85275874
          ],
          [
            8.485934595,
            48.852750672
          ],
          [
            8.485946288,
            48.85274269
          ],
          [
            8.485956723,
            48.852735734
          ],
          [
            8.485966522,
            48.852729294
          ],
          [
            8.485976126,
            48.852722974
          ],
          [
            8.485985471,
            48.852716757
          ],
          [
            8.485994814,
            48.852710567
          ],
          [
            8.486004173,
            48.852704255
          ],
          [
            8.486013378,
            48.852697879
          ],
          [
            8.486022628,
            48.852691424
          ],
          [
            8.486031936,
            48.852684937
          ],
          [
            8.486041364,
            48.852678508
          ],
          [
            8.48605071,
            48.852672081
          ],
          [
            8.486060005,
            48.852665646
          ],
          [
            8.486069255,
            48.852659201
          ],
          [
            8.486078642,
            48.852652817
          ],
          [
            8.48608818,
            48.852646496
          ],
          [
            8.486097834,
            48.852640157
          ],
          [
            8.486106732,
            48.85263457
          ],
          [
            8.486114638,
            48.852631375
          ],
          [
            8.486120875,
            48.852631125
          ],
          [
            8.486125912,
            48.852633333
          ],
          [
            8.486130922,
            48.852637202
          ],
          [
            8.486136332,
            48.852641713
          ],
          [
            8.486142456,
            48.852646744
          ],
          [
            8.486149166,
            48.852652245
          ],
          [
            8.486156194,
            48.852658079
          ],
          [
            8.486163518,
            48.852664186
          ],
          [
            8.486171109,
            48.852670556
          ],
          [
            8.486178823,
            48.852677162
          ],
          [
            8.48618669,
            48.852684011
          ],
          [
            8.486194785,
            48.852691082
          ],
          [
            8.486202997,
            48.852698228
          ],
          [
            8.486211179,
            48.852705439
          ],
          [
            8.486219296,
            48.852712636
          ],
          [
            8.486227388,
            48.852719823
          ],
          [
            8.48623558,
            48.852726993
          ],
          [
            8.48624383,
            48.85273409
          ],
          [
            8.486251887,
            48.852741251
          ],
          [
            8.48625983,
            48.852748426
          ],
          [
            8.486267614,
            48.852755621
          ],
          [
            8.486275436,
            48.852762805
          ],
          [
            8.48628335,
            48.852769922
          ],
          [
            8.486291335,
            48.852777017
          ],
          [
            8.486299422,
            48.852784126
          ],
          [
            8.486305848,
            48.852790788
          ],
          [
            8.486308393,
            48.852797198
          ],
          [
            8.486306554,
            48.852803303
          ],
          [
            8.486301358,
            48.852809292
          ],
          [
            8.486294277,
            48.852815284
          ],
          [
            8.486286211,
            48.852821351
          ],
          [
            8.486277435,
            48.852827594
          ],
          [
            8.486268256,
            48.852834129
          ],
          [
            8.486258767,
            48.852841004
          ],
          [
            8.486248952,
            48.852848136
          ],
          [
            8.48623882,
            48.85285551
          ],
          [
            8.48622842,
            48.852863103
          ],
          [
            8.486217677,
            48.852870829
          ],
          [
            8.486206632,
            48.852878593
          ],
          [
            8.4861955,
            48.852886399
          ],
          [
            8.48618431,
            48.852894256
          ],
          [
            8.486173051,
            48.852902082
          ],
          [
            8.486161757,
            48.852909925
          ],
          [
            8.486150364,
            48.852917791
          ],
          [
            8.486138927,
            48.852925689
          ],
          [
            8.486127372,
            48.852933624
          ],
          [
            8.486115697,
            48.852941632
          ],
          [
            8.48610388,
            48.852949699
          ],
          [
            8.486092028,
            48.852957819
          ],
          [
            8.486080198,
            48.852965904
          ],
          [
            8.486068324,
            48.852973999
          ],
          [
            8.486056412,
            48.852982083
          ],
          [
            8.486044522,
            48.852990158
          ],
          [
            8.486032704,
            48.852998302
          ],
          [
            8.486020897,
            48.85300655
          ],
          [
            8.486009009,
            48.85301483
          ],
          [
            8.48599719,
            48.853023043
          ],
          [
            8.485985474,
            48.853031192
          ],
          [
            8.485973755,
            48.853039388
          ],
          [
            8.485961965,
            48.853047531
          ],
          [
            8.485950282,
            48.853055687
          ],
          [
            8.485938562,
            48.853063767
          ],
          [
            8.485926731,
            48.853071735
          ],
          [
            8.485914983,
            48.853079731
          ],
          [
            8.485903265,
            48.853087837
          ],
          [
            8.485891599,
            48.853095963
          ],
          [
            8.48587995,
            48.853104096
          ],
          [
            8.485868349,
            48.853112269
          ],
          [
            8.485856745,
            48.8531204
          ],
          [
            8.485845063,
            48.853128483
          ],
          [
            8.485833316,
            48.853136556
          ],
          [
            8.485821474,
            48.853144546
          ],
          [
            8.485809531,
            48.853152436
          ],
          [
            8.485797595,
            48.853160297
          ],
          [
            8.485785628,
            48.853168149
          ],
          [
            8.485773574,
            48.853176016
          ],
          [
            8.485761566,
            48.853183936
          ],
          [
            8.485749679,
            48.853191946
          ],
          [
            8.485737901,
            48.853199986
          ],
          [
            8.4857262,
            48.853207993
          ],
          [
            8.485714515,
            48.853216032
          ],
          [
            8.485702819,
            48.85322408
          ],
          [
            8.485691167,
            48.853232112
          ],
          [
            8.485679445,
            48.853240106
          ],
          [
            8.48566766,
            48.853248067
          ],
          [
            8.485655834,
            48.853255989
          ],
          [
            8.485644004,
            48.853263906
          ],
          [
            8.485632166,
            48.853271785
          ],
          [
            8.485620306,
            48.853279633
          ],
          [
            8.485608468,
            48.853287509
          ],
          [
            8.485596671,
            48.853295388
          ],
          [
            8.485584865,
            48.853303314
          ],
          [
            8.485573069,
            48.853311319
          ],
          [
            8.485561324,
            48.85331941
          ],
          [
            8.485549683,
            48.853327549
          ],
          [
            8.485538211,
            48.85333571
          ],
          [
            8.485526819,
            48.853343819
          ],
          [
            8.485515447,
            48.853351912
          ],
          [
            8.485504131,
            48.853359973
          ],
          [
            8.485492823,
            48.853367997
          ],
          [
            8.48548147,
            48.853375948
          ],
          [
            8.485470108,
            48.853383885
          ],
          [
            8.485458845,
            48.853391754
          ],
          [
            8.485447648,
            48.853399557
          ],
          [
            8.485436513,
            48.853407426
          ],
          [
            8.485425288,
            48.853415338
          ],
          [
            8.485413994,
            48.853423308
          ],
          [
            8.485402715,
            48.853431333
          ],
          [
            8.485391401,
            48.853439429
          ],
          [
            8.485380044,
            48.853447582
          ],
          [
            8.485368651,
            48.853455776
          ],
          [
            8.485357274,
            48.853464043
          ],
          [
            8.485345803,
            48.853472333
          ],
          [
            8.485334033,
            48.85348058
          ],
          [
            8.485322068,
            48.853488704
          ],
          [
            8.485309961,
            48.853496724
          ],
          [
            8.485297708,
            48.853504664
          ],
          [
            8.485285274,
            48.853512543
          ],
          [
            8.485272721,
            48.853520335
          ],
          [
            8.485260109,
            48.853528114
          ],
          [
            8.485247434,
            48.853535894
          ],
          [
            8.485234812,
            48.8535437
          ],
          [
            8.485222363,
            48.853551519
          ],
          [
            8.485209984,
            48.853559335
          ],
          [
            8.485197643,
            48.853567161
          ],
          [
            8.485185419,
            48.853575
          ],
          [
            8.485173304,
            48.853582856
          ],
          [
            8.485161262,
            48.853590758
          ],
          [
            8.48514941,
            48.853598708
          ],
          [
            8.485137505,
            48.853606697
          ],
          [
            8.485125578,
            48.853614676
          ],
          [
            8.485113677,
            48.853622685
          ],
          [
            8.485101741,
            48.8536307
          ],
          [
            8.485089772,
            48.85363868
          ],
          [
            8.485077863,
            48.853646637
          ],
          [
            8.48506593,
            48.853654625
          ],
          [
            8.485053982,
            48.853662632
          ],
          [
            8.485042122,
            48.853670658
          ],
          [
            8.485030305,
            48.853678712
          ],
          [
            8.485018616,
            48.853686802
          ],
          [
            8.485007124,
            48.853694927
          ],
          [
            8.484995739,
            48.853703053
          ],
          [
            8.484984414,
            48.853711175
          ],
          [
            8.484973057,
            48.853719296
          ],
          [
            8.484961625,
            48.853727395
          ],
          [
            8.484950157,
            48.853735512
          ],
          [
            8.484938768,
            48.853743658
          ],
          [
            8.484927382,
            48.85375176
          ],
          [
            8.484916049,
            48.853759916
          ],
          [
            8.484904855,
            48.853768144
          ],
          [
            8.484893756,
            48.85377641
          ],
          [
            8.484882673,
            48.853784648
          ],
          [
            8.484871612,
            48.85379287
          ],
          [
            8.484860578,
            48.853801114
          ],
          [
            8.48484952,
            48.853809302
          ],
          [
            8.484838363,
            48.853817465
          ],
          [
            8.484827119,
            48.853825604
          ],
          [
            8.484815754,
            48.853833728
          ],
          [
            8.484805284,
            48.853841152
          ],
          [
            8.484795837,
            48.853847787
          ],
          [
            8.484786535,
            48.853854306
          ],
          [
            8.484777487,
            48.853860673
          ],
          [
            8.484768621,
            48.853866944
          ],
          [
            8.484759728,
            48.853873126
          ],
          [
            8.484750834,
            48.853879362
          ],
          [
            8.484741935,
            48.853885699
          ],
          [
            8.48473303,
            48.853892094
          ],
          [
            8.48472413,
            48.853898589
          ],
          [
            8.484715222,
            48.85390514
          ],
          [
            8.484706372,
            48.853911698
          ],
          [
            8.484697539,
            48.853918222
          ],
          [
            8.48468878,
            48.85392474
          ],
          [
            8.484679987,
            48.85393127
          ],
          [
            8.484671096,
            48.853937828
          ],
          [
            8.484662686,
            48.853943954
          ],
          [
            8.48465672,
            48.853949054
          ],
          [
            8.48465467,
            48.853953591
          ],
          [
            8.484656665,
            48.853957868
          ],
          [
            8.484662176,
            48.853962494
          ],
          [
            8.48466955,
            48.853967422
          ],
          [
            8.484678341,
            48.853972494
          ],
          [
            8.484688029,
            48.853977697
          ],
          [
            8.484697994,
            48.853983112
          ],
          [
            8.484708216,
            48.853988623
          ],
          [
            8.484718489,
            48.853994248
          ],
          [
            8.484728699,
            48.853999863
          ],
          [
            8.484738865,
            48.854005459
          ],
          [
            8.484749058,
            48.854011078
          ],
          [
            8.484759478,
            48.854016627
          ],
          [
            8.484769949,
            48.854022033
          ],
          [
            8.484780528,
            48.854027425
          ],
          [
            8.484791194,
            48.854032862
          ],
          [
            8.484801949,
            48.854038288
          ],
          [
            8.484812722,
            48.854043769
          ],
          [
            8.484823386,
            48.854049377
          ],
          [
            8.484834132,
            48.854054986
          ],
          [
            8.484844881,
            48.854060533
          ],
          [
            8.484855605,
            48.854065929
          ],
          [
            8.484866213,
            48.854071295
          ],
          [
            8.484876759,
            48.854076693
          ],
          [
            8.484886659,
            48.85408167
          ],
          [
            8.484895175,
            48.854084601
          ],
          [
            8.484903033,
            48.854084646
          ],
          [
            8.484910942,
            48.854082132
          ],
          [
            8.484919706,
            48.854077842
          ],
          [
            8.484929413,
            48.854072534
          ],
          [
            8.484939864,
            48.854066626
          ],
          [
            8.484950845,
            48.854060369
          ],
          [
            8.484962083,
            48.854053743
          ],
          [
            8.484973453,
            48.854046823
          ],
          [
            8.484984935,
            48.854039863
          ],
          [
            8.484996397,
            48.854032792
          ],
          [
            8.485007692,
            48.854025599
          ],
          [
            8.485018777,
            48.854018324
          ],
          [
            8.485029562,
            48.854010924
          ],
          [
            8.485040171,
            48.854003379
          ],
          [
            8.485050766,
            48.853995811
          ],
          [
            8.485061403,
            48.853988118
          ],
          [
            8.4850721,
            48.853980384
          ],
          [
            8.485082978,
            48.853972609
          ],
          [
            8.48509395,
            48.853964768
          ],
          [
            8.485105165,
            48.853957029
          ],
          [
            8.485116548,
            48.853949403
          ],
          [
            8.485127957,
            48.853941692
          ],
          [
            8.485139506,
            48.853933951
          ],
          [
            8.485151109,
            48.853926229
          ],
          [
            8.485162864,
            48.853918577
          ],
          [
            8.485174608,
            48.853910934
          ],
          [
            8.485186246,
            48.853903331
          ],
          [
            8.485197766,
            48.853895601
          ],
          [
            8.485209293,
            48.853887806
          ],
          [
            8.485220699,
            48.85388
          ],
          [
            8.485231981,
            48.853872085
          ],
          [
            8.485243402,
            48.853864198
          ],
          [
            8.485254903,
            48.853856347
          ],
          [
            8.485266634,
            48.853848547
          ],
          [
            8.485278425,
            48.853840781
          ],
          [
            8.485290253,
            48.853833048
          ],
          [
            8.485302182,
            48.853825342
          ],
          [
            8.485314312,
            48.853817617
          ],
          [
            8.485326434,
            48.853809859
          ],
          [
            8.485338531,
            48.853802004
          ],
          [
            8.485350625,
            48.853794185
          ],
          [
            8.485362761,
            48.853786345
          ],
          [
            8.485374839,
            48.853778405
          ],
          [
            8.485386846,
            48.853770369
          ],
          [
            8.485398828,
            48.853762344
          ],
          [
            8.485410661,
            48.853754329
          ],
          [
            8.48542241,
            48.853746343
          ],
          [
            8.485434239,
            48.85373836
          ],
          [
            8.485446177,
            48.853730426
          ],
          [
            8.485457989,
            48.853722358
          ],
          [
            8.485469727,
            48.853714273
          ],
          [
            8.485481371,
            48.853706247
          ],
          [
            8.485493092,
            48.853698243
          ],
          [
            8.485504851,
            48.853690255
          ],
          [
            8.4855166,
            48.853682338
          ],
          [
            8.485528331,
            48.853674394
          ],
          [
            8.485540039,
            48.853666506
          ],
          [
            8.485551625,
            48.853658561
          ],
          [
            8.485563043,
            48.853650571
          ],
          [
            8.485574458,
            48.853642511
          ],
          [
            8.48558587,
            48.853634357
          ],
          [
            8.485597506,
            48.853626205
          ],
          [
            8.485609334,
            48.85361811
          ],
          [
            8.485621054,
            48.853609955
          ],
          [
            8.485632795,
            48.853601793
          ],
          [
            8.485644618,
            48.85359364
          ],
          [
            8.485656572,
            48.853585491
          ],
          [
            8.485668289,
            48.853577314
          ],
          [
            8.485679861,
            48.853569105
          ],
          [
            8.485691534,
            48.853561137
          ],
          [
            8.485703259,
            48.853553188
          ],
          [
            8.48571505,
            48.853545277
          ],
          [
            8.485726565,
            48.853537313
          ],
          [
            8.485738005,
            48.853529279
          ],
          [
            8.48574936,
            48.853521013
          ],
          [
            8.485760632,
            48.853512623
          ],
          [
            8.48577196,
            48.853504288
          ],
          [
            8.485783367,
            48.853495961
          ],
          [
            8.485794752,
            48.8534877
          ],
          [
            8.485806386,
            48.853479575
          ],
          [
            8.485818033,
            48.85347148
          ],
          [
            8.485829887,
            48.853463513
          ],
          [
            8.485842084,
            48.853455581
          ],
          [
            8.48585438,
            48.853447703
          ],
          [
            8.485866737,
            48.853439908
          ],
          [
            8.485879069,
            48.853432066
          ],
          [
            8.48589128,
            48.85342426
          ],
          [
            8.485903313,
            48.85341641
          ],
          [
            8.485915269,
            48.853408503
          ],
          [
            8.485927142,
            48.853400539
          ],
          [
            8.485938799,
            48.853392407
          ],
          [
            8.485950139,
            48.853384139
          ],
          [
            8.485961098,
            48.853375648
          ],
          [
            8.485972171,
            48.85336723
          ],
          [
            8.485983413,
            48.85335904
          ],
          [
            8.485994632,
            48.853350805
          ],
          [
            8.486005964,
            48.853342538
          ],
          [
            8.48601721,
            48.853334177
          ],
          [
            8.48602851,
            48.853325843
          ],
          [
            8.48603979,
            48.853317484
          ],
          [
            8.486051217,
            48.853309217
          ],
          [
            8.486062481,
            48.853300971
          ],
          [
            8.48607371,
            48.853292695
          ],
          [
            8.486085045,
            48.853284447
          ],
          [
            8.486096537,
            48.853276279
          ],
          [
            8.486107733,
            48.853267964
          ],
          [
            8.486119115,
            48.853259716
          ],
          [
            8.486130412,
            48.853251642
          ],
          [
            8.486141668,
            48.853243433
          ],
          [
            8.486152743,
            48.853235095
          ],
          [
            8.486163709,
            48.853226684
          ],
          [
            8.486174644,
            48.853218322
          ],
          [
            8.486185536,
            48.853209935
          ],
          [
            8.486196413,
            48.853201466
          ],
          [
            8.486207255,
            48.85319302
          ],
          [
            8.48621808,
            48.853184595
          ],
          [
            8.486228922,
            48.85317612
          ],
          [
            8.486239807,
            48.853167701
          ],
          [
            8.486250817,
            48.853159367
          ],
          [
            8.486262092,
            48.853151139
          ],
          [
            8.486273569,
            48.853143028
          ],
          [
            8.4862852,
            48.853134953
          ],
          [
            8.486296901,
            48.853126875
          ],
          [
            8.486308708,
            48.853118976
          ],
          [
            8.48632061,
            48.853111181
          ],
          [
            8.486332559,
            48.853103439
          ],
          [
            8.486344218,
            48.85309544
          ],
          [
            8.486355891,
            48.85308735
          ],
          [
            8.486367689,
            48.85307922
          ],
          [
            8.486379578,
            48.853071027
          ],
          [
            8.486391456,
            48.853062808
          ],
          [
            8.486403159,
            48.853054506
          ],
          [
            8.486414931,
            48.853046286
          ],
          [
            8.486426698,
            48.853038166
          ],
          [
            8.486438385,
            48.853030105
          ],
          [
            8.486449821,
            48.85302195
          ],
          [
            8.486461353,
            48.853013857
          ],
          [
            8.486472969,
            48.853005811
          ],
          [
            8.486484046,
            48.852998618
          ],
          [
            8.486493282,
            48.852992436
          ],
          [
            8.4865005,
            48.852987134
          ],
          [
            8.486505345,
            48.852983273
          ],
          [
            8.48650785,
            48.852981122
          ],
          [
            8.486507891,
            48.852980438
          ],
          [
            8.486505519,
            48.852981339
          ],
          [
            8.486501403,
            48.852983496
          ],
          [
            8.486495364,
            48.852986444
          ],
          [
            8.486487308,
            48.852989903
          ],
          [
            8.486477031,
            48.852993826
          ],
          [
            8.486464419,
            48.852998297
          ],
          [
            8.486449535,
            48.853003411
          ],
          [
            8.486432579,
            48.853009
          ],
          [
            8.486413938,
            48.853014938
          ],
          [
            8.48639382,
            48.853021175
          ],
          [
            8.486372692,
            48.853027664
          ],
          [
            8.486350767,
            48.853034367
          ],
          [
            8.486328205,
            48.853041207
          ],
          [
            8.486305528,
            48.853047982
          ],
          [
            8.486282845,
            48.853054783
          ],
          [
            8.4862603,
            48.853061659
          ],
          [
            8.486237807,
            48.853068587
          ],
          [
            8.486215472,
            48.853075619
          ],
          [
            8.486193225,
            48.853082683
          ],
          [
            8.48617122,
            48.853089827
          ],
          [
            8.48614939,
            48.853097042
          ],
          [
            8.486127617,
            48.853104157
          ],
          [
            8.48610602,
            48.853111182
          ],
          [
            8.486084491,
            48.853118192
          ],
          [
            8.486063149,
            48.853125223
          ],
          [
            8.486041917,
            48.85313224
          ],
          [
            8.486020747,
            48.85313921
          ],
          [
            8.485999699,
            48.853146199
          ],
          [
            8.485978596,
            48.853153138
          ],
          [
            8.485957383,
            48.853160075
          ],
          [
            8.485936258,
            48.853167038
          ],
          [
            8.485915367,
            48.853174168
          ],
          [
            8.485894258,
            48.853181211
          ],
          [
            8.485873096,
            48.853188031
          ],
          [
            8.485851924,
            48.853194988
          ],
          [
            8.485830365,
            48.853201949
          ],
          [
            8.485808705,
            48.853208988
          ],
          [
            8.485787014,
            48.853216092
          ],
          [
            8.485765336,
            48.853223161
          ],
          [
            8.485743529,
            48.853230188
          ],
          [
            8.485721508,
            48.853236944
          ],
          [
            8.485699481,
            48.853243716
          ],
          [
            8.485677543,
            48.853250538
          ],
          [
            8.485655776,
            48.85325756
          ],
          [
            8.485634405,
            48.853264851
          ],
          [
            8.485612683,
            48.853272034
          ],
          [
            8.485590838,
            48.853279125
          ],
          [
            8.485569012,
            48.853286408
          ],
          [
            8.485547124,
            48.853293862
          ],
          [
            8.485525303,
            48.853301393
          ],
          [
            8.485503162,
            48.85330876
          ],
          [
            8.485480979,
            48.853315854
          ],
          [
            8.485459058,
            48.853322955
          ],
          [
            8.485437342,
            48.853330098
          ],
          [
            8.485415687,
            48.85333718
          ],
          [
            8.485394048,
            48.853344283
          ],
          [
            8.485372356,
            48.853351248
          ],
          [
            8.485350233,
            48.853357879
          ],
          [
            8.485327532,
            48.853364592
          ],
          [
            8.485304118,
            48.853371619
          ],
          [
            8.485279811,
            48.853378525
          ],
          [
            8.485254553,
            48.853385307
          ],
          [
            8.485228547,
            48.853391945
          ],
          [
            8.485202124,
            48.853398753
          ],
          [
            8.48517513,
            48.853405587
          ],
          [
            8.485147541,
            48.853412451
          ],
          [
            8.485119455,
            48.853419597
          ],
          [
            8.485090804,
            48.85342711
          ],
          [
            8.485061742,
            48.853434938
          ],
          [
            8.485032255,
            48.853442763
          ],
          [
            8.48500248,
            48.853450536
          ],
          [
            8.48497251,
            48.853458224
          ],
          [
            8.484942383,
            48.853465684
          ],
          [
            8.484912127,
            48.853473366
          ],
          [
            8.48488188,
            48.853481011
          ],
          [
            8.484851844,
            48.85348865
          ],
          [
            8.484821662,
            48.853496243
          ],
          [
            8.484791384,
            48.85350376
          ],
          [
            8.484761428,
            48.853511471
          ],
          [
            8.484731601,
            48.853519099
          ],
          [
            8.484701467,
            48.853526533
          ],
          [
            8.484672275,
            48.853533863
          ],
          [
            8.484645945,
            48.85353979
          ],
          [
            8.484624602,
            48.853543981
          ],
          [
            8.484607495,
            48.853547901
          ],
          [
            8.484592064,
            48.853552041
          ],
          [
            8.484579438,
            48.853555773
          ],
          [
            8.484570735,
            48.853558655
          ],
          [
            8.484564844,
            48.853560709
          ],
          [
            8.484561208,
            48.853561868
          ],
          [
            8.484559334,
            48.853562154
          ],
          [
            8.48455851,
            48.853562095
          ],
          [
            8.484558028,
            48.853562072
          ],
          [
            8.484557385,
            48.853562148
          ],
          [
            8.484556749,
            48.853562181
          ],
          [
            8.484556145,
            48.85356233
          ],
          [
            8.484555789,
            48.853562664
          ],
          [
            8.484555642,
            48.853563129
          ],
          [
            8.484555554,
            48.853563855
          ],
          [
            8.484555204,
            48.853564583
          ],
          [
            8.484554877,
            48.853565215
          ],
          [
            8.484554611,
            48.853565641
          ],
          [
            8.484554188,
            48.853565697
          ],
          [
            8.484553768,
            48.853565376
          ],
          [
            8.484553283,
            48.853564761
          ],
          [
            8.484552927,
            48.853564133
          ],
          [
            8.484552791,
            48.853563602
          ],
          [
            8.484552873,
            48.853563253
          ],
          [
            8.484552731,
            48.853563222
          ],
          [
            8.484552106,
            48.853563492
          ],
          [
            8.484551257,
            48.853563864
          ],
          [
            8.484550551,
            48.853564163
          ],
          [
            8.484549854,
            48.853564286
          ],
          [
            8.484549362,
            48.85356433
          ],
          [
            8.48454923,
            48.85356425
          ],
          [
            8.484549112,
            48.853564211
          ],
          [
            8.484549176,
            48.853564214
          ],
          [
            8.484550108,
            48.85356503
          ],
          [
            8.484551175,
            48.853565821
          ],
          [
            8.484551525,
            48.853566443
          ],
          [
            8.484551875,
            48.85356713
          ],
          [
            8.484552411,
            48.853567312
          ],
          [
            8.484551876,
            48.853567142
          ],
          [
            8.484549902,
            48.853566896
          ],
          [
            8.484546107,
            48.853566629
          ],
          [
            8.484542296,
            48.853566447
          ],
          [
            8.48454001,
            48.853565875
          ],
          [
            8.484539003,
            48.853565083
          ],
          [
            8.484538313,
            48.853564442
          ],
          [
            8.484537673,
            48.853564193
          ],
          [
            8.484537191,
            48.853564023
          ],
          [
            8.484536751,
            48.853564312
          ],
          [
            8.484536189,
            48.853564945
          ],
          [
            8.484535618,
            48.853565645
          ],
          [
            8.484535421,
            48.853566144
          ],
          [
            8.484535234,
            48.853566126
          ],
          [
            8.484535239,
            48.853566148
          ],
          [
            8.484535222,
            48.853566155
          ],
          [
            8.484535209,
            48.85356616
          ],
          [
            8.484535219,
            48.853566156
          ],
          [
            8.484535228,
            48.853566153
          ],
          [
            8.484535241,
            48.853566151
          ],
          [
            8.484535258,
            48.853566151
          ],
          [
            8.484535274,
            48.853566148
          ],
          [
            8.484535292,
            48.853566145
          ],
          [
            8.484535308,
            48.853566139
          ],
          [
            8.48453532,
            48.853566134
          ],
          [
            8.484535334,
            48.853566132
          ],
          [
            8.484535345,
            48.853566132
          ],
          [
            8.48453535,
            48.853566133
          ],
          [
            8.484535361,
            48.853566129
          ],
          [
            8.484535363,
            48.853566122
          ],
          [
            8.484535366,
            48.853566119
          ],
          [
            8.484535364,
            48.853566113
          ],
          [
            8.484535366,
            48.853566103
          ],
          [
            8.484535369,
            48.853566096
          ],
          [
            8.484535368,
            48.853566089
          ],
          [
            8.48453536,
            48.853566082
          ],
          [
            8.484535352,
            48.853566079
          ],
          [
            8.484535337,
            48.85356608
          ],
          [
            8.484535316,
            48.853566085
          ],
          [
            8.484535289,
            48.853566094
          ],
          [
            8.484535252,
            48.853566107
          ]
        ]
      },
      "properties": {
        "name": "Flight trajectory",
        "description": "Flugbahn der HySpex Mission",
        "source_format": "swir_vnir"
      }
    }
  ]
}