{
  "type": "FeatureCollection",
  "features": [
    {
      "type": "Feature",
      "geometry": {
        "type": "LineString",
        "coordinates": [
          [
            8.484711156,
            48.853524819
          ],
          [
            8.484737935,
            48.853521998
          ],
          [
            8.484765413,
            48.853518327
          ],
          [
            8.48479388,
            48.85351348
          ],
          [
            8.484822789,
            48.853508551
          ],
          [
            8.484851739,
            48.853504238
          ],
          [
            8.484880859,
            48.853499715
          ],
          [
            8.484910254,
            48.853495035
          ],
          [
            8.484939954,
            48.8534903
          ],
          [
            8.484969898,
            48.853485438
          ],
          [
            8.485000176,
            48.853480446
          ],
          [
            8.485030696,
            48.853475326
          ],
          [
            8.485061429,
            48.853470108
          ],
          [
            8.485092408,
            48.853464788
          ],
          [
            8.485123663,
            48.853459396
          ],
          [
            8.485154957,
            48.853453981
          ],
          [
            8.485184634,
            48.853449136
          ],
          [
            8.485212034,
            48.853444989
          ],
          [
            8.485236739,
            48.853441526
          ],
          [
            8.485258448,
            48.853438621
          ],
          [
            8.485276899,
            48.853436303
          ],
          [
            8.485291832,
            48.853434374
          ],
          [
            8.48530311,
            48.853432779
          ],
          [
            8.485310707,
            48.853431514
          ],
          [
            8.48531499,
            48.853430595
          ],
          [
            8.485316485,
            48.8534297
          ],
          [
            8.485315372,
            48.853428925
          ],
          [
            8.485311945,
            48.853428323
          ],
          [
            8.485306449,
            48.853428044
          ],
          [
            8.485298733,
            48.853428206
          ],
          [
            8.485288821,
            48.85342895
          ],
          [
            8.485276466,
            48.85343052
          ],
          [
            8.485261633,
            48.853432663
          ],
          [
            8.485244267,
            48.853435239
          ],
          [
            8.48522459,
            48.853438228
          ],
          [
            8.485202986,
            48.853441539
          ],
          [
            8.485179675,
            48.853445103
          ],
          [
            8.485155143,
            48.853448839
          ],
          [
            8.485129533,
            48.853452657
          ],
          [
            8.485103038,
            48.853456526
          ],
          [
            8.485075877,
            48.853460339
          ],
          [
            8.485048247,
            48.85346414
          ],
          [
            8.485020402,
            48.853467966
          ],
          [
            8.484992301,
            48.853471883
          ],
          [
            8.484964022,
            48.853475945
          ],
          [
            8.484935521,
            48.853480152
          ],
          [
            8.484906744,
            48.853484556
          ],
          [
            8.484877753,
            48.853489161
          ],
          [
            8.484848555,
            48.853494051
          ],
          [
            8.484819085,
            48.853499113
          ],
          [
            8.484789417,
            48.853504363
          ],
          [
            8.484759512,
            48.853509733
          ],
          [
            8.48472935,
            48.853515115
          ],
          [
            8.484698763,
            48.853520584
          ],
          [
            8.484668717,
            48.85352582
          ],
          [
            8.484641514,
            48.853530752
          ],
          [
            8.484617446,
            48.853535085
          ],
          [
            8.48459585,
            48.853538783
          ],
          [
            8.484576833,
            48.853541702
          ],
          [
            8.484560715,
            48.853543864
          ],
          [
            8.484547683,
            48.853545514
          ],
          [
            8.484537988,
            48.853546731
          ],
          [
            8.484531823,
            48.853547326
          ],
          [
            8.484528873,
            48.85354707
          ],
          [
            8.484528193,
            48.853546118
          ],
          [
            8.484528964,
            48.853544235
          ],
          [
            8.484530501,
            48.85354127
          ],
          [
            8.484532115,
            48.853537077
          ],
          [
            8.484533616,
            48.853531584
          ],
          [
            8.4845352,
            48.853524737
          ],
          [
            8.484537065,
            48.853516408
          ],
          [
            8.484539118,
            48.853506508
          ],
          [
            8.484541448,
            48.853494905
          ],
          [
            8.484544301,
            48.853481718
          ],
          [
            8.484547612,
            48.853467161
          ],
          [
            8.484551303,
            48.853451452
          ],
          [
            8.484555517,
            48.853434787
          ],
          [
            8.48456008,
            48.853417353
          ],
          [
            8.484565049,
            48.853399402
          ],
          [
            8.484570327,
            48.853381034
          ],
          [
            8.484575796,
            48.853362344
          ],
          [
            8.484581514,
            48.85334345
          ],
          [
            8.484587334,
            48.853324367
          ],
          [
            8.484593099,
            48.853305175
          ],
          [
            8.484598806,
            48.853285852
          ],
          [
            8.484604557,
            48.853266369
          ],
          [
            8.484610338,
            48.853246751
          ],
          [
            8.484616177,
            48.853226929
          ],
          [
            8.484622036,
            48.853206841
          ],
          [
            8.484627808,
            48.853186565
          ],
          [
            8.484633436,
            48.853166121
          ],
          [
            8.484638957,
            48.853145528
          ],
          [
            8.484644323,
            48.853124809
          ],
          [
            8.484650996,
            48.853104376
          ],
          [
            8.484659661,
            48.853085757
          ],
          [
            8.484668375,
            48.85306867
          ],
          [
            8.48467604,
            48.853052947
          ],
          [
            8.484682774,
            48.853038826
          ],
          [
            8.484688484,
            48.853026322
          ],
          [
            8.484693322,
            48.853015461
          ],
          [
            8.484698734,
            48.85300537
          ],
          [
            8.484705133,
            48.852995855
          ],
          [
            8.484712525,
            48.85298664
          ],
          [
            8.484720643,
            48.852977686
          ],
          [
            8.484729514,
            48.852968854
          ],
          [
            8.484739006,
            48.852960171
          ],
          [
            8.484748892,
            48.852951579
          ],
          [
            8.484758993,
            48.852943049
          ],
          [
            8.484769273,
            48.852934546
          ],
          [
            8.484779718,
            48.85292606
          ],
          [
            8.484790466,
            48.85291775
          ],
          [
            8.48480139,
            48.852909531
          ],
          [
            8.484812409,
            48.852901376
          ],
          [
            8.484823542,
            48.852893253
          ],
          [
            8.484834886,
            48.852885146
          ],
          [
            8.484846302,
            48.852877038
          ],
          [
            8.484857871,
            48.852869006
          ],
          [
            8.484869482,
            48.852861003
          ],
          [
            8.484881275,
            48.852853033
          ],
          [
            8.484893057,
            48.852845145
          ],
          [
            8.484904862,
            48.85283724
          ],
          [
            8.484916716,
            48.852829259
          ],
          [
            8.48492856,
            48.852821218
          ],
          [
            8.484940383,
            48.852813249
          ],
          [
            8.48495226,
            48.852805252
          ],
          [
            8.484964179,
            48.852797188
          ],
          [
            8.484976171,
            48.852789072
          ],
          [
            8.484988137,
            48.85278097
          ],
          [
            8.485000061,
            48.852772846
          ],
          [
            8.485011986,
            48.8527647
          ],
          [
            8.48502385,
            48.852756629
          ],
          [
            8.485035755,
            48.852748499
          ],
          [
            8.485047648,
            48.852740391
          ],
          [
            8.485059482,
            48.852732316
          ],
          [
            8.485071327,
            48.852724279
          ],
          [
            8.485083207,
            48.852716314
          ],
          [
            8.485095005,
            48.85270846
          ],
          [
            8.485106773,
            48.852700646
          ],
          [
            8.485118429,
            48.852692828
          ],
          [
            8.485130046,
            48.852685014
          ],
          [
            8.485141706,
            48.852677219
          ],
          [
            8.485153278,
            48.852669491
          ],
          [
            8.485164895,
            48.852661702
          ],
          [
            8.485176601,
            48.852653917
          ],
          [
            8.485188223,
            48.852646107
          ],
          [
            8.485199862,
            48.852638217
          ],
          [
            8.485211453,
            48.852630321
          ],
          [
            8.485222994,
            48.852622424
          ],
          [
            8.485234501,
            48.852614483
          ],
          [
            8.485246056,
            48.852606501
          ],
          [
            8.485257673,
            48.852598457
          ],
          [
            8.4852693,
            48.852590424
          ],
          [
            8.485281019,
            48.852582374
          ],
          [
            8.485292786,
            48.852574301
          ],
          [
            8.485304693,
            48.852566243
          ],
          [
            8.485316579,
            48.852558218
          ],
          [
            8.485328448,
            48.852550139
          ],
          [
            8.485340454,
            48.852542089
          ],
          [
            8.485352566,
            48.852534106
          ],
          [
            8.485364715,
            48.852526146
          ],
          [
            8.485376766,
            48.852518102
          ],
          [
            8.485388787,
            48.852510009
          ],
          [
            8.485400728,
            48.852501847
          ],
          [
            8.485412691,
            48.852493691
          ],
          [
            8.48542469,
            48.852485592
          ],
          [
            8.485436715,
            48.852477559
          ],
          [
            8.485448765,
            48.852469507
          ],
          [
            8.485460849,
            48.852461481
          ],
          [
            8.485472769,
            48.852453459
          ],
          [
            8.485484644,
            48.852445418
          ],
          [
            8.485496522,
            48.852437373
          ],
          [
            8.485508281,
            48.852429326
          ],
          [
            8.485519952,
            48.852421294
          ],
          [
            8.485531533,
            48.852413252
          ],
          [
            8.485543108,
            48.852405098
          ],
          [
            8.48555471,
            48.852396939
          ],
          [
            8.485566315,
            48.852388794
          ],
          [
            8.485577011,
            48.852381489
          ],
          [
            8.485586772,
            48.852374965
          ],
          [
            8.485596228,
            48.852368695
          ],
          [
            8.485605163,
            48.852362601
          ],
          [
            8.48561389,
            48.85235642
          ],
          [
            8.485622488,
            48.852350097
          ],
          [
            8.48563103,
            48.852343613
          ],
          [
            8.485639528,
            48.852337001
          ],
          [
            8.485648113,
            48.852330372
          ],
          [
            8.485656863,
            48.852323719
          ],
          [
            8.485665735,
            48.852317097
          ],
          [
            8.48567485,
            48.852310566
          ],
          [
            8.485684146,
            48.852304139
          ],
          [
            8.485693599,
            48.852297729
          ],
          [
            8.485703147,
            48.852291369
          ],
          [
            8.485712862,
            48.852285005
          ],
          [
            8.485722115,
            48.852279031
          ],
          [
            8.485730368,
            48.85227521
          ],
          [
            8.485737312,
            48.852274515
          ],
          [
            8.48574303,
            48.852276421
          ],
          [
            8.485748716,
            48.852280256
          ],
          [
            8.485754605,
            48.852284931
          ],
          [
            8.485760799,
            48.852289993
          ],
          [
            8.485767373,
            48.852295374
          ],
          [
            8.485774302,
            48.85230096
          ],
          [
            8.485781505,
            48.852306833
          ],
          [
            8.485788864,
            48.852313052
          ],
          [
            8.485796314,
            48.852319488
          ],
          [
            8.485803865,
            48.852326078
          ],
          [
            8.485811452,
            48.85233285
          ],
          [
            8.48581911,
            48.852339783
          ],
          [
            8.485826834,
            48.852346781
          ],
          [
            8.485834576,
            48.852353755
          ],
          [
            8.485842415,
            48.852360748
          ],
          [
            8.485850242,
            48.852367792
          ],
          [
            8.485857999,
            48.852374887
          ],
          [
            8.485865726,
            48.852381985
          ],
          [
            8.485873502,
            48.852389087
          ],
          [
            8.485881366,
            48.852396126
          ],
          [
            8.48588938,
            48.852403132
          ],
          [
            8.485897402,
            48.852410155
          ],
          [
            8.485905463,
            48.852417183
          ],
          [
            8.485913637,
            48.852424239
          ],
          [
            8.485920588,
            48.852430932
          ],
          [
            8.485924081,
            48.852437151
          ],
          [
            8.485923732,
            48.85244315
          ],
          [
            8.485919873,
            48.852449122
          ],
          [
            8.485913629,
            48.852455228
          ],
          [
            8.485905899,
            48.852461407
          ],
          [
            8.485897055,
            48.852467686
          ],
          [
            8.485887553,
            48.852474193
          ],
          [
            8.4858776,
            48.852480947
          ],
          [
            8.485867332,
            48.852487924
          ],
          [
            8.485856869,
            48.852495177
          ],
          [
            8.485846332,
            48.852502694
          ],
          [
            8.485835659,
            48.852510393
          ],
          [
            8.485824873,
            48.852518239
          ],
          [
            8.485814032,
            48.852526225
          ],
          [
            8.485803156,
            48.852534295
          ],
          [
            8.485792188,
            48.852542369
          ],
          [
            8.485781191,
            48.852550427
          ],
          [
            8.485770268,
            48.852558536
          ],
          [
            8.485759212,
            48.852566633
          ],
          [
            8.485748018,
            48.852574728
          ],
          [
            8.485736732,
            48.852582854
          ],
          [
            8.485725262,
            48.852591018
          ],
          [
            8.485713757,
            48.852599158
          ],
          [
            8.485702133,
            48.852607231
          ],
          [
            8.485690318,
            48.852615266
          ],
          [
            8.48567851,
            48.852623325
          ],
          [
            8.485666631,
            48.852631366
          ],
          [
            8.485654642,
            48.852639366
          ],
          [
            8.485642725,
            48.85264732
          ],
          [
            8.485630851,
            48.85265524
          ],
          [
            8.485618942,
            48.852663187
          ],
          [
            8.485607109,
            48.852671097
          ],
          [
            8.485595185,
            48.852678975
          ],
          [
            8.485583076,
            48.852686831
          ],
          [
            8.485570925,
            48.852694659
          ],
          [
            8.485558796,
            48.852702521
          ],
          [
            8.485546695,
            48.852710426
          ],
          [
            8.485534631,
            48.85271837
          ],
          [
            8.485522676,
            48.85272633
          ],
          [
            8.485510857,
            48.852734318
          ],
          [
            8.48549908,
            48.852742347
          ],
          [
            8.485487297,
            48.852750442
          ],
          [
            8.485475464,
            48.852758516
          ],
          [
            8.485463643,
            48.85276657
          ],
          [
            8.485451938,
            48.852774633
          ],
          [
            8.485440339,
            48.85278276
          ],
          [
            8.4854288,
            48.852790898
          ],
          [
            8.485417186,
            48.852798976
          ],
          [
            8.485405561,
            48.85280706
          ],
          [
            8.485393993,
            48.85281514
          ],
          [
            8.485382492,
            48.852823165
          ],
          [
            8.485371148,
            48.85283123
          ],
          [
            8.485359762,
            48.852839269
          ],
          [
            8.485348333,
            48.85284731
          ],
          [
            8.485336938,
            48.852855334
          ],
          [
            8.485325552,
            48.852863377
          ],
          [
            8.485314147,
            48.852871438
          ],
          [
            8.48530265,
            48.852879515
          ],
          [
            8.485291115,
            48.852887585
          ],
          [
            8.485279438,
            48.852895621
          ],
          [
            8.4852676,
            48.852903657
          ],
          [
            8.485255495,
            48.852911682
          ],
          [
            8.485243183,
            48.852919665
          ],
          [
            8.485230744,
            48.852927579
          ],
          [
            8.48521827,
            48.852935481
          ],
          [
            8.485205806,
            48.852943454
          ],
          [
            8.485193297,
            48.852951429
          ],
          [
            8.485180897,
            48.852959437
          ],
          [
            8.485168681,
            48.852967511
          ],
          [
            8.485156703,
            48.852975673
          ],
          [
            8.485144971,
            48.852983884
          ],
          [
            8.48513342,
            48.852992123
          ],
          [
            8.485122018,
            48.853000337
          ],
          [
            8.485110649,
            48.853008596
          ],
          [
            8.485099345,
            48.853016851
          ],
          [
            8.485088131,
            48.85302517
          ],
          [
            8.485076905,
            48.853033518
          ],
          [
            8.485065619,
            48.853041788
          ],
          [
            8.485054376,
            48.853050022
          ],
          [
            8.485043124,
            48.853058205
          ],
          [
            8.48503182,
            48.853066346
          ],
          [
            8.485020428,
            48.853074518
          ],
          [
            8.485008914,
            48.853082684
          ],
          [
            8.484997405,
            48.8530909
          ],
          [
            8.48498584,
            48.853099121
          ],
          [
            8.484974222,
            48.853107341
          ],
          [
            8.484962651,
            48.853115513
          ],
          [
            8.484951012,
            48.853123641
          ],
          [
            8.484939559,
            48.853131834
          ],
          [
            8.484929025,
            48.853140768
          ],
          [
            8.48491911,
            48.853150477
          ],
          [
            8.484909352,
            48.85316086
          ],
          [
            8.484899568,
            48.853172101
          ],
          [
            8.484889594,
            48.853184133
          ],
          [
            8.484879342,
            48.853197055
          ],
          [
            8.484868646,
            48.85321081
          ],
          [
            8.484857526,
            48.853225331
          ],
          [
            8.484846022,
            48.853240553
          ],
          [
            8.48483415,
            48.853256449
          ],
          [
            8.484821868,
            48.853272861
          ],
          [
            8.484808961,
            48.853289812
          ],
          [
            8.484795558,
            48.85330715
          ],
          [
            8.484781704,
            48.853324803
          ],
          [
            8.484767756,
            48.853342716
          ],
          [
            8.484753716,
            48.853360723
          ],
          [
            8.484739551,
            48.853378826
          ],
          [
            8.484725218,
            48.853396951
          ],
          [
            8.484710627,
            48.853415102
          ],
          [
            8.484695902,
            48.853433366
          ],
          [
            8.484681148,
            48.853451708
          ],
          [
            8.484666373,
            48.853470004
          ],
          [
            8.484651776,
            48.853488442
          ],
          [
            8.484637395,
            48.853507153
          ],
          [
            8.484623072,
            48.853525915
          ],
          [
            8.484608728,
            48.853544795
          ],
          [
            8.484594386,
            48.853563816
          ],
          [
            8.484580003,
            48.853582875
          ],
          [
            8.48456551,
            48.85360204
          ],
          [
            8.484550993,
            48.853621369
          ],
          [
            8.484536453,
            48.853640796
          ],
          [
            8.484521926,
            48.853660316
          ],
          [
            8.484507295,
            48.853679907
          ],
          [
            8.48449257,
            48.853699438
          ],
          [
            8.484477812,
            48.853718943
          ],
          [
            8.484463568,
            48.853737344
          ],
          [
            8.484451308,
            48.853754337
          ],
          [
            8.484441244,
            48.853769678
          ],
          [
            8.484432724,
            48.853783363
          ],
          [
            8.484425445,
            48.85379524
          ],
          [
            8.484418705,
            48.853804869
          ],
          [
            8.484412113,
            48.853812383
          ],
          [
            8.484406124,
            48.853818488
          ],
          [
            8.484400968,
            48.853823088
          ],
          [
            8.484397133,
            48.853826059
          ],
          [
            8.484394886,
            48.853827593
          ],
          [
            8.48439428,
            48.853827793
          ],
          [
            8.484395399,
            48.85382672
          ],
          [
            8.484398406,
            48.853824404
          ],
          [
            8.484403384,
            48.853820875
          ],
          [
            8.484410253,
            48.853816293
          ],
          [
            8.484418817,
            48.85381068
          ],
          [
            8.484428523,
            48.853804456
          ],
          [
            8.484438777,
            48.853797672
          ],
          [
            8.484449318,
            48.85379052
          ],
          [
            8.484460132,
            48.853783185
          ],
          [
            8.484471088,
            48.853775595
          ],
          [
            8.484482304,
            48.853767859
          ],
          [
            8.484493599,
            48.853760149
          ],
          [
            8.48450468,
            48.853752422
          ],
          [
            8.484515788,
            48.853744781
          ],
          [
            8.484526949,
            48.853737225
          ],
          [
            8.484538031,
            48.853729746
          ],
          [
            8.484548979,
            48.8537223
          ],
          [
            8.484559909,
            48.853714807
          ],
          [
            8.484570842,
            48.853707338
          ],
          [
            8.484581752,
            48.853699826
          ],
          [
            8.484592688,
            48.853692273
          ],
          [
            8.484603601,
            48.853684753
          ],
          [
            8.484614585,
            48.853677145
          ],
          [
            8.484625624,
            48.853669539
          ],
          [
            8.484636671,
            48.853661902
          ],
          [
            8.484647643,
            48.853654111
          ],
          [
            8.484658601,
            48.853646213
          ],
          [
            8.484669741,
            48.85363832
          ],
          [
            8.484680952,
            48.853630417
          ],
          [
            8.484692227,
            48.853622501
          ],
          [
            8.484703671,
            48.853614599
          ],
          [
            8.484715203,
            48.85360672
          ],
          [
            8.484726796,
            48.853598837
          ],
          [
            8.484738381,
            48.853591008
          ],
          [
            8.484749923,
            48.853583179
          ],
          [
            8.484761545,
            48.853575365
          ],
          [
            8.484773234,
            48.853567588
          ],
          [
            8.484784746,
            48.853559692
          ],
          [
            8.484796242,
            48.853551703
          ],
          [
            8.484807796,
            48.85354365
          ],
          [
            8.484819454,
            48.85353561
          ],
          [
            8.484831169,
            48.85352762
          ],
          [
            8.484842983,
            48.853519658
          ],
          [
            8.484854814,
            48.853511713
          ],
          [
            8.484866652,
            48.853503732
          ],
          [
            8.48487853,
            48.853495732
          ],
          [
            8.4848904,
            48.853487651
          ],
          [
            8.48490243,
            48.853479539
          ],
          [
            8.484914319,
            48.853471465
          ],
          [
            8.484926157,
            48.853463361
          ],
          [
            8.484937977,
            48.853455233
          ],
          [
            8.484949737,
            48.853447125
          ],
          [
            8.484961373,
            48.853438996
          ],
          [
            8.484972982,
            48.853430876
          ],
          [
            8.484984625,
            48.853422757
          ],
          [
            8.484996273,
            48.853414593
          ],
          [
            8.485007872,
            48.853406342
          ],
          [
            8.485019496,
            48.853398148
          ],
          [
            8.485031196,
            48.853389972
          ],
          [
            8.485042892,
            48.853381771
          ],
          [
            8.48505464,
            48.853373521
          ],
          [
            8.485066319,
            48.853365276
          ],
          [
            8.485077997,
            48.853356961
          ],
          [
            8.485089644,
            48.853348718
          ],
          [
            8.48510116,
            48.853340505
          ],
          [
            8.485112561,
            48.853332263
          ],
          [
            8.485123961,
            48.853324051
          ],
          [
            8.485135435,
            48.853315742
          ],
          [
            8.485146864,
            48.853307346
          ],
          [
            8.485158308,
            48.853298963
          ],
          [
            8.485169738,
            48.853290515
          ],
          [
            8.485181129,
            48.853282136
          ],
          [
            8.485192474,
            48.853273734
          ],
          [
            8.485203881,
            48.853265442
          ],
          [
            8.485215418,
            48.853257224
          ],
          [
            8.485226923,
            48.853248982
          ],
          [
            8.485238579,
            48.853240817
          ],
          [
            8.485250373,
            48.853232689
          ],
          [
            8.485262213,
            48.853224597
          ],
          [
            8.485274198,
            48.853216536
          ],
          [
            8.48528632,
            48.853208538
          ],
          [
            8.485298204,
            48.853200561
          ],
          [
            8.485309968,
            48.853192586
          ],
          [
            8.485321741,
            48.853184524
          ],
          [
            8.485333429,
            48.853176381
          ],
          [
            8.485345056,
            48.853168194
          ],
          [
            8.485356692,
            48.853159998
          ],
          [
            8.485368415,
            48.853151768
          ],
          [
            8.485380175,
            48.853143515
          ],
          [
            8.485392,
            48.853135337
          ],
          [
            8.485403842,
            48.853127237
          ],
          [
            8.485415722,
            48.853119161
          ],
          [
            8.485427604,
            48.853111076
          ],
          [
            8.485439453,
            48.853102953
          ],
          [
            8.485451319,
            48.853094861
          ],
          [
            8.485463186,
            48.853086754
          ],
          [
            8.485475021,
            48.85307862
          ],
          [
            8.485486805,
            48.853070498
          ],
          [
            8.485498482,
            48.85306238
          ],
          [
            8.485510042,
            48.853054232
          ],
          [
            8.485521639,
            48.853046003
          ],
          [
            8.485533222,
            48.853037772
          ],
          [
            8.485544815,
            48.853029564
          ],
          [
            8.485556478,
            48.853021395
          ],
          [
            8.485568225,
            48.853013174
          ],
          [
            8.485579922,
            48.853004945
          ],
          [
            8.485591545,
            48.85299673
          ],
          [
            8.48560305,
            48.852988585
          ],
          [
            8.485614452,
            48.852980421
          ],
          [
            8.485625839,
            48.85297222
          ],
          [
            8.485637208,
            48.852964032
          ],
          [
            8.48564872,
            48.85295591
          ],
          [
            8.485660236,
            48.852947822
          ],
          [
            8.485671635,
            48.852939691
          ],
          [
            8.485683047,
            48.852931575
          ],
          [
            8.485694395,
            48.852923448
          ],
          [
            8.485705693,
            48.852915282
          ],
          [
            8.485716981,
            48.852907112
          ],
          [
            8.485728205,
            48.85289888
          ],
          [
            8.485739484,
            48.852890568
          ],
          [
            8.485750786,
            48.852882201
          ],
          [
            8.485762015,
            48.852873762
          ],
          [
            8.485773368,
            48.852865377
          ],
          [
            8.485784779,
            48.852857015
          ],
          [
            8.485796188,
            48.852848635
          ],
          [
            8.485807588,
            48.85284027
          ],
          [
            8.485819036,
            48.852832052
          ],
          [
            8.485830559,
            48.85282386
          ],
          [
            8.485842239,
            48.852815736
          ],
          [
            8.485853888,
            48.852807644
          ],
          [
            8.485865525,
            48.852799566
          ],
          [
            8.48587715,
            48.852791534
          ],
          [
            8.485888775,
            48.852783485
          ],
          [
            8.485900426,
            48.85277539
          ],
          [
            8.485912053,
            48.852767298
          ],
          [
            8.485923665,
            48.852759188
          ],
          [
            8.485935359,
            48.85275112
          ],
          [
            8.485947052,
            48.852743137
          ],
          [
            8.485957487,
            48.852736182
          ],
          [
            8.485967286,
            48.852729742
          ],
          [
            8.48597689,
            48.852723421
          ],
          [
            8.485986235,
            48.852717204
          ],
          [
            8.485995578,
            48.852711014
          ],
          [
            8.486004937,
            48.852704703
          ],
          [
            8.486014142,
            48.852698327
          ],
          [
            8.486023392,
            48.852691871
          ],
          [
            8.4860327,
            48.852685384
          ],
          [
            8.486042129,
            48.852678955
          ],
          [
            8.486051475,
            48.852672528
          ],
          [
            8.486060771,
            48.852666093
          ],
          [
            8.48607002,
            48.852659648
          ],
          [
            8.486079407,
            48.852653264
          ],
          [
            8.486088945,
            48.852646943
          ],
          [
            8.486098599,
            48.852640604
          ],
          [
            8.486107427,
            48.852635065
          ],
          [
            8.486114991,
            48.852632008
          ],
          [
            8.48612071,
            48.85263179
          ],
          [
            8.486125315,
            48.85263388
          ],
          [
            8.486130167,
            48.852637656
          ],
          [
            8.486135554,
            48.85264215
          ],
          [
            8.486141676,
            48.85264718
          ],
          [
            8.486148385,
            48.852652681
          ],
          [
            8.486155414,
            48.852658514
          ],
          [
            8.486162737,
            48.852664621
          ],
          [
            8.486170328,
            48.852670991
          ],
          [
            8.486178042,
            48.852677598
          ],
          [
            8.486185909,
            48.852684446
          ],
          [
            8.486194005,
            48.852691517
          ],
          [
            8.486202216,
            48.852698663
          ],
          [
            8.486210398,
            48.852705874
          ],
          [
            8.486218515,
            48.852713071
          ],
          [
            8.486226607,
            48.852720258
          ],
          [
            8.486234799,
            48.852727428
          ],
          [
            8.48624305,
            48.852734525
          ],
          [
            8.486251106,
            48.852741686
          ],
          [
            8.486259049,
            48.85274886
          ],
          [
            8.486266833,
            48.852756056
          ],
          [
            8.486274655,
            48.85276324
          ],
          [
            8.486282569,
            48.852770357
          ],
          [
            8.486290553,
            48.852777452
          ],
          [
            8.486298637,
            48.852784558
          ],
          [
            8.486304969,
            48.852791132
          ],
          [
            8.486307376,
            48.852797269
          ],
          [
            8.486305604,
            48.852803054
          ],
          [
            8.486300533,
            48.852808894
          ],
          [
            8.486293479,
            48.852814863
          ],
          [
            8.486285416,
            48.852820927
          ],
          [
            8.486276641,
            48.85282717
          ],
          [
            8.486267462,
            48.852833704
          ],
          [
            8.486257972,
            48.85284058
          ],
          [
            8.486248158,
            48.852847712
          ],
          [
            8.486238026,
            48.852855086
          ],
          [
            8.486227625,
            48.852862679
          ],
          [
            8.486216882,
            48.852870404
          ],
          [
            8.486205837,
            48.852878169
          ],
          [
            8.486194706,
            48.852885975
          ],
          [
            8.486183516,
            48.852893831
          ],
          [
            8.486172257,
            48.852901658
          ],
          [
            8.486160964,
            48.8529095
          ],
          [
            8.48614957,
            48.852917366
          ],
          [
            8.486138133,
            48.852925264
          ],
          [
            8.486126578,
            48.852933199
          ],
          [
            8.486114904,
            48.852941207
          ],
          [
            8.486103087,
            48.852949274
          ],
          [
            8.486091235,
            48.852957394
          ],
          [
            8.486079404,
            48.852965479
          ],
          [
            8.48606753,
            48.852973575
          ],
          [
            8.486055619,
            48.852981658
          ],
          [
            8.486043728,
            48.852989733
          ],
          [
            8.486031911,
            48.852997878
          ],
          [
            8.486020104,
            48.853006125
          ],
          [
            8.486008216,
            48.853014405
          ],
          [
            8.485996397,
            48.853022618
          ],
          [
            8.485984681,
            48.853030767
          ],
          [
            8.485972962,
            48.853038963
          ],
          [
            8.485961172,
            48.853047106
          ],
          [
            8.485949489,
            48.853055262
          ],
          [
            8.485937769,
            48.853063342
          ],
          [
            8.485925938,
            48.85307131
          ],
          [
            8.48591419,
            48.853079306
          ],
          [
            8.485902471,
            48.853087412
          ],
          [
            8.485890806,
            48.853095537
          ],
          [
            8.485879157,
            48.85310367
          ],
          [
            8.485867556,
            48.853111844
          ],
          [
            8.485855952,
            48.853119975
          ],
          [
            8.48584427,
            48.853128057
          ],
          [
            8.485832523,
            48.853136131
          ],
          [
            8.48582068,
            48.85314412
          ],
          [
            8.485808738,
            48.853152011
          ],
          [
            8.485796802,
            48.853159871
          ],
          [
            8.485784835,
            48.853167724
          ],
          [
            8.485772781,
            48.853175591
          ],
          [
            8.485760773,
            48.85318351
          ],
          [
            8.485748886,
            48.85319152
          ],
          [
            8.485737108,
            48.853199561
          ],
          [
            8.485725407,
            48.853207567
          ],
          [
            8.485713722,
            48.853215606
          ],
          [
            8.485702026,
            48.853223655
          ],
          [
            8.485690374,
            48.853231687
          ],
          [
            8.485678652,
            48.853239681
          ],
          [
            8.485666868,
            48.853247642
          ],
          [
            8.485655041,
            48.853255564
          ],
          [
            8.485643211,
            48.85326348
          ],
          [
            8.485631373,
            48.853271359
          ],
          [
            8.485619513,
            48.853279208
          ],
          [
            8.485607675,
            48.853287084
          ],
          [
            8.485595878,
            48.853294963
          ],
          [
            8.485584073,
            48.853302888
          ],
          [
            8.485572277,
            48.853310893
          ],
          [
            8.485560531,
            48.853318985
          ],
          [
            8.485548891,
            48.853327123
          ],
          [
            8.485537419,
            48.853335284
          ],
          [
            8.485526026,
            48.853343394
          ],
          [
            8.485514654,
            48.853351486
          ],
          [
            8.485503338,
            48.853359548
          ],
          [
            8.48549203,
            48.853367572
          ],
          [
            8.485480677,
            48.853375522
          ],
          [
            8.485469315,
            48.853383459
          ],
          [
            8.485458052,
            48.853391328
          ],
          [
            8.485446855,
            48.853399132
          ],
          [
            8.48543572,
            48.853407
          ],
          [
            8.485424496,
            48.853414912
          ],
          [
            8.485413202,
            48.853422882
          ],
          [
            8.485401922,
            48.853430907
          ],
          [
            8.485390608,
            48.853439003
          ],
          [
            8.485379252,
            48.853447156
          ],
          [
            8.485367858,
            48.85345535
          ],
          [
            8.485356481,
            48.853463617
          ],
          [
            8.48534501,
            48.853471908
          ],
          [
            8.48533324,
            48.853480154
          ],
          [
            8.485321276,
            48.853488278
          ],
          [
            8.485309168,
            48.853496298
          ],
          [
            8.485296916,
            48.853504238
          ],
          [
            8.485284481,
            48.853512117
          ],
          [
            8.485271928,
            48.853519909
          ],
          [
            8.485259316,
            48.853527688
          ],
          [
            8.485246641,
            48.853535468
          ],
          [
            8.485234019,
            48.853543274
          ],
          [
            8.48522157,
            48.853551093
          ],
          [
            8.485209192,
            48.853558909
          ],
          [
            8.48519685,
            48.853566735
          ],
          [
            8.485184627,
            48.853574574
          ],
          [
            8.485172511,
            48.853582431
          ],
          [
            8.48516047,
            48.853590333
          ],
          [
            8.485148617,
            48.853598282
          ],
          [
            8.485136713,
            48.853606271
          ],
          [
            8.485124786,
            48.85361425
          ],
          [
            8.485112885,
            48.853622259
          ],
          [
            8.485100949,
            48.853630274
          ],
          [
            8.48508898,
            48.853638254
          ],
          [
            8.485077071,
            48.853646211
          ],
          [
            8.485065138,
            48.853654199
          ],
          [
            8.48505319,
            48.853662206
          ],
          [
            8.48504133,
            48.853670232
          ],
          [
            8.485029513,
            48.853678286
          ],
          [
            8.485017824,
            48.853686376
          ],
          [
            8.485006332,
            48.853694501
          ],
          [
            8.484994947,
            48.853702626
          ],
          [
            8.484983622,
            48.853710749
          ],
          [
            8.484972266,
            48.853718869
          ],
          [
            8.484960833,
            48.853726969
          ],
          [
            8.484949365,
            48.853735086
          ],
          [
            8.484937976,
            48.853743232
          ],
          [
            8.48492659,
            48.853751334
          ],
          [
            8.484915257,
            48.85375949
          ],
          [
            8.484904063,
            48.853767717
          ],
          [
            8.484892964,
            48.853775983
          ],
          [
            8.484881881,
            48.853784222
          ],
          [
            8.48487082,
            48.853792444
          ],
          [
            8.484859786,
            48.853800688
          ],
          [
            8.484848729,
            48.853808875
          ],
          [
            8.484837571,
            48.853817038
          ],
          [
            8.484826327,
            48.853825177
          ],
          [
            8.484814962,
            48.853833301
          ],
          [
            8.484804493,
            48.853840726
          ],
          [
            8.484795045,
            48.853847361
          ],
          [
            8.484785743,
            48.85385388
          ],
          [
            8.484776696,
            48.853860246
          ],
          [
            8.484767829,
            48.853866517
          ],
          [
            8.484758937,
            48.853872699
          ],
          [
            8.484750043,
            48.853878936
          ],
          [
            8.484741144,
            48.853885272
          ],
          [
            8.484732239,
            48.853891668
          ],
          [
            8.484723339,
            48.853898162
          ],
          [
            8.48471443,
            48.853904713
          ],
          [
            8.484705581,
            48.853911271
          ],
          [
            8.484696748,
            48.853917795
          ],
          [
            8.484687988,
            48.853924313
          ],
          [
            8.484679195,
            48.853930843
          ],
          [
            8.484670305,
            48.853937402
          ],
          [
            8.484661859,
            48.853943557
          ],
          [
            8.484655742,
            48.853948858
          ],
          [
            8.484653671,
            48.853953734
          ],
          [
            8.484655873,
            48.853958293
          ],
          [
            8.484661539,
            48.853963022
          ],
          [
            8.484668943,
            48.853967964
          ],
          [
            8.484677736,
            48.853973037
          ],
          [
            8.484687425,
            48.853978241
          ],
          [
            8.48469739,
            48.853983656
          ],
          [
            8.484707612,
            48.853989167
          ],
          [
            8.484717885,
            48.853994792
          ],
          [
            8.484728095,
            48.854000407
          ],
          [
            8.484738261,
            48.854006002
          ],
          [
            8.484748454,
            48.854011622
          ],
          [
            8.484758873,
            48.85401717
          ],
          [
            8.484769344,
            48.854022576
          ],
          [
            8.484779923,
            48.854027969
          ],
          [
            8.484790589,
            48.854033406
          ],
          [
            8.484801344,
            48.854038831
          ],
          [
            8.484812118,
            48.854044313
          ],
          [
            8.484822781,
            48.85404992
          ],
          [
            8.484833527,
            48.854055529
          ],
          [
            8.484844276,
            48.854061076
          ],
          [
            8.484855,
            48.854066472
          ],
          [
            8.484865608,
            48.854071839
          ],
          [
            8.484876155,
            48.854077237
          ],
          [
            8.484886116,
            48.854082241
          ],
          [
            8.48489495,
            48.854085259
          ],
          [
            8.484903314,
            48.854085294
          ],
          [
            8.484911594,
            48.854082651
          ],
          [
            8.484920466,
            48.854078292
          ],
          [
            8.484930186,
            48.854072975
          ],
          [
            8.484940637,
            48.854067067
          ],
          [
            8.484951619,
            48.854060809
          ],
          [
            8.484962857,
            48.854054183
          ],
          [
            8.484974227,
            48.854047263
          ],
          [
            8.484985709,
            48.854040303
          ],
          [
            8.484997171,
            48.854033233
          ],
          [
            8.485008467,
            48.854026039
          ],
          [
            8.485019551,
            48.854018764
          ],
          [
            8.485030336,
            48.854011365
          ],
          [
            8.485040945,
            48.854003819
          ],
          [
            8.48505154,
            48.853996251
          ],
          [
            8.485062178,
            48.853988558
          ],
          [
            8.485072874,
            48.853980824
          ],
          [
            8.485083752,
            48.853973049
          ],
          [
            8.485094724,
            48.853965208
          ],
          [
            8.485105939,
            48.85395747
          ],
          [
            8.485117322,
            48.853949844
          ],
          [
            8.485128731,
            48.853942132
          ],
          [
            8.485140279,
            48.853934392
          ],
          [
            8.485151882,
            48.85392667
          ],
          [
            8.485163638,
            48.853919018
          ],
          [
            8.485175382,
            48.853911375
          ],
          [
            8.485187019,
            48.853903771
          ],
          [
            8.48519854,
            48.853896042
          ],
          [
            8.485210066,
            48.853888246
          ],
          [
            8.485221473,
            48.85388044
          ],
          [
            8.485232754,
            48.853872526
          ],
          [
            8.485244175,
            48.853864638
          ],
          [
            8.485255676,
            48.853856788
          ],
          [
            8.485267407,
            48.853848987
          ],
          [
            8.485279199,
            48.853841222
          ],
          [
            8.485291027,
            48.853833489
          ],
          [
            8.485302956,
            48.853825783
          ],
          [
            8.485315086,
            48.853818057
          ],
          [
            8.485327208,
            48.853810299
          ],
          [
            8.485339305,
            48.853802445
          ],
          [
            8.485351399,
            48.853794626
          ],
          [
            8.485363535,
            48.853786785
          ],
          [
            8.485375613,
            48.853778846
          ],
          [
            8.48538762,
            48.85377081
          ],
          [
            8.485399602,
            48.853762785
          ],
          [
            8.485411435,
            48.853754769
          ],
          [
            8.485423184,
            48.853746783
          ],
          [
            8.485435013,
            48.853738801
          ],
          [
            8.485446951,
            48.853730867
          ],
          [
            8.485458763,
            48.853722798
          ],
          [
            8.485470501,
            48.853714714
          ],
          [
            8.485482145,
            48.853706687
          ],
          [
            8.485493865,
            48.853698683
          ],
          [
            8.485505625,
            48.853690695
          ],
          [
            8.485517374,
            48.853682778
          ],
          [
            8.485529105,
            48.853674834
          ],
          [
            8.485540813,
            48.853666946
          ],
          [
            8.485552398,
            48.853659002
          ],
          [
            8.485563817,
            48.853651011
          ],
          [
            8.485575232,
            48.853642952
          ],
          [
            8.485586644,
            48.853634798
          ],
          [
            8.48559828,
            48.853626646
          ],
          [
            8.485610108,
            48.853618551
          ],
          [
            8.485621828,
            48.853610396
          ],
          [
            8.485633569,
            48.853602233
          ],
          [
            8.485645392,
            48.85359408
          ],
          [
            8.485657346,
            48.853585932
          ],
          [
            8.485669063,
            48.853577754
          ],
          [
            8.485680635,
            48.853569546
          ],
          [
            8.485692308,
            48.853561577
          ],
          [
            8.485704033,
            48.853553628
          ],
          [
            8.485715824,
            48.853545717
          ],
          [
            8.485727339,
            48.853537753
          ],
          [
            8.485738779,
            48.85352972
          ],
          [
            8.485750134,
            48.853521453
          ],
          [
            8.485761406,
            48.853513064
          ],
          [
            8.485772734,
            48.853504728
          ],
          [
            8.485784142,
            48.853496401
          ],
          [
            8.485795526,
            48.85348814
          ],
          [
            8.48580716,
            48.853480014
          ],
          [
            8.485818807,
            48.853471919
          ],
          [
            8.485830662,
            48.853463953
          ],
          [
            8.485842858,
            48.853456021
          ],
          [
            8.485855155,
            48.853448143
          ],
          [
            8.485867512,
            48.853440348
          ],
          [
            8.485879843,
            48.853432507
          ],
          [
            8.485892055,
            48.8534247
          ],
          [
            8.485904087,
            48.85341685
          ],
          [
            8.485916044,
            48.853408943
          ],
          [
            8.485927917,
            48.853400979
          ],
          [
            8.485939574,
            48.853392848
          ],
          [
            8.485950914,
            48.853384579
          ],
          [
            8.485961872,
            48.853376088
          ],
          [
            8.485972945,
            48.85336767
          ],
          [
            8.485984187,
            48.85335948
          ],
          [
            8.485995406,
            48.853351245
          ],
          [
            8.486006738,
            48.853342978
          ],
          [
            8.486017984,
            48.853334617
          ],
          [
            8.486029284,
            48.853326283
          ],
          [
            8.486040564,
            48.853317924
          ],
          [
            8.486051991,
            48.853309657
          ],
          [
            8.486063256,
            48.853301411
          ],
          [
            8.486074485,
            48.853293135
          ],
          [
            8.486085819,
            48.853284887
          ],
          [
            8.486097311,
            48.853276719
          ],
          [
            8.486108507,
            48.853268404
          ],
          [
            8.486119889,
            48.853260156
          ],
          [
            8.486131186,
            48.853252082
          ],
          [
            8.486142442,
            48.853243873
          ],
          [
            8.486153517,
            48.853235535
          ],
          [
            8.486164484,
            48.853227124
          ],
          [
            8.486175418,
            48.853218762
          ],
          [
            8.486186309,
            48.853210376
          ],
          [
            8.486197186,
            48.853201906
          ],
          [
            8.486208028,
            48.853193461
          ],
          [
            8.486218854,
            48.853185036
          ],
          [
            8.486229696,
            48.853176561
          ],
          [
            8.486240581,
            48.853168141
          ],
          [
            8.486251591,
            48.853159807
          ],
          [
            8.486262866,
            48.853151579
          ],
          [
            8.486274343,
            48.853143468
          ],
          [
            8.486285974,
            48.853135393
          ],
          [
            8.486297675,
            48.853127315
          ],
          [
            8.486309482,
            48.853119417
          ],
          [
            8.486321384,
            48.853111621
          ],
          [
            8.486333333,
            48.853103879
          ],
          [
            8.486344992,
            48.85309588
          ],
          [
            8.486356665,
            48.85308779
          ],
          [
            8.486368463,
            48.85307966
          ],
          [
            8.486380352,
            48.853071467
          ],
          [
            8.48639223,
            48.853063248
          ],
          [
            8.486403933,
            48.853054946
          ],
          [
            8.486415706,
            48.853046726
          ],
          [
            8.486427473,
            48.853038606
          ],
          [
            8.486439159,
            48.853030546
          ],
          [
            8.486450595,
            48.85302239
          ],
          [
            8.486462128,
            48.853014297
          ],
          [
            8.486473745,
            48.853006251
          ],
          [
            8.48648489,
            48.852998998
          ],
          [
            8.486494281,
            48.852992578
          ],
          [
            8.486501474,
            48.85298693
          ],
          [
            8.486506027,
            48.852982771
          ],
          [
            8.486508056,
            48.852980463
          ],
          [
            8.486507619,
            48.852979788
          ],
          [
            8.486505042,
            48.852980743
          ],
          [
            8.486500897,
            48.852982911
          ],
          [
            8.486494855,
            48.85298586
          ],
          [
            8.486486799,
            48.852989318
          ],
          [
            8.486476521,
            48.852993241
          ],
          [
            8.48646391,
            48.852997712
          ],
          [
            8.486449026,
            48.853002827
          ],
          [
            8.486432069,
            48.853008416
          ],
          [
            8.486413428,
            48.853014353
          ],
          [
            8.486393311,
            48.85302059
          ],
          [
            8.486372182,
            48.85302708
          ],
          [
            8.486350258,
            48.853033782
          ],
          [
            8.486327696,
            48.853040622
          ],
          [
            8.486305019,
            48.853047397
          ],
          [
            8.486282336,
            48.853054199
          ],
          [
            8.486259791,
            48.853061074
          ],
          [
            8.486237298,
            48.853068003
          ],
          [
            8.486214963,
            48.853075034
          ],
          [
            8.486192716,
            48.853082099
          ],
          [
            8.486170711,
            48.853089242
          ],
          [
            8.486148881,
            48.853096457
          ],
          [
            8.486127108,
            48.853103573
          ],
          [
            8.486105511,
            48.853110598
          ],
          [
            8.486083981,
            48.853117608
          ],
          [
            8.486062639,
            48.853124638
          ],
          [
            8.486041408,
            48.853131656
          ],
          [
            8.486020237,
            48.853138625
          ],
          [
            8.485999189,
            48.853145615
          ],
          [
            8.485978087,
            48.853152553
          ],
          [
            8.485956873,
            48.853159491
          ],
          [
            8.485935748,
            48.853166453
          ],
          [
            8.485914857,
            48.853173584
          ],
          [
            8.485893748,
            48.853180626
          ],
          [
            8.485872586,
            48.853187446
          ],
          [
            8.485851413,
            48.853194404
          ],
          [
            8.485829855,
            48.853201364
          ],
          [
            8.485808194,
            48.853208404
          ],
          [
            8.485786503,
            48.853215508
          ],
          [
            8.485764825,
            48.853222577
          ],
          [
            8.485743019,
            48.853229603
          ],
          [
            8.485720998,
            48.85323636
          ],
          [
            8.485698971,
            48.853243132
          ],
          [
            8.485677032,
            48.853249954
          ],
          [
            8.485655266,
            48.853256976
          ],
          [
            8.485633895,
            48.853264266
          ],
          [
            8.485612173,
            48.85327145
          ],
          [
            8.485590327,
            48.853278541
          ],
          [
            8.485568501,
            48.853285824
          ],
          [
            8.485546614,
            48.853293278
          ],
          [
            8.485524792,
            48.853300808
          ],
          [
            8.485502652,
            48.853308176
          ],
          [
            8.485480468,
            48.85331527
          ],
          [
            8.485458547,
            48.85332237
          ],
          [
            8.485436831,
            48.853329514
          ],
          [
            8.485415176,
            48.853336596
          ],
          [
            8.485393537,
            48.853343699
          ],
          [
            8.485371852,
            48.853350661
          ],
          [
            8.485349774,
            48.853357277
          ],
          [
            8.48532709,
            48.853363984
          ],
          [
            8.485303679,
            48.85337101
          ],
          [
            8.485279371,
            48.853377916
          ],
          [
            8.485254113,
            48.853384698
          ],
          [
            8.485228107,
            48.853391336
          ],
          [
            8.485201684,
            48.853398144
          ],
          [
            8.48517469,
            48.853404979
          ],
          [
            8.485147101,
            48.853411843
          ],
          [
            8.485119015,
            48.853418989
          ],
          [
            8.485090364,
            48.853426502
          ],
          [
            8.485061301,
            48.853434329
          ],
          [
            8.485031816,
            48.853442154
          ],
          [
            8.48500204,
            48.853449928
          ],
          [
            8.48497207,
            48.853457615
          ],
          [
            8.484941943,
            48.853465076
          ],
          [
            8.484911687,
            48.853472757
          ],
          [
            8.48488144,
            48.853480402
          ],
          [
            8.484851405,
            48.853488041
          ],
          [
            8.484821222,
            48.853495634
          ],
          [
            8.484790943,
            48.853503151
          ],
          [
            8.484760988,
            48.853510863
          ],
          [
            8.484731162,
            48.85351849
          ],
          [
            8.484701035,
            48.853525922
          ],
          [
            8.484671998,
            48.853533213
          ],
          [
            8.484646,
            48.853539116
          ],
          [
            8.484624819,
            48.853543322
          ],
          [
            8.484607728,
            48.853547244
          ],
          [
            8.484592299,
            48.853551385
          ],
          [
            8.484579673,
            48.853555116
          ],
          [
            8.48457097,
            48.853557999
          ],
          [
            8.484565079,
            48.853560052
          ],
          [
            8.484561443,
            48.853561211
          ],
          [
            8.484559569,
            48.853561498
          ],
          [
            8.484558745,
            48.853561439
          ],
          [
            8.484558348,
            48.853561432
          ],
          [
            8.484557974,
            48.853561597
          ],
          [
            8.484557577,
            48.853561785
          ],
          [
            8.484557118,
            48.853562126
          ],
          [
            8.484556811,
            48.85356267
          ],
          [
            8.484556611,
            48.853563343
          ],
          [
            8.484556377,
            48.853564256
          ],
          [
            8.484555834,
            48.853565114
          ],
          [
            8.484555385,
            48.8535658
          ],
          [
            8.484555061,
            48.853566247
          ],
          [
            8.484554618,
            48.853566309
          ],
          [
            8.484554196,
            48.853565988
          ],
          [
            8.484553711,
            48.853565374
          ],
          [
            8.484553355,
            48.853564746
          ],
          [
            8.484553219,
            48.853564214
          ],
          [
            8.484553301,
            48.853563865
          ],
          [
            8.48455316,
            48.853563834
          ],
          [
            8.484552534,
            48.853564104
          ],
          [
            8.484551685,
            48.853564477
          ],
          [
            8.484550979,
            48.853564776
          ],
          [
            8.484550282,
            48.853564899
          ],
          [
            8.48454979,
            48.853564942
          ],
          [
            8.484549658,
            48.853564862
          ],
          [
            8.48454954,
            48.853564823
          ],
          [
            8.484549605,
            48.853564826
          ],
          [
            8.484550536,
            48.853565642
          ],
          [
            8.484551554,
            48.853566448
          ],
          [
            8.484551709,
            48.853567106
          ],
          [
            8.484551963,
            48.853567802
          ],
          [
            8.484552483,
            48.853567985
          ],
          [
            8.484551946,
            48.853567815
          ],
          [
            8.484549972,
            48.853567568
          ],
          [
            8.484546177,
            48.853567302
          ],
          [
            8.484542365,
            48.85356712
          ],
          [
            8.484540079,
            48.853566548
          ],
          [
            8.484539073,
            48.853565755
          ],
          [
            8.484538383,
            48.853565115
          ],
          [
            8.484537743,
            48.853564866
          ],
          [
            8.484537261,
            48.853564696
          ],
          [
            8.484536821,
            48.853564985
          ],
          [
            8.484536259,
            48.853565618
          ],
          [
            8.484535688,
            48.853566318
          ],
          [
            8.484535491,
            48.853566817
          ],
          [
            8.484535303,
            48.853566799
          ],
          [
            8.484535309,
            48.853566821
          ],
          [
            8.484535292,
            48.853566828
          ],
          [
            8.484535279,
            48.853566833
          ],
          [
            8.484535289,
            48.853566829
          ],
          [
            8.484535298,
            48.853566825
          ],
          [
            8.484535311,
            48.853566824
          ],
          [
            8.484535327,
            48.853566824
          ],
          [
            8.484535344,
            48.853566821
          ],
          [
            8.484535362,
            48.853566817
          ],
          [
            8.484535378,
            48.853566812
          ],
          [
            8.48453539,
            48.853566806
          ],
          [
            8.484535404,
            48.853566805
          ],
          [
            8.484535415,
            48.853566804
          ],
          [
            8.48453542,
            48.853566806
          ],
          [
            8.484535431,
            48.853566802
          ],
          [
            8.484535433,
            48.853566795
          ],
          [
            8.484535436,
            48.853566792
          ],
          [
            8.484535434,
            48.853566785
          ],
          [
            8.484535436,
            48.853566776
          ],
          [
            8.484535439,
            48.853566769
          ],
          [
            8.484535438,
            48.853566761
          ],
          [
            8.484535431,
            48.853566754
          ],
          [
            8.484535422,
            48.853566751
          ],
          [
            8.484535408,
            48.853566752
          ],
          [
            8.484535387,
            48.853566757
          ],
          [
            8.48453536,
            48.853566767
          ],
          [
            8.484535323,
            48.853566779
          ]
        ]
      },
      "properties": {
        "name": "Flight trajectory",
        "description": "Flugbahn der HySpex Mission",
        "source_format": "swir_vnir"
      }
    }
  ]
}