{
  "type": "FeatureCollection",
  "features": [
    {
      "type": "Feature",
      "geometry": {
        "type": "LineString",
        "coordinates": [
          [
            8.484496487,
            48.853578986
          ],
          [
            8.48449985,
            48.853573468
          ],
          [
            8.484506027,
            48.85356916
          ],
          [
            8.48451419,
            48.853566333
          ],
          [
            8.484525095,
            48.853564178
          ],
          [
            8.484539368,
            48.853561894
          ],
          [
            8.484555783,
            48.853559667
          ],
          [
            8.484574054,
            48.853557302
          ],
          [
            8.484594108,
            48.853554688
          ],
          [
            8.484615694,
            48.85355194
          ],
          [
            8.484638447,
            48.853549085
          ],
          [
            8.484662357,
            48.853546207
          ],
          [
            8.484687148,
            48.85354322
          ],
          [
            8.484712562,
            48.853540125
          ],
          [
            8.484738461,
            48.853536863
          ],
          [
            8.4847647,
            48.853533366
          ],
          [
            8.484791382,
            48.853529651
          ],
          [
            8.484818521,
            48.853525763
          ],
          [
            8.48484617,
            48.853521713
          ],
          [
            8.484874088,
            48.853517365
          ],
          [
            8.484902445,
            48.853512761
          ],
          [
            8.484931198,
            48.853507855
          ],
          [
            8.484960426,
            48.853502819
          ],
          [
            8.484990183,
            48.85349761
          ],
          [
            8.48502033,
            48.853492226
          ],
          [
            8.485050622,
            48.853486891
          ],
          [
            8.485081285,
            48.853481506
          ],
          [
            8.485112219,
            48.853476143
          ],
          [
            8.485143103,
            48.853470988
          ],
          [
            8.48517211,
            48.853466662
          ],
          [
            8.485198705,
            48.853463091
          ],
          [
            8.485222512,
            48.853460387
          ],
          [
            8.485243159,
            48.853458398
          ],
          [
            8.485260643,
            48.853457017
          ],
          [
            8.485274725,
            48.853456027
          ],
          [
            8.485285094,
            48.853455328
          ],
          [
            8.485291712,
            48.85345485
          ],
          [
            8.485294723,
            48.853454546
          ],
          [
            8.485294527,
            48.853454204
          ],
          [
            8.485291776,
            48.853453921
          ],
          [
            8.485286745,
            48.853453752
          ],
          [
            8.485279675,
            48.853453784
          ],
          [
            8.485270882,
            48.853454158
          ],
          [
            8.485260311,
            48.853455026
          ],
          [
            8.485247792,
            48.853456587
          ],
          [
            8.485233182,
            48.853458857
          ],
          [
            8.485216168,
            48.853461724
          ],
          [
            8.48519706,
            48.853465161
          ],
          [
            8.485176065,
            48.853468888
          ],
          [
            8.485153315,
            48.853472803
          ],
          [
            8.485129042,
            48.85347679
          ],
          [
            8.485103591,
            48.853480843
          ],
          [
            8.485077092,
            48.853484797
          ],
          [
            8.485049899,
            48.853488753
          ],
          [
            8.485022122,
            48.85349266
          ],
          [
            8.48499394,
            48.85349674
          ],
          [
            8.484965516,
            48.853501008
          ],
          [
            8.484936877,
            48.853505379
          ],
          [
            8.484907834,
            48.853509883
          ],
          [
            8.484878702,
            48.853514335
          ],
          [
            8.484849373,
            48.853518981
          ],
          [
            8.48482011,
            48.853523906
          ],
          [
            8.484790895,
            48.853529107
          ],
          [
            8.484761387,
            48.853534486
          ],
          [
            8.484731729,
            48.853539896
          ],
          [
            8.484701954,
            48.853545436
          ],
          [
            8.484672317,
            48.853551033
          ],
          [
            8.484644825,
            48.853556278
          ],
          [
            8.484620417,
            48.853561277
          ],
          [
            8.484598955,
            48.853565561
          ],
          [
            8.484580014,
            48.85356887
          ],
          [
            8.484563594,
            48.85357119
          ],
          [
            8.484549895,
            48.853573085
          ],
          [
            8.484539342,
            48.853574692
          ],
          [
            8.484532089,
            48.853575981
          ],
          [
            8.484528126,
            48.853576802
          ],
          [
            8.484526886,
            48.853577185
          ],
          [
            8.484527402,
            48.853576981
          ],
          [
            8.484528827,
            48.853576005
          ],
          [
            8.484530638,
            48.853574153
          ],
          [
            8.484532391,
            48.853571266
          ],
          [
            8.484533785,
            48.853567103
          ],
          [
            8.484535096,
            48.853561716
          ],
          [
            8.484536523,
            48.853554865
          ],
          [
            8.484538102,
            48.853546269
          ],
          [
            8.484540143,
            48.853535816
          ],
          [
            8.48454279,
            48.853523602
          ],
          [
            8.484546061,
            48.853510029
          ],
          [
            8.484549793,
            48.853495255
          ],
          [
            8.484554147,
            48.853479521
          ],
          [
            8.484558906,
            48.853462896
          ],
          [
            8.48456409,
            48.853445499
          ],
          [
            8.484569687,
            48.853427538
          ],
          [
            8.484575692,
            48.853409186
          ],
          [
            8.484581989,
            48.853390529
          ],
          [
            8.48458824,
            48.853371608
          ],
          [
            8.484594378,
            48.853352507
          ],
          [
            8.484600611,
            48.853333168
          ],
          [
            8.484606693,
            48.853313627
          ],
          [
            8.48461267,
            48.853293891
          ],
          [
            8.484618571,
            48.853273957
          ],
          [
            8.484624455,
            48.853253904
          ],
          [
            8.484630378,
            48.853233538
          ],
          [
            8.484636295,
            48.853213097
          ],
          [
            8.484642079,
            48.85319246
          ],
          [
            8.484648055,
            48.853171575
          ],
          [
            8.484654306,
            48.853150584
          ],
          [
            8.484662881,
            48.853130278
          ],
          [
            8.484672424,
            48.853112062
          ],
          [
            8.484681205,
            48.853095282
          ],
          [
            8.484688913,
            48.853080134
          ],
          [
            8.484695414,
            48.853066647
          ],
          [
            8.484700928,
            48.853054724
          ],
          [
            8.484706451,
            48.853043939
          ],
          [
            8.484712954,
            48.853033688
          ],
          [
            8.484720194,
            48.85302391
          ],
          [
            8.484728277,
            48.853014535
          ],
          [
            8.484737141,
            48.853005453
          ],
          [
            8.48474674,
            48.852996674
          ],
          [
            8.484756651,
            48.852987937
          ],
          [
            8.484766555,
            48.852979264
          ],
          [
            8.484776356,
            48.852970565
          ],
          [
            8.484786059,
            48.852961819
          ],
          [
            8.484795973,
            48.852953064
          ],
          [
            8.484806089,
            48.852944213
          ],
          [
            8.484816543,
            48.852935337
          ],
          [
            8.484827526,
            48.852926724
          ],
          [
            8.484838897,
            48.852918378
          ],
          [
            8.484850672,
            48.852910303
          ],
          [
            8.484862732,
            48.852902387
          ],
          [
            8.48487482,
            48.852894477
          ],
          [
            8.484886897,
            48.852886506
          ],
          [
            8.484899031,
            48.852878494
          ],
          [
            8.484911224,
            48.852870435
          ],
          [
            8.484923429,
            48.852862375
          ],
          [
            8.484935734,
            48.852854328
          ],
          [
            8.484948045,
            48.852846277
          ],
          [
            8.484960421,
            48.85283829
          ],
          [
            8.484972827,
            48.852830332
          ],
          [
            8.484985226,
            48.852822284
          ],
          [
            8.484997684,
            48.852814239
          ],
          [
            8.485010063,
            48.852806161
          ],
          [
            8.485022385,
            48.852798031
          ],
          [
            8.485034673,
            48.852789943
          ],
          [
            8.485047044,
            48.852781901
          ],
          [
            8.485059445,
            48.852773908
          ],
          [
            8.485071742,
            48.852765934
          ],
          [
            8.485083926,
            48.852757975
          ],
          [
            8.485095959,
            48.852750023
          ],
          [
            8.485107894,
            48.852742057
          ],
          [
            8.485119825,
            48.852734048
          ],
          [
            8.485131656,
            48.852726041
          ],
          [
            8.4851434,
            48.852718079
          ],
          [
            8.485155211,
            48.852710142
          ],
          [
            8.485167046,
            48.852702209
          ],
          [
            8.485178803,
            48.852694296
          ],
          [
            8.485190444,
            48.852686342
          ],
          [
            8.485202003,
            48.852678338
          ],
          [
            8.48521358,
            48.852670273
          ],
          [
            8.485225217,
            48.852662221
          ],
          [
            8.485236895,
            48.85265419
          ],
          [
            8.485248607,
            48.852646173
          ],
          [
            8.485260292,
            48.852638209
          ],
          [
            8.485271932,
            48.852630364
          ],
          [
            8.485283596,
            48.852622448
          ],
          [
            8.485295339,
            48.852614437
          ],
          [
            8.485307184,
            48.852606399
          ],
          [
            8.485319078,
            48.852598295
          ],
          [
            8.485330989,
            48.852590159
          ],
          [
            8.485342984,
            48.852582005
          ],
          [
            8.485354973,
            48.85257382
          ],
          [
            8.48536691,
            48.852565698
          ],
          [
            8.485378858,
            48.852557651
          ],
          [
            8.485390786,
            48.852549622
          ],
          [
            8.485402735,
            48.852541686
          ],
          [
            8.485414859,
            48.852533821
          ],
          [
            8.485427159,
            48.852525961
          ],
          [
            8.485439596,
            48.852518101
          ],
          [
            8.485452034,
            48.852510188
          ],
          [
            8.485464416,
            48.852502276
          ],
          [
            8.485476646,
            48.852494275
          ],
          [
            8.485488737,
            48.852486255
          ],
          [
            8.485500676,
            48.852478248
          ],
          [
            8.485512468,
            48.852470148
          ],
          [
            8.485524118,
            48.852461967
          ],
          [
            8.485535742,
            48.852453926
          ],
          [
            8.485547378,
            48.8524458
          ],
          [
            8.485558985,
            48.85243768
          ],
          [
            8.485570559,
            48.852429605
          ],
          [
            8.485582193,
            48.852421646
          ],
          [
            8.485593645,
            48.852413842
          ],
          [
            8.485603837,
            48.85240711
          ],
          [
            8.485613598,
            48.852400815
          ],
          [
            8.485623016,
            48.852394594
          ],
          [
            8.485632149,
            48.852388395
          ],
          [
            8.485641067,
            48.852382115
          ],
          [
            8.485649801,
            48.852375694
          ],
          [
            8.485658538,
            48.852369153
          ],
          [
            8.485667289,
            48.852362524
          ],
          [
            8.485676041,
            48.852355803
          ],
          [
            8.485684888,
            48.852349099
          ],
          [
            8.485693856,
            48.852342367
          ],
          [
            8.485702967,
            48.852335664
          ],
          [
            8.485712199,
            48.852329035
          ],
          [
            8.485721387,
            48.852322426
          ],
          [
            8.4857305,
            48.852315887
          ],
          [
            8.48573955,
            48.852309386
          ],
          [
            8.485747394,
            48.852304344
          ],
          [
            8.485754393,
            48.852301686
          ],
          [
            8.485760493,
            48.852301652
          ],
          [
            8.485766232,
            48.852303842
          ],
          [
            8.485772007,
            48.852307633
          ],
          [
            8.485778009,
            48.852312375
          ],
          [
            8.485784255,
            48.852317715
          ],
          [
            8.485790838,
            48.852323397
          ],
          [
            8.485797723,
            48.85232928
          ],
          [
            8.485804948,
            48.852335307
          ],
          [
            8.485812313,
            48.852341495
          ],
          [
            8.485819773,
            48.852347773
          ],
          [
            8.485827127,
            48.852354151
          ],
          [
            8.485834526,
            48.852360689
          ],
          [
            8.48584198,
            48.852367282
          ],
          [
            8.485849573,
            48.852373956
          ],
          [
            8.485857266,
            48.852380694
          ],
          [
            8.485865081,
            48.852387502
          ],
          [
            8.485872954,
            48.852394359
          ],
          [
            8.485880733,
            48.85240126
          ],
          [
            8.485888455,
            48.852408281
          ],
          [
            8.485896084,
            48.852415373
          ],
          [
            8.485903579,
            48.852422465
          ],
          [
            8.485911174,
            48.852429493
          ],
          [
            8.485918927,
            48.852436441
          ],
          [
            8.485926977,
            48.852443325
          ],
          [
            8.48593466,
            48.852449959
          ],
          [
            8.485939459,
            48.852455872
          ],
          [
            8.485940164,
            48.852461309
          ],
          [
            8.485937185,
            48.852466474
          ],
          [
            8.485931891,
            48.852471949
          ],
          [
            8.485925083,
            48.852478043
          ],
          [
            8.485917186,
            48.85248463
          ],
          [
            8.485908439,
            48.852491638
          ],
          [
            8.485898889,
            48.852498972
          ],
          [
            8.485888727,
            48.852506534
          ],
          [
            8.485878082,
            48.852514301
          ],
          [
            8.485866922,
            48.852522353
          ],
          [
            8.485855419,
            48.852530551
          ],
          [
            8.485843555,
            48.85253888
          ],
          [
            8.485831435,
            48.852547262
          ],
          [
            8.485819199,
            48.852555801
          ],
          [
            8.485807195,
            48.852564462
          ],
          [
            8.48579563,
            48.852573324
          ],
          [
            8.485784384,
            48.852582391
          ],
          [
            8.485773131,
            48.852591439
          ],
          [
            8.485761733,
            48.852600267
          ],
          [
            8.485750075,
            48.852608908
          ],
          [
            8.485738283,
            48.852617451
          ],
          [
            8.485726425,
            48.852625871
          ],
          [
            8.485714448,
            48.852634239
          ],
          [
            8.485702338,
            48.852642558
          ],
          [
            8.485689909,
            48.852650824
          ],
          [
            8.485677408,
            48.852659039
          ],
          [
            8.4856648,
            48.85266722
          ],
          [
            8.485652181,
            48.852675416
          ],
          [
            8.485639629,
            48.852683657
          ],
          [
            8.485627161,
            48.852691782
          ],
          [
            8.485614818,
            48.852699876
          ],
          [
            8.485602495,
            48.852707987
          ],
          [
            8.485590255,
            48.852716157
          ],
          [
            8.485578441,
            48.852724298
          ],
          [
            8.485567171,
            48.85273267
          ],
          [
            8.485556464,
            48.85274122
          ],
          [
            8.48554593,
            48.852749682
          ],
          [
            8.485535389,
            48.852758049
          ],
          [
            8.485524758,
            48.852766256
          ],
          [
            8.485513822,
            48.852774395
          ],
          [
            8.485502511,
            48.852782496
          ],
          [
            8.485490809,
            48.85279046
          ],
          [
            8.485478861,
            48.852798387
          ],
          [
            8.485466592,
            48.852806195
          ],
          [
            8.485454151,
            48.852813975
          ],
          [
            8.485441617,
            48.852821655
          ],
          [
            8.485429165,
            48.852829436
          ],
          [
            8.485416831,
            48.852837365
          ],
          [
            8.485404511,
            48.852845398
          ],
          [
            8.485392327,
            48.852853519
          ],
          [
            8.485380315,
            48.852861672
          ],
          [
            8.48536846,
            48.852869875
          ],
          [
            8.485356555,
            48.852878137
          ],
          [
            8.485344904,
            48.852886422
          ],
          [
            8.485333358,
            48.852894768
          ],
          [
            8.485321951,
            48.852903028
          ],
          [
            8.485310569,
            48.852911242
          ],
          [
            8.485299229,
            48.852919421
          ],
          [
            8.485287812,
            48.852927557
          ],
          [
            8.485276194,
            48.852935718
          ],
          [
            8.485264549,
            48.852943898
          ],
          [
            8.485253043,
            48.85295207
          ],
          [
            8.485241711,
            48.852960216
          ],
          [
            8.485230482,
            48.852968392
          ],
          [
            8.485219035,
            48.852976554
          ],
          [
            8.485207583,
            48.852984641
          ],
          [
            8.485196019,
            48.852992708
          ],
          [
            8.485184431,
            48.85300087
          ],
          [
            8.485172743,
            48.853008961
          ],
          [
            8.485161165,
            48.853017098
          ],
          [
            8.4851496,
            48.85302514
          ],
          [
            8.485137854,
            48.853033101
          ],
          [
            8.485125923,
            48.853041011
          ],
          [
            8.485113859,
            48.85304882
          ],
          [
            8.485101913,
            48.853056676
          ],
          [
            8.485089918,
            48.853064539
          ],
          [
            8.485077954,
            48.853072311
          ],
          [
            8.485065961,
            48.853080226
          ],
          [
            8.485054087,
            48.853088165
          ],
          [
            8.485042449,
            48.85309626
          ],
          [
            8.48503089,
            48.853104453
          ],
          [
            8.48501938,
            48.853112723
          ],
          [
            8.485007941,
            48.853120977
          ],
          [
            8.484996411,
            48.853129137
          ],
          [
            8.484984619,
            48.853137241
          ],
          [
            8.484972685,
            48.853145266
          ],
          [
            8.48496062,
            48.853153338
          ],
          [
            8.484948714,
            48.853161393
          ],
          [
            8.484938022,
            48.853170275
          ],
          [
            8.484927971,
            48.853180039
          ],
          [
            8.484918196,
            48.853190504
          ],
          [
            8.484908529,
            48.853201881
          ],
          [
            8.484898531,
            48.853214039
          ],
          [
            8.484888179,
            48.853227094
          ],
          [
            8.484877344,
            48.853241022
          ],
          [
            8.484866042,
            48.853255716
          ],
          [
            8.484854357,
            48.853270882
          ],
          [
            8.484842319,
            48.853286403
          ],
          [
            8.484829765,
            48.853302338
          ],
          [
            8.484816737,
            48.853318608
          ],
          [
            8.484803483,
            48.85333507
          ],
          [
            8.484789822,
            48.853351738
          ],
          [
            8.484775998,
            48.853368568
          ],
          [
            8.484762,
            48.853385577
          ],
          [
            8.48474799,
            48.853402733
          ],
          [
            8.484733879,
            48.853420101
          ],
          [
            8.484719717,
            48.853437716
          ],
          [
            8.484705583,
            48.853455554
          ],
          [
            8.484691446,
            48.853473538
          ],
          [
            8.484677445,
            48.853491763
          ],
          [
            8.484663218,
            48.853510116
          ],
          [
            8.484648942,
            48.85352867
          ],
          [
            8.484634589,
            48.853547332
          ],
          [
            8.484620146,
            48.853566034
          ],
          [
            8.484605788,
            48.853584913
          ],
          [
            8.484591113,
            48.853603754
          ],
          [
            8.484576324,
            48.853622596
          ],
          [
            8.484561644,
            48.853641595
          ],
          [
            8.4845467,
            48.853660532
          ],
          [
            8.484531439,
            48.853679434
          ],
          [
            8.484516293,
            48.853698489
          ],
          [
            8.484501367,
            48.85371771
          ],
          [
            8.48448667,
            48.853737159
          ],
          [
            8.484472702,
            48.853755552
          ],
          [
            8.484460552,
            48.853772641
          ],
          [
            8.484450783,
            48.853788339
          ],
          [
            8.484442943,
            48.853802478
          ],
          [
            8.484436269,
            48.853814541
          ],
          [
            8.48442989,
            48.853824506
          ],
          [
            8.484423636,
            48.853832378
          ],
          [
            8.48441675,
            48.853838082
          ],
          [
            8.484410247,
            48.853841862
          ],
          [
            8.484404364,
            48.853843736
          ],
          [
            8.484400222,
            48.853844185
          ],
          [
            8.484398739,
            48.853843587
          ],
          [
            8.484399551,
            48.853841896
          ],
          [
            8.48440268,
            48.853839155
          ],
          [
            8.484407928,
            48.8538353
          ],
          [
            8.484414968,
            48.85383024
          ],
          [
            8.484423399,
            48.853824115
          ],
          [
            8.484432808,
            48.853817338
          ],
          [
            8.484442741,
            48.853810083
          ],
          [
            8.484453072,
            48.853802558
          ],
          [
            8.484463747,
            48.853794956
          ],
          [
            8.484474801,
            48.853787219
          ],
          [
            8.484486005,
            48.853779296
          ],
          [
            8.484497301,
            48.853771443
          ],
          [
            8.484508668,
            48.853763655
          ],
          [
            8.484520135,
            48.853755848
          ],
          [
            8.484531602,
            48.853748095
          ],
          [
            8.484543012,
            48.853740301
          ],
          [
            8.484554339,
            48.853732523
          ],
          [
            8.484565598,
            48.853724699
          ],
          [
            8.484576989,
            48.853717043
          ],
          [
            8.484588629,
            48.853709455
          ],
          [
            8.484600397,
            48.853701836
          ],
          [
            8.484612135,
            48.853694121
          ],
          [
            8.484623771,
            48.853686441
          ],
          [
            8.484635498,
            48.853678778
          ],
          [
            8.484647321,
            48.853671114
          ],
          [
            8.484659053,
            48.853663401
          ],
          [
            8.484670713,
            48.853655607
          ],
          [
            8.484682358,
            48.853647784
          ],
          [
            8.484694051,
            48.853639872
          ],
          [
            8.484705815,
            48.853631941
          ],
          [
            8.484717604,
            48.853624038
          ],
          [
            8.484729397,
            48.853616079
          ],
          [
            8.484741211,
            48.853608123
          ],
          [
            8.484753009,
            48.853600138
          ],
          [
            8.484764755,
            48.853592143
          ],
          [
            8.484776561,
            48.853584192
          ],
          [
            8.484788398,
            48.853576274
          ],
          [
            8.484800254,
            48.853568353
          ],
          [
            8.484812248,
            48.853560447
          ],
          [
            8.484824253,
            48.853552553
          ],
          [
            8.484836203,
            48.853544651
          ],
          [
            8.484848157,
            48.853536742
          ],
          [
            8.484860105,
            48.853528834
          ],
          [
            8.484871969,
            48.853520899
          ],
          [
            8.484883823,
            48.853512948
          ],
          [
            8.484895564,
            48.853505015
          ],
          [
            8.484907218,
            48.853497091
          ],
          [
            8.48491905,
            48.853489219
          ],
          [
            8.484931123,
            48.853481358
          ],
          [
            8.484943308,
            48.853473482
          ],
          [
            8.484955519,
            48.853465594
          ],
          [
            8.484967647,
            48.853457674
          ],
          [
            8.484979745,
            48.85344971
          ],
          [
            8.484991699,
            48.853441702
          ],
          [
            8.485003601,
            48.853433689
          ],
          [
            8.485015452,
            48.853425754
          ],
          [
            8.485027208,
            48.853417836
          ],
          [
            8.485038851,
            48.853409989
          ],
          [
            8.48505031,
            48.853402173
          ],
          [
            8.485061622,
            48.85339433
          ],
          [
            8.485072999,
            48.853386459
          ],
          [
            8.485084473,
            48.853378581
          ],
          [
            8.485095973,
            48.853370618
          ],
          [
            8.485107587,
            48.853362699
          ],
          [
            8.485119336,
            48.853354811
          ],
          [
            8.485131052,
            48.853346866
          ],
          [
            8.485142806,
            48.853338942
          ],
          [
            8.485154625,
            48.85333102
          ],
          [
            8.485166368,
            48.85332306
          ],
          [
            8.485178033,
            48.853315027
          ],
          [
            8.485189777,
            48.853306946
          ],
          [
            8.485201641,
            48.853298829
          ],
          [
            8.485213618,
            48.853290745
          ],
          [
            8.485225637,
            48.853282585
          ],
          [
            8.485237735,
            48.853274459
          ],
          [
            8.485249866,
            48.853266299
          ],
          [
            8.485262022,
            48.853258155
          ],
          [
            8.485274208,
            48.853250013
          ],
          [
            8.485286367,
            48.853241805
          ],
          [
            8.48529842,
            48.853233668
          ],
          [
            8.485310129,
            48.853225659
          ],
          [
            8.485321686,
            48.853217747
          ],
          [
            8.485333327,
            48.853209825
          ],
          [
            8.485345081,
            48.853201831
          ],
          [
            8.485357122,
            48.853193831
          ],
          [
            8.485369208,
            48.853185811
          ],
          [
            8.48538131,
            48.853177777
          ],
          [
            8.485393482,
            48.853169823
          ],
          [
            8.485405687,
            48.85316192
          ],
          [
            8.485417911,
            48.853154041
          ],
          [
            8.485430186,
            48.85314615
          ],
          [
            8.485442397,
            48.853138313
          ],
          [
            8.485454582,
            48.85313052
          ],
          [
            8.485466697,
            48.853122747
          ],
          [
            8.485478813,
            48.853114927
          ],
          [
            8.485490959,
            48.853107046
          ],
          [
            8.485503123,
            48.853099172
          ],
          [
            8.485515191,
            48.853091147
          ],
          [
            8.485527232,
            48.853083136
          ],
          [
            8.485539342,
            48.853075074
          ],
          [
            8.485551554,
            48.853067055
          ],
          [
            8.485563786,
            48.853059061
          ],
          [
            8.485575991,
            48.853051054
          ],
          [
            8.485588071,
            48.853043048
          ],
          [
            8.485599886,
            48.853035061
          ],
          [
            8.485611786,
            48.853027044
          ],
          [
            8.485623624,
            48.853018978
          ],
          [
            8.485635374,
            48.853010934
          ],
          [
            8.48564699,
            48.853002875
          ],
          [
            8.485658557,
            48.852994751
          ],
          [
            8.485670155,
            48.85298658
          ],
          [
            8.485681742,
            48.852978359
          ],
          [
            8.485693259,
            48.852970138
          ],
          [
            8.485704723,
            48.852961901
          ],
          [
            8.485716316,
            48.852953645
          ],
          [
            8.485727914,
            48.852945398
          ],
          [
            8.48573954,
            48.852937205
          ],
          [
            8.485751257,
            48.852929045
          ],
          [
            8.485762982,
            48.852920861
          ],
          [
            8.485774734,
            48.852912768
          ],
          [
            8.485786483,
            48.85290474
          ],
          [
            8.485798174,
            48.852896806
          ],
          [
            8.485809893,
            48.852888881
          ],
          [
            8.485821705,
            48.852880962
          ],
          [
            8.485833333,
            48.852872997
          ],
          [
            8.485844965,
            48.852864963
          ],
          [
            8.485856634,
            48.852856808
          ],
          [
            8.485868243,
            48.852848664
          ],
          [
            8.485879909,
            48.852840499
          ],
          [
            8.485891504,
            48.852832401
          ],
          [
            8.485903152,
            48.852824297
          ],
          [
            8.485914824,
            48.852816227
          ],
          [
            8.485926503,
            48.852808156
          ],
          [
            8.485938177,
            48.852800071
          ],
          [
            8.485949868,
            48.852792024
          ],
          [
            8.485961514,
            48.85278403
          ],
          [
            8.485973096,
            48.852776082
          ],
          [
            8.485984713,
            48.852768212
          ],
          [
            8.485995156,
            48.852761291
          ],
          [
            8.486004969,
            48.852754973
          ],
          [
            8.486014541,
            48.852748765
          ],
          [
            8.486023798,
            48.852742562
          ],
          [
            8.486032891,
            48.852736373
          ],
          [
            8.486041977,
            48.852730213
          ],
          [
            8.486051133,
            48.852723902
          ],
          [
            8.4860603,
            48.852717609
          ],
          [
            8.486069593,
            48.852711268
          ],
          [
            8.486079011,
            48.852704942
          ],
          [
            8.486088449,
            48.852698581
          ],
          [
            8.486097931,
            48.852692201
          ],
          [
            8.486107382,
            48.852685719
          ],
          [
            8.486116711,
            48.852679124
          ],
          [
            8.486125891,
            48.85267256
          ],
          [
            8.486135047,
            48.852665954
          ],
          [
            8.486143274,
            48.852660233
          ],
          [
            8.486150345,
            48.85265651
          ],
          [
            8.486156089,
            48.852655598
          ],
          [
            8.486161267,
            48.852657176
          ],
          [
            8.486166294,
            48.852660865
          ],
          [
            8.486171448,
            48.852665859
          ],
          [
            8.486177008,
            48.852671671
          ],
          [
            8.486183164,
            48.852677856
          ],
          [
            8.486189756,
            48.852684204
          ],
          [
            8.4861967,
            48.852690689
          ],
          [
            8.486203939,
            48.852697243
          ],
          [
            8.486211399,
            48.852703815
          ],
          [
            8.486219046,
            48.852710372
          ],
          [
            8.486226675,
            48.852716983
          ],
          [
            8.48623422,
            48.852723631
          ],
          [
            8.486241609,
            48.852730351
          ],
          [
            8.486248879,
            48.852737165
          ],
          [
            8.486256191,
            48.852744066
          ],
          [
            8.486263548,
            48.852751042
          ],
          [
            8.48627078,
            48.852758066
          ],
          [
            8.486277922,
            48.852765178
          ],
          [
            8.486285038,
            48.852772376
          ],
          [
            8.486292217,
            48.85277963
          ],
          [
            8.486299475,
            48.852786949
          ],
          [
            8.486306776,
            48.852794303
          ],
          [
            8.486314185,
            48.852801652
          ],
          [
            8.486321756,
            48.85280899
          ],
          [
            8.486327596,
            48.852815728
          ],
          [
            8.48632984,
            48.852821769
          ],
          [
            8.486327905,
            48.852827466
          ],
          [
            8.486322856,
            48.852833233
          ],
          [
            8.486315936,
            48.852839511
          ],
          [
            8.48630768,
            48.852846355
          ],
          [
            8.486298409,
            48.852853499
          ],
          [
            8.486288712,
            48.852861033
          ],
          [
            8.486278858,
            48.852868882
          ],
          [
            8.486268685,
            48.852876792
          ],
          [
            8.486258536,
            48.852884645
          ],
          [
            8.486248311,
            48.852892511
          ],
          [
            8.48623786,
            48.852900426
          ],
          [
            8.486227242,
            48.852908296
          ],
          [
            8.486216491,
            48.852916144
          ],
          [
            8.48620594,
            48.852923987
          ],
          [
            8.486195581,
            48.852931888
          ],
          [
            8.486185448,
            48.852939744
          ],
          [
            8.486175398,
            48.852947603
          ],
          [
            8.486165544,
            48.852955356
          ],
          [
            8.486155663,
            48.852963056
          ],
          [
            8.486145749,
            48.852970692
          ],
          [
            8.486135572,
            48.852978297
          ],
          [
            8.486125224,
            48.852985907
          ],
          [
            8.486114592,
            48.852993591
          ],
          [
            8.48610369,
            48.853001371
          ],
          [
            8.486092483,
            48.853009098
          ],
          [
            8.486081082,
            48.853016854
          ],
          [
            8.486069637,
            48.853024701
          ],
          [
            8.486058095,
            48.853032555
          ],
          [
            8.486046742,
            48.853040452
          ],
          [
            8.486035356,
            48.853048324
          ],
          [
            8.486024032,
            48.853056321
          ],
          [
            8.486012931,
            48.853064306
          ],
          [
            8.486001842,
            48.853072311
          ],
          [
            8.485990807,
            48.853080412
          ],
          [
            8.48598001,
            48.853088437
          ],
          [
            8.48596927,
            48.85309647
          ],
          [
            8.485958458,
            48.853104429
          ],
          [
            8.485947518,
            48.853112356
          ],
          [
            8.485936345,
            48.853120224
          ],
          [
            8.485925195,
            48.853128111
          ],
          [
            8.48591387,
            48.853135998
          ],
          [
            8.485902524,
            48.85314378
          ],
          [
            8.485891165,
            48.853151476
          ],
          [
            8.485879645,
            48.853159209
          ],
          [
            8.485867982,
            48.853166951
          ],
          [
            8.485856358,
            48.853174639
          ],
          [
            8.485844795,
            48.853182373
          ],
          [
            8.485833176,
            48.853190152
          ],
          [
            8.485821564,
            48.853198057
          ],
          [
            8.48581007,
            48.853206012
          ],
          [
            8.485798539,
            48.853214004
          ],
          [
            8.485786979,
            48.85322199
          ],
          [
            8.485775505,
            48.853229991
          ],
          [
            8.485764104,
            48.853237989
          ],
          [
            8.485752674,
            48.853245971
          ],
          [
            8.485741215,
            48.853253877
          ],
          [
            8.485729737,
            48.853261732
          ],
          [
            8.485718281,
            48.85326948
          ],
          [
            8.485706782,
            48.853277182
          ],
          [
            8.485695161,
            48.853284945
          ],
          [
            8.485683652,
            48.853292763
          ],
          [
            8.48567217,
            48.853300583
          ],
          [
            8.485660706,
            48.853308425
          ],
          [
            8.48564917,
            48.853316266
          ],
          [
            8.485637724,
            48.853324114
          ],
          [
            8.485626339,
            48.853331997
          ],
          [
            8.485614967,
            48.853339923
          ],
          [
            8.485603754,
            48.853347915
          ],
          [
            8.485592647,
            48.853355973
          ],
          [
            8.485581719,
            48.853364067
          ],
          [
            8.485571034,
            48.853372058
          ],
          [
            8.485560612,
            48.853380057
          ],
          [
            8.485550162,
            48.853388087
          ],
          [
            8.485539568,
            48.853396108
          ],
          [
            8.485528832,
            48.853404016
          ],
          [
            8.485517973,
            48.853411823
          ],
          [
            8.485507059,
            48.853419357
          ],
          [
            8.485496121,
            48.853426677
          ],
          [
            8.485485183,
            48.853433914
          ],
          [
            8.4854741,
            48.853441118
          ],
          [
            8.485462845,
            48.853448395
          ],
          [
            8.485451419,
            48.853455798
          ],
          [
            8.485439939,
            48.853463304
          ],
          [
            8.485428419,
            48.85347097
          ],
          [
            8.485416721,
            48.853478788
          ],
          [
            8.485404912,
            48.853486725
          ],
          [
            8.48539295,
            48.853494679
          ],
          [
            8.48538095,
            48.853502589
          ],
          [
            8.485368903,
            48.853510415
          ],
          [
            8.485356674,
            48.853518136
          ],
          [
            8.485344377,
            48.853525886
          ],
          [
            8.485332202,
            48.853533593
          ],
          [
            8.48532007,
            48.853541298
          ],
          [
            8.485307826,
            48.853548926
          ],
          [
            8.485295589,
            48.853556591
          ],
          [
            8.485283445,
            48.853564288
          ],
          [
            8.48527125,
            48.853571998
          ],
          [
            8.485258961,
            48.853579794
          ],
          [
            8.48524673,
            48.85358765
          ],
          [
            8.48523461,
            48.853595584
          ],
          [
            8.485222598,
            48.853603626
          ],
          [
            8.485210577,
            48.853611507
          ],
          [
            8.485198421,
            48.853619331
          ],
          [
            8.485186422,
            48.853627
          ],
          [
            8.48517467,
            48.853634577
          ],
          [
            8.485163278,
            48.853642057
          ],
          [
            8.485152129,
            48.853649543
          ],
          [
            8.485141069,
            48.853656938
          ],
          [
            8.485129952,
            48.853664483
          ],
          [
            8.485118902,
            48.853672093
          ],
          [
            8.485107928,
            48.853679774
          ],
          [
            8.485096954,
            48.853687489
          ],
          [
            8.485085677,
            48.853695382
          ],
          [
            8.485074297,
            48.853703143
          ],
          [
            8.485062504,
            48.853710893
          ],
          [
            8.485050484,
            48.85371863
          ],
          [
            8.485038297,
            48.853726278
          ],
          [
            8.485026135,
            48.853733979
          ],
          [
            8.48501391,
            48.853741731
          ],
          [
            8.485001534,
            48.853749484
          ],
          [
            8.484989221,
            48.853757036
          ],
          [
            8.484977043,
            48.853764644
          ],
          [
            8.484964889,
            48.853772285
          ],
          [
            8.484952837,
            48.853779964
          ],
          [
            8.484940952,
            48.853787679
          ],
          [
            8.484929127,
            48.85379541
          ],
          [
            8.484917001,
            48.853803097
          ],
          [
            8.484904778,
            48.853810723
          ],
          [
            8.484892578,
            48.8538184
          ],
          [
            8.48488031,
            48.853826178
          ],
          [
            8.484868334,
            48.85383386
          ],
          [
            8.484857825,
            48.853840687
          ],
          [
            8.484848,
            48.853847185
          ],
          [
            8.484838523,
            48.853853481
          ],
          [
            8.484829161,
            48.853859787
          ],
          [
            8.484819993,
            48.853866151
          ],
          [
            8.484810986,
            48.853872569
          ],
          [
            8.48480194,
            48.853879027
          ],
          [
            8.484792874,
            48.853885541
          ],
          [
            8.48478392,
            48.853892126
          ],
          [
            8.484775064,
            48.853898853
          ],
          [
            8.484766301,
            48.853905628
          ],
          [
            8.484757591,
            48.853912452
          ],
          [
            8.484748745,
            48.85391935
          ],
          [
            8.484739951,
            48.853926249
          ],
          [
            8.484730954,
            48.853933044
          ],
          [
            8.484721662,
            48.853939546
          ],
          [
            8.484714192,
            48.853945033
          ],
          [
            8.484710799,
            48.853950167
          ],
          [
            8.484711618,
            48.85395501
          ],
          [
            8.484716046,
            48.853960088
          ],
          [
            8.484722337,
            48.853965449
          ],
          [
            8.48472969,
            48.853970749
          ],
          [
            8.484737829,
            48.853975789
          ],
          [
            8.484746494,
            48.853980757
          ],
          [
            8.484755362,
            48.853985742
          ],
          [
            8.48476454,
            48.853990716
          ],
          [
            8.484774076,
            48.853995651
          ],
          [
            8.484784042,
            48.854000669
          ],
          [
            8.484794215,
            48.85400566
          ],
          [
            8.484804486,
            48.854010746
          ],
          [
            8.484814952,
            48.854015904
          ],
          [
            8.484825499,
            48.854021076
          ],
          [
            8.484836001,
            48.854026238
          ],
          [
            8.484846349,
            48.854031411
          ],
          [
            8.484856717,
            48.854036694
          ],
          [
            8.484867057,
            48.854042068
          ],
          [
            8.484877576,
            48.854047544
          ],
          [
            8.484888207,
            48.854053031
          ],
          [
            8.484898494,
            48.854058577
          ],
          [
            8.484908445,
            48.854064228
          ],
          [
            8.484918348,
            48.854069908
          ],
          [
            8.4849282,
            48.854075422
          ],
          [
            8.484936658,
            48.854079653
          ],
          [
            8.484944617,
            48.854081393
          ],
          [
            8.484952416,
            48.854080397
          ],
          [
            8.484960399,
            48.854076933
          ],
          [
            8.48496864,
            48.854071845
          ],
          [
            8.484977215,
            48.85406569
          ],
          [
            8.484986309,
            48.854058882
          ],
          [
            8.484996101,
            48.854051748
          ],
          [
            8.485006671,
            48.854044487
          ],
          [
            8.485017867,
            48.854037264
          ],
          [
            8.485029562,
            48.854030016
          ],
          [
            8.485041325,
            48.85402264
          ],
          [
            8.485052983,
            48.854015137
          ],
          [
            8.485064637,
            48.854007642
          ],
          [
            8.485076233,
            48.854000143
          ],
          [
            8.485087721,
            48.853992549
          ],
          [
            8.485099156,
            48.853984936
          ],
          [
            8.485110453,
            48.853977335
          ],
          [
            8.485121702,
            48.853969515
          ],
          [
            8.485132971,
            48.853961544
          ],
          [
            8.485144229,
            48.853953562
          ],
          [
            8.485155629,
            48.853945514
          ],
          [
            8.485167073,
            48.853937492
          ],
          [
            8.485178573,
            48.853929391
          ],
          [
            8.485190142,
            48.853921315
          ],
          [
            8.485201708,
            48.853913256
          ],
          [
            8.485213306,
            48.853905201
          ],
          [
            8.485225036,
            48.853897174
          ],
          [
            8.485236779,
            48.853889305
          ],
          [
            8.48524867,
            48.853881441
          ],
          [
            8.48526073,
            48.853873544
          ],
          [
            8.485272953,
            48.853865526
          ],
          [
            8.485285191,
            48.853857535
          ],
          [
            8.485297346,
            48.853849562
          ],
          [
            8.485309267,
            48.853841616
          ],
          [
            8.485321063,
            48.853833621
          ],
          [
            8.485332767,
            48.853825657
          ],
          [
            8.485344431,
            48.853817793
          ],
          [
            8.485356129,
            48.853809919
          ],
          [
            8.485367795,
            48.853802053
          ],
          [
            8.485379466,
            48.853794215
          ],
          [
            8.485390996,
            48.853786302
          ],
          [
            8.485402382,
            48.853778341
          ],
          [
            8.485413782,
            48.853770348
          ],
          [
            8.485425234,
            48.853762377
          ],
          [
            8.485436897,
            48.853754401
          ],
          [
            8.485448717,
            48.853746528
          ],
          [
            8.485460674,
            48.853738693
          ],
          [
            8.485472784,
            48.853730775
          ],
          [
            8.485484894,
            48.85372292
          ],
          [
            8.485496989,
            48.853715137
          ],
          [
            8.485509047,
            48.853707307
          ],
          [
            8.485520963,
            48.853699485
          ],
          [
            8.485532789,
            48.85369162
          ],
          [
            8.485544509,
            48.853683606
          ],
          [
            8.485556095,
            48.85367547
          ],
          [
            8.485567613,
            48.853667352
          ],
          [
            8.485578979,
            48.853659096
          ],
          [
            8.485590394,
            48.853650928
          ],
          [
            8.485601877,
            48.853642803
          ],
          [
            8.485613362,
            48.853634624
          ],
          [
            8.485624815,
            48.853626382
          ],
          [
            8.485636354,
            48.853618141
          ],
          [
            8.485648035,
            48.853609951
          ],
          [
            8.485659787,
            48.853601658
          ],
          [
            8.485671504,
            48.853593491
          ],
          [
            8.485683074,
            48.853585338
          ],
          [
            8.48569468,
            48.853577271
          ],
          [
            8.4857062,
            48.853569231
          ],
          [
            8.485717671,
            48.853561262
          ],
          [
            8.48572914,
            48.853553378
          ],
          [
            8.485740718,
            48.85354551
          ],
          [
            8.485752272,
            48.853537501
          ],
          [
            8.485763838,
            48.853529537
          ],
          [
            8.485775497,
            48.853521635
          ],
          [
            8.48578725,
            48.85351375
          ],
          [
            8.485799049,
            48.853505895
          ],
          [
            8.485810777,
            48.853498088
          ],
          [
            8.485822395,
            48.853490234
          ],
          [
            8.485833979,
            48.853482373
          ],
          [
            8.485845608,
            48.853474457
          ],
          [
            8.485857171,
            48.853466495
          ],
          [
            8.48586879,
            48.853458526
          ],
          [
            8.485880313,
            48.853450513
          ],
          [
            8.485891727,
            48.853442515
          ],
          [
            8.485903164,
            48.853434557
          ],
          [
            8.485914756,
            48.853426543
          ],
          [
            8.485926389,
            48.853418527
          ],
          [
            8.485937902,
            48.853410442
          ],
          [
            8.485949295,
            48.853402335
          ],
          [
            8.485960857,
            48.853394283
          ],
          [
            8.485972601,
            48.85338632
          ],
          [
            8.48598452,
            48.853378582
          ],
          [
            8.485996534,
            48.85337089
          ],
          [
            8.486008524,
            48.853363242
          ],
          [
            8.486020455,
            48.853355508
          ],
          [
            8.48603238,
            48.853347828
          ],
          [
            8.48604431,
            48.853340116
          ],
          [
            8.486056216,
            48.853332338
          ],
          [
            8.486068231,
            48.853324574
          ],
          [
            8.486080242,
            48.853316676
          ],
          [
            8.486092174,
            48.853308736
          ],
          [
            8.486104102,
            48.853300797
          ],
          [
            8.486116065,
            48.853292849
          ],
          [
            8.486128173,
            48.853284893
          ],
          [
            8.486140292,
            48.853277005
          ],
          [
            8.486152283,
            48.853269086
          ],
          [
            8.48616417,
            48.853261055
          ],
          [
            8.486175894,
            48.853252957
          ],
          [
            8.486187604,
            48.853244763
          ],
          [
            8.486199218,
            48.853236531
          ],
          [
            8.486210855,
            48.853228439
          ],
          [
            8.486222489,
            48.85322036
          ],
          [
            8.486234287,
            48.853212296
          ],
          [
            8.486246154,
            48.853204285
          ],
          [
            8.486257996,
            48.853196262
          ],
          [
            8.486269697,
            48.853188193
          ],
          [
            8.486281302,
            48.853180176
          ],
          [
            8.486293004,
            48.853172206
          ],
          [
            8.48630474,
            48.853164117
          ],
          [
            8.486316497,
            48.853156116
          ],
          [
            8.486328308,
            48.85314809
          ],
          [
            8.486340041,
            48.853140037
          ],
          [
            8.486351834,
            48.853131934
          ],
          [
            8.486363643,
            48.853123812
          ],
          [
            8.486375419,
            48.853115681
          ],
          [
            8.486387223,
            48.853107592
          ],
          [
            8.486399055,
            48.853099554
          ],
          [
            8.486410802,
            48.853091506
          ],
          [
            8.486422531,
            48.853083481
          ],
          [
            8.486434214,
            48.853075473
          ],
          [
            8.486445756,
            48.853067537
          ],
          [
            8.486457348,
            48.853059614
          ],
          [
            8.486468994,
            48.853051737
          ],
          [
            8.486480663,
            48.853043824
          ],
          [
            8.486492329,
            48.853035907
          ],
          [
            8.48650395,
            48.853027881
          ],
          [
            8.486515506,
            48.85301986
          ],
          [
            8.486527103,
            48.853011806
          ],
          [
            8.486538221,
            48.853004002
          ],
          [
            8.48654767,
            48.85299766
          ],
          [
            8.486555037,
            48.852992552
          ],
          [
            8.486560132,
            48.852988928
          ],
          [
            8.486563284,
            48.852986978
          ],
          [
            8.486564113,
            48.852986545
          ],
          [
            8.486562129,
            48.85298735
          ],
          [
            8.486557846,
            48.852989058
          ],
          [
            8.486551324,
            48.852991547
          ],
          [
            8.48654292,
            48.852994657
          ],
          [
            8.486532639,
            48.852998241
          ],
          [
            8.486520155,
            48.853002365
          ],
          [
            8.486505568,
            48.853007356
          ],
          [
            8.486489081,
            48.853012949
          ],
          [
            8.48647086,
            48.853019024
          ],
          [
            8.486451538,
            48.853025529
          ],
          [
            8.486431097,
            48.853032208
          ],
          [
            8.486409611,
            48.853039053
          ],
          [
            8.486387387,
            48.85304599
          ],
          [
            8.486365041,
            48.853053036
          ],
          [
            8.486342339,
            48.853060259
          ],
          [
            8.486319904,
            48.853067532
          ],
          [
            8.486297472,
            48.853074849
          ],
          [
            8.48627528,
            48.853082212
          ],
          [
            8.486253255,
            48.853089612
          ],
          [
            8.48623123,
            48.853097055
          ],
          [
            8.486209293,
            48.853104346
          ],
          [
            8.486187098,
            48.853111661
          ],
          [
            8.486164644,
            48.853119093
          ],
          [
            8.48614204,
            48.853126422
          ],
          [
            8.486119405,
            48.853133693
          ],
          [
            8.486096707,
            48.853141081
          ],
          [
            8.486074166,
            48.853148435
          ],
          [
            8.486051723,
            48.853155791
          ],
          [
            8.486029623,
            48.853163112
          ],
          [
            8.486007423,
            48.853170561
          ],
          [
            8.485985394,
            48.853178111
          ],
          [
            8.485963407,
            48.853185631
          ],
          [
            8.485941524,
            48.853193014
          ],
          [
            8.485919826,
            48.853200386
          ],
          [
            8.485898052,
            48.85320764
          ],
          [
            8.485876136,
            48.853214698
          ],
          [
            8.485854306,
            48.853221625
          ],
          [
            8.485832473,
            48.853228496
          ],
          [
            8.485810747,
            48.853235495
          ],
          [
            8.48578907,
            48.853242307
          ],
          [
            8.485767373,
            48.853249089
          ],
          [
            8.485745723,
            48.853256032
          ],
          [
            8.485724125,
            48.85326294
          ],
          [
            8.485702252,
            48.853269797
          ],
          [
            8.485680437,
            48.85327676
          ],
          [
            8.485658438,
            48.853283801
          ],
          [
            8.485636572,
            48.853290893
          ],
          [
            8.485614762,
            48.853298197
          ],
          [
            8.485592881,
            48.853305333
          ],
          [
            8.485571143,
            48.853312513
          ],
          [
            8.485549447,
            48.853319737
          ],
          [
            8.485527792,
            48.853326919
          ],
          [
            8.485506133,
            48.853334171
          ],
          [
            8.485484407,
            48.853341412
          ],
          [
            8.485462631,
            48.853348714
          ],
          [
            8.485440811,
            48.853355983
          ],
          [
            8.485418956,
            48.853363381
          ],
          [
            8.485396693,
            48.853370482
          ],
          [
            8.48537395,
            48.853377311
          ],
          [
            8.485350264,
            48.853384416
          ],
          [
            8.485325549,
            48.853391458
          ],
          [
            8.485300046,
            48.853398631
          ],
          [
            8.485273982,
            48.853405767
          ],
          [
            8.485247358,
            48.85341281
          ],
          [
            8.48522016,
            48.853419822
          ],
          [
            8.485192556,
            48.8534268
          ],
          [
            8.485164497,
            48.853433905
          ],
          [
            8.485136162,
            48.853440949
          ],
          [
            8.48510738,
            48.853448196
          ],
          [
            8.485078352,
            48.853455456
          ],
          [
            8.485049105,
            48.853462751
          ],
          [
            8.48501968,
            48.853469917
          ],
          [
            8.484989971,
            48.853477136
          ],
          [
            8.484959949,
            48.853484476
          ],
          [
            8.484929843,
            48.853491876
          ],
          [
            8.48489972,
            48.853499461
          ],
          [
            8.484869667,
            48.853507156
          ],
          [
            8.484839302,
            48.853514823
          ],
          [
            8.484808838,
            48.853522562
          ],
          [
            8.484778374,
            48.853530275
          ],
          [
            8.484747846,
            48.853538029
          ],
          [
            8.484718528,
            48.853545142
          ],
          [
            8.48469263,
            48.853550883
          ],
          [
            8.484670581,
            48.853555734
          ],
          [
            8.484653538,
            48.853559449
          ],
          [
            8.484640469,
            48.853562403
          ],
          [
            8.484626287,
            48.853565753
          ],
          [
            8.484612531,
            48.853569158
          ],
          [
            8.484604856,
            48.853571221
          ],
          [
            8.484604206,
            48.853571563
          ],
          [
            8.484609398,
            48.853570663
          ],
          [
            8.484617535,
            48.8535692
          ],
          [
            8.484623946,
            48.853567828
          ],
          [
            8.484629641,
            48.853566852
          ],
          [
            8.484632977,
            48.853566548
          ],
          [
            8.484635222,
            48.85356652
          ],
          [
            8.484636855,
            48.853566889
          ],
          [
            8.484638187,
            48.853567384
          ],
          [
            8.484639222,
            48.853567807
          ],
          [
            8.484639764,
            48.853568248
          ],
          [
            8.48464012,
            48.853568595
          ],
          [
            8.484640417,
            48.853569088
          ],
          [
            8.484640619,
            48.853569408
          ],
          [
            8.484640574,
            48.853569442
          ],
          [
            8.484640173,
            48.85356903
          ],
          [
            8.484639703,
            48.853568571
          ],
          [
            8.484639195,
            48.853568259
          ],
          [
            8.484638229,
            48.853568046
          ],
          [
            8.484637224,
            48.853567843
          ],
          [
            8.484636979,
            48.85356742
          ],
          [
            8.484636184,
            48.85356707
          ],
          [
            8.484633197,
            48.853567169
          ],
          [
            8.484623663,
            48.853568436
          ],
          [
            8.484612413,
            48.85357009
          ],
          [
            8.48460384,
            48.853571089
          ],
          [
            8.484596069,
            48.853571915
          ],
          [
            8.484590817,
            48.853572558
          ],
          [
            8.4845881,
            48.85357298
          ],
          [
            8.484585874,
            48.853573302
          ],
          [
            8.48458409,
            48.853573624
          ],
          [
            8.484582436,
            48.853573985
          ],
          [
            8.484580962,
            48.853574273
          ],
          [
            8.484579954,
            48.853574445
          ],
          [
            8.48457936,
            48.853574624
          ],
          [
            8.484578932,
            48.853574835
          ],
          [
            8.484578665,
            48.853574943
          ],
          [
            8.48457863,
            48.853574932
          ],
          [
            8.484578954,
            48.853575014
          ],
          [
            8.484579194,
            48.853575236
          ],
          [
            8.484579173,
            48.853575485
          ],
          [
            8.484578854,
            48.853575827
          ],
          [
            8.484578317,
            48.853576323
          ],
          [
            8.48457809,
            48.853576787
          ],
          [
            8.484578226,
            48.853577042
          ],
          [
            8.484578075,
            48.853577168
          ],
          [
            8.484575965,
            48.853577683
          ],
          [
            8.484572198,
            48.853578403
          ],
          [
            8.484567994,
            48.853578946
          ],
          [
            8.4845643,
            48.853579293
          ],
          [
            8.484559806,
            48.853579568
          ],
          [
            8.484555159,
            48.853579793
          ],
          [
            8.484551106,
            48.853580005
          ],
          [
            8.484549018,
            48.853580225
          ],
          [
            8.48454762,
            48.853580399
          ],
          [
            8.484546459,
            48.853580446
          ],
          [
            8.484545509,
            48.853580525
          ],
          [
            8.484544802,
            48.853580617
          ],
          [
            8.484544064,
            48.853580834
          ],
          [
            8.484543185,
            48.853581119
          ],
          [
            8.48454246,
            48.853581455
          ],
          [
            8.484541643,
            48.853581628
          ],
          [
            8.484541262,
            48.853581457
          ],
          [
            8.484541164,
            48.853581456
          ],
          [
            8.484541148,
            48.853581458
          ],
          [
            8.484541142,
            48.853581462
          ],
          [
            8.484541148,
            48.853581457
          ],
          [
            8.484541153,
            48.853581459
          ],
          [
            8.484541158,
            48.853581467
          ],
          [
            8.48454116,
            48.853581471
          ],
          [
            8.484541165,
            48.853581471
          ],
          [
            8.484541166,
            48.853581467
          ],
          [
            8.484541168,
            48.853581459
          ],
          [
            8.484541168,
            48.853581452
          ],
          [
            8.484541167,
            48.853581447
          ],
          [
            8.484541167,
            48.853581435
          ],
          [
            8.484541168,
            48.853581422
          ],
          [
            8.484541168,
            48.85358141
          ],
          [
            8.484541169,
            48.853581398
          ],
          [
            8.484541164,
            48.853581388
          ],
          [
            8.484541157,
            48.853581376
          ],
          [
            8.484541149,
            48.853581361
          ],
          [
            8.484541141,
            48.853581347
          ],
          [
            8.484541133,
            48.853581333
          ],
          [
            8.484541124,
            48.853581319
          ],
          [
            8.484541119,
            48.853581304
          ],
          [
            8.484541122,
            48.853581295
          ],
          [
            8.484541133,
            48.853581286
          ],
          [
            8.484541149,
            48.853581279
          ],
          [
            8.484541169,
            48.853581278
          ],
          [
            8.48454119,
            48.853581283
          ],
          [
            8.484541216,
            48.853581291
          ],
          [
            8.484541241,
            48.8535813
          ],
          [
            8.484541267,
            48.853581303
          ],
          [
            8.484541283,
            48.853581301
          ],
          [
            8.484541295,
            48.853581295
          ],
          [
            8.484541309,
            48.853581287
          ],
          [
            8.484541326,
            48.853581282
          ],
          [
            8.484541334,
            48.853581274
          ],
          [
            8.484541333,
            48.853581267
          ],
          [
            8.484541326,
            48.853581262
          ],
          [
            8.484541314,
            48.853581261
          ],
          [
            8.484541305,
            48.853581264
          ],
          [
            8.484541292,
            48.853581265
          ],
          [
            8.484541277,
            48.853581268
          ],
          [
            8.484541264,
            48.85358127
          ],
          [
            8.484541255,
            48.85358127
          ],
          [
            8.484541245,
            48.85358127
          ],
          [
            8.484541237,
            48.853581276
          ],
          [
            8.484541231,
            48.853581285
          ],
          [
            8.484541225,
            48.853581296
          ],
          [
            8.484541223,
            48.853581311
          ],
          [
            8.484541229,
            48.853581322
          ],
          [
            8.484541235,
            48.853581332
          ],
          [
            8.484541245,
            48.853581341
          ],
          [
            8.484541256,
            48.853581347
          ],
          [
            8.484541261,
            48.853581351
          ],
          [
            8.484541261,
            48.853581352
          ],
          [
            8.484541255,
            48.853581353
          ],
          [
            8.484541262,
            48.853581382
          ],
          [
            8.48454126,
            48.853581407
          ],
          [
            8.484541248,
            48.853581406
          ],
          [
            8.484541232,
            48.853581411
          ],
          [
            8.484541246,
            48.853581434
          ],
          [
            8.484541259,
            48.853581457
          ],
          [
            8.484541247,
            48.85358146
          ],
          [
            8.48454124,
            48.853581456
          ],
          [
            8.484541249,
            48.853581464
          ],
          [
            8.484541253,
            48.853581471
          ],
          [
            8.484541231,
            48.853581454
          ],
          [
            8.484541217,
            48.853581426
          ],
          [
            8.484541101,
            48.853581452
          ],
          [
            8.484540616,
            48.853581322
          ],
          [
            8.484538606,
            48.853580761
          ],
          [
            8.484535033,
            48.853579602
          ],
          [
            8.484530653,
            48.853578356
          ],
          [
            8.484525381,
            48.853576832
          ],
          [
            8.484519549,
            48.853575186
          ],
          [
            8.48451346,
            48.853573386
          ],
          [
            8.484507417,
            48.853571738
          ],
          [
            8.484501305,
            48.853570001
          ],
          [
            8.484494858,
            48.85356835
          ],
          [
            8.484488068,
            48.853566459
          ],
          [
            8.484480898,
            48.853564635
          ],
          [
            8.484473677,
            48.853562929
          ],
          [
            8.484466421,
            48.853561272
          ],
          [
            8.484459151,
            48.853559764
          ],
          [
            8.484452119,
            48.853558388
          ],
          [
            8.484445038,
            48.853557358
          ],
          [
            8.484437848,
            48.85355669
          ],
          [
            8.484430932,
            48.85355602
          ],
          [
            8.484424498,
            48.853555517
          ],
          [
            8.484418876,
            48.853555133
          ],
          [
            8.48441391,
            48.853555053
          ],
          [
            8.484409791,
            48.853555076
          ],
          [
            8.484407132,
            48.853555093
          ],
          [
            8.484406507,
            48.853555067
          ],
          [
            8.484406556,
            48.85355499
          ],
          [
            8.484406543,
            48.853555003
          ],
          [
            8.484406489,
            48.853555049
          ],
          [
            8.484406444,
            48.853555083
          ],
          [
            8.484406446,
            48.853555074
          ],
          [
            8.484406457,
            48.853555062
          ],
          [
            8.484406477,
            48.85355505
          ],
          [
            8.484406502,
            48.853555039
          ],
          [
            8.484406528,
            48.853555029
          ],
          [
            8.484406548,
            48.853555022
          ],
          [
            8.484406539,
            48.853555036
          ],
          [
            8.484406533,
            48.853555043
          ],
          [
            8.48440655,
            48.853555033
          ],
          [
            8.484406567,
            48.853555029
          ],
          [
            8.484406582,
            48.853555027
          ],
          [
            8.484406591,
            48.853555025
          ],
          [
            8.484406592,
            48.853555025
          ],
          [
            8.484406591,
            48.85355502
          ],
          [
            8.484406589,
            48.853555015
          ],
          [
            8.484406584,
            48.85355501
          ],
          [
            8.484406572,
            48.853555005
          ],
          [
            8.484406561,
            48.853554998
          ],
          [
            8.484406574,
            48.853554988
          ],
          [
            8.484406585,
            48.853554985
          ],
          [
            8.484406581,
            48.853554996
          ],
          [
            8.484406579,
            48.853555008
          ],
          [
            8.484406578,
            48.853555019
          ],
          [
            8.48440657,
            48.853555027
          ],
          [
            8.484406562,
            48.853555034
          ],
          [
            8.484406554,
            48.853555037
          ],
          [
            8.484406548,
            48.853555037
          ],
          [
            8.484406548,
            48.853555039
          ],
          [
            8.484406554,
            48.853555044
          ],
          [
            8.484406558,
            48.853555053
          ],
          [
            8.48440656,
            48.853555063
          ],
          [
            8.484406571,
            48.85355507
          ],
          [
            8.48440658,
            48.853555077
          ],
          [
            8.484406584,
            48.853555084
          ],
          [
            8.484406584,
            48.853555091
          ],
          [
            8.484406584,
            48.853555093
          ],
          [
            8.484406587,
            48.853555089
          ],
          [
            8.484406599,
            48.853555083
          ],
          [
            8.484406612,
            48.853555078
          ],
          [
            8.484406627,
            48.853555074
          ],
          [
            8.484406641,
            48.853555073
          ],
          [
            8.484406652,
            48.853555072
          ],
          [
            8.484406659,
            48.853555073
          ],
          [
            8.484406663,
            48.853555069
          ],
          [
            8.484406666,
            48.853555066
          ],
          [
            8.484406663,
            48.853555061
          ],
          [
            8.484406659,
            48.853555053
          ],
          [
            8.484406649,
            48.853555048
          ],
          [
            8.484406627,
            48.853555049
          ],
          [
            8.484406603,
            48.85355505
          ],
          [
            8.484406578,
            48.853555052
          ],
          [
            8.484406556,
            48.853555057
          ],
          [
            8.484406534,
            48.85355506
          ],
          [
            8.484406514,
            48.853555062
          ],
          [
            8.484406496,
            48.853555055
          ],
          [
            8.484406483,
            48.853555047
          ],
          [
            8.484406473,
            48.853555039
          ],
          [
            8.484406462,
            48.853555033
          ],
          [
            8.484406456,
            48.85355503
          ],
          [
            8.484406454,
            48.853555033
          ],
          [
            8.484406458,
            48.853555038
          ],
          [
            8.484406471,
            48.853555048
          ],
          [
            8.484406486,
            48.853555053
          ],
          [
            8.484406504,
            48.853555053
          ],
          [
            8.484406523,
            48.853555054
          ],
          [
            8.48440654,
            48.853555052
          ],
          [
            8.484406545,
            48.853555054
          ],
          [
            8.484406549,
            48.853555058
          ],
          [
            8.484406553,
            48.853555063
          ],
          [
            8.484406556,
            48.853555067
          ],
          [
            8.484406561,
            48.853555071
          ],
          [
            8.484406574,
            48.853555072
          ],
          [
            8.48440659,
            48.853555067
          ],
          [
            8.484406601,
            48.853555061
          ],
          [
            8.484406609,
            48.853555057
          ],
          [
            8.484406626,
            48.853555054
          ],
          [
            8.484406642,
            48.853555052
          ],
          [
            8.484406655,
            48.853555053
          ],
          [
            8.484406664,
            48.853555053
          ],
          [
            8.484406666,
            48.853555055
          ],
          [
            8.484406664,
            48.853555056
          ],
          [
            8.484406656,
            48.853555058
          ],
          [
            8.484406644,
            48.853555061
          ],
          [
            8.484406634,
            48.853555062
          ],
          [
            8.484406623,
            48.853555063
          ],
          [
            8.484406618,
            48.853555062
          ],
          [
            8.484406609,
            48.853555059
          ],
          [
            8.484406594,
            48.853555056
          ],
          [
            8.484406582,
            48.853555054
          ],
          [
            8.484406573,
            48.853555054
          ],
          [
            8.484406561,
            48.853555054
          ],
          [
            8.484406542,
            48.853555054
          ],
          [
            8.484406521,
            48.853555052
          ],
          [
            8.484406506,
            48.853555048
          ],
          [
            8.484406496,
            48.853555041
          ],
          [
            8.484406486,
            48.85355503
          ],
          [
            8.484406478,
            48.85355502
          ],
          [
            8.484406471,
            48.85355501
          ],
          [
            8.484406463,
            48.853554999
          ],
          [
            8.484406463,
            48.853554988
          ],
          [
            8.484406475,
            48.853554975
          ],
          [
            8.484406492,
            48.853554961
          ],
          [
            8.484406512,
            48.85355495
          ],
          [
            8.48440653,
            48.853554942
          ],
          [
            8.484406549,
            48.853554937
          ],
          [
            8.484406566,
            48.853554934
          ],
          [
            8.484406583,
            48.853554929
          ],
          [
            8.484406596,
            48.853554925
          ],
          [
            8.484406606,
            48.853554922
          ],
          [
            8.484406609,
            48.853554921
          ],
          [
            8.484406612,
            48.85355492
          ],
          [
            8.484406617,
            48.853554923
          ],
          [
            8.484406621,
            48.853554925
          ],
          [
            8.484406634,
            48.853554933
          ],
          [
            8.484406649,
            48.853554944
          ],
          [
            8.48440666,
            48.853554958
          ],
          [
            8.484406667,
            48.853554972
          ],
          [
            8.484406669,
            48.853554989
          ],
          [
            8.484406669,
            48.853555013
          ],
          [
            8.484406663,
            48.853555042
          ],
          [
            8.484406656,
            48.853555068
          ],
          [
            8.484406651,
            48.853555088
          ],
          [
            8.484406643,
            48.853555104
          ],
          [
            8.484406636,
            48.853555119
          ],
          [
            8.484406631,
            48.853555131
          ],
          [
            8.484406627,
            48.853555139
          ],
          [
            8.484406621,
            48.853555147
          ],
          [
            8.484406619,
            48.853555153
          ],
          [
            8.484406623,
            48.853555155
          ],
          [
            8.484406621,
            48.853555152
          ],
          [
            8.484406618,
            48.853555147
          ],
          [
            8.484406615,
            48.85355514
          ],
          [
            8.48440661,
            48.853555132
          ],
          [
            8.484406608,
            48.853555118
          ],
          [
            8.484406602,
            48.853555107
          ],
          [
            8.484406593,
            48.853555102
          ],
          [
            8.48440658,
            48.853555096
          ],
          [
            8.484406564,
            48.853555089
          ],
          [
            8.484406545,
            48.853555088
          ],
          [
            8.484406528,
            48.853555089
          ],
          [
            8.484406518,
            48.853555084
          ],
          [
            8.484406512,
            48.853555082
          ],
          [
            8.484406501,
            48.853555082
          ],
          [
            8.48440649,
            48.853555086
          ],
          [
            8.484406481,
            48.853555093
          ],
          [
            8.484406472,
            48.853555099
          ],
          [
            8.484406465,
            48.853555106
          ],
          [
            8.484406451,
            48.853555115
          ],
          [
            8.484406437,
            48.853555122
          ],
          [
            8.484406423,
            48.85355513
          ],
          [
            8.48440641,
            48.853555137
          ],
          [
            8.484406398,
            48.853555143
          ],
          [
            8.484406386,
            48.853555153
          ],
          [
            8.484406376,
            48.853555163
          ],
          [
            8.484406367,
            48.853555171
          ],
          [
            8.484406363,
            48.853555177
          ],
          [
            8.484406357,
            48.85355518
          ],
          [
            8.484406354,
            48.853555176
          ],
          [
            8.484406356,
            48.853555169
          ],
          [
            8.484406365,
            48.853555159
          ],
          [
            8.484406377,
            48.853555149
          ],
          [
            8.484406391,
            48.853555142
          ],
          [
            8.48440641,
            48.853555135
          ],
          [
            8.484406434,
            48.853555129
          ],
          [
            8.48440646,
            48.853555125
          ],
          [
            8.484406489,
            48.853555119
          ],
          [
            8.484406521,
            48.85355511
          ],
          [
            8.484406554,
            48.853555105
          ],
          [
            8.48440658,
            48.853555095
          ],
          [
            8.484406599,
            48.853555082
          ],
          [
            8.484406619,
            48.853555072
          ],
          [
            8.484406637,
            48.853555065
          ],
          [
            8.484406655,
            48.853555062
          ],
          [
            8.484406673,
            48.853555062
          ],
          [
            8.484406685,
            48.853555061
          ],
          [
            8.484406692,
            48.853555056
          ],
          [
            8.484406696,
            48.853555051
          ],
          [
            8.484406703,
            48.853555048
          ],
          [
            8.484406712,
            48.853555045
          ],
          [
            8.484406719,
            48.853555046
          ],
          [
            8.484406722,
            48.853555051
          ],
          [
            8.48440672,
            48.853555059
          ],
          [
            8.484406716,
            48.853555069
          ],
          [
            8.484406709,
            48.853555081
          ],
          [
            8.484406702,
            48.853555092
          ],
          [
            8.484406689,
            48.853555102
          ],
          [
            8.484406674,
            48.853555108
          ],
          [
            8.484406653,
            48.853555108
          ],
          [
            8.48440663,
            48.853555107
          ],
          [
            8.484406611,
            48.853555103
          ],
          [
            8.484406592,
            48.853555101
          ],
          [
            8.484406571,
            48.853555096
          ],
          [
            8.484406556,
            48.853555091
          ],
          [
            8.484406546,
            48.853555083
          ],
          [
            8.484406538,
            48.853555071
          ],
          [
            8.484406533,
            48.853555059
          ],
          [
            8.48440653,
            48.853555051
          ],
          [
            8.484406527,
            48.853555048
          ],
          [
            8.484406531,
            48.853555046
          ],
          [
            8.484406541,
            48.853555044
          ],
          [
            8.484406559,
            48.853555043
          ]
        ]
      },
      "properties": {
        "name": "Flight trajectory",
        "description": "Flugbahn der HySpex Mission",
        "source_format": "swir_vnir"
      }
    }
  ]
}