{
  "type": "FeatureCollection",
  "features": [
    {
      "type": "Feature",
      "properties": {
        "material": "Baumsubstrat_A",
        "note": "",
        "Image DateTime": "2025:11:05 12:23:15"
      },
      "geometry": {
        "coordinates": [
          8.485682726996263,
          48.8528881180602
        ],
        "type": "Point"
      }
    },
    {
      "type": "Feature",
      "properties": {
        "material": "ZiegelsplittMischung",
        "note": "Name selbst gewählt",
        "Image DateTime": "2025:11:05 12:24:20"
      },
      "geometry": {
        "coordinates": [
          8.485420298431245,
          48.852920236670435
        ],
        "type": "Point"
      }
    },
    {
      "type": "Feature",
      "properties": {
        "material": "Lava_0-3mm",
        "note": "Weißreferenz im Schatten",
        "Image DateTime": "2025:11:05 12:09:48"
      },
      "geometry": {
        "coordinates": [
          8.485333226573982,
          48.85297061642407
        ],
        "type": "Point"
      }
    },
    {
      "type": "Feature",
      "properties": {
        "material": "Lava_3-8mm",
        "note": "Weißreferenz im Schatten",
        "Image DateTime": "2025:11:05 12:08:22"
      },
      "geometry": {
        "coordinates": [
          8.485406938540049,
          48.853022970916534
        ],
        "type": "Point"
      }
    },
    {
      "type": "Feature",
      "properties": {
        "material": "Lava_8-16mm",
        "note": "Weißreferenz im Schatten",
        "Image DateTime": "2025:11:05 12:07:09"
      },
      "geometry": {
        "coordinates": [
          8.485474610470886,
          48.8530629801098
        ],
        "type": "Point"
      }
    },
    {
      "type": "Feature",
      "properties": {
        "material": "SchwarzesZeug_Mischung",
        "note": "Name selbst gewählt",
        "Image DateTime": "2025:11:05 12:12:35"
      },
      "geometry": {
        "coordinates": [
          8.485081046819689,
          48.852903822670335
        ],
        "type": "Point"
      }
    },
    {
      "type": "Feature",
      "properties": {
        "material": "Ziegelsplitt_0-16mm",
        "note": "",
        "Image DateTime": "2025:11:05 12:10:11"
      },
      "geometry": {
        "coordinates": [
          8.485242899722222,
          48.85292492419405
        ],
        "type": "Point"
      }
    },
    {
      "type": "Feature",
      "properties": {
        "material": "BasaltGabionen_56-120mm",
        "note": "Weißreferenz im Schatten",
        "Image DateTime": "2025:11:05 12:57:40"
      },
      "geometry": {
        "coordinates": [
          8.485397665585044,
          48.85330988311271
        ],
        "type": "Point"
      }
    },
    {
      "type": "Feature",
      "properties": {
        "material": "BasaltSplitt_1-3mm",
        "note": "Weißreferenz im Schatten",
        "Image DateTime": "2025:11:05 12:58:53"
      },
      "geometry": {
        "coordinates": [
          8.485444336223848,
          48.853274864917175
        ],
        "type": "Point"
      }
    },
    {
      "type": "Feature",
      "properties": {
        "material": "Erdgemisch",
        "note": "Name selbst gewählt, Weißreferenz im Schatten",
        "Image DateTime": "2025:11:05 13:00:17"
      },
      "geometry": {
        "coordinates": [
          8.485500869303303,
          48.853234111610014
        ],
        "type": "Point"
      }
    },
    {
      "type": "Feature",
      "properties": {
        "material": "Splitt_namenlos1",
        "note": "Name selbst gewählt",
        "Image DateTime": "2025:11:05 12:54:10"
      },
      "geometry": {
        "coordinates": [
          8.485293928024559,
          48.85338366208523
        ],
        "type": "Point"
      }
    },
    {
      "type": "Feature",
      "properties": {
        "material": "Splitt_namenlos2",
        "note": "Name selbst gewählt, Weißreferenz im Schatten",
        "Image DateTime": "2025:11:05 12:56:26"
      },
      "geometry": {
        "coordinates": [
          8.485352360818247,
          48.853346908369815
        ],
        "type": "Point"
      }
    },
    {
      "type": "Feature",
      "properties": {
        "material": "HumusHaufenVonLinks4",
        "note": "",
        "Image DateTime": "2025:11:05 12:38:30"
      },
      "geometry": {
        "coordinates": [
          8.48523779130204,
          48.85366898900647
        ],
        "type": "Point"
      }
    },
    {
      "type": "Feature",
      "properties": {
        "material": "TrennbloeckeBeton2",
        "note": "",
        "Image DateTime": "2025:11:05 12:36:50"
      },
      "geometry": {
        "coordinates": [
          8.485199011622015,
          48.8536635944405
        ],
        "type": "Point"
      }
    },
    {
      "type": "Feature",
      "properties": {
        "material": "RindenmulchTonsand",
        "note": "Name selbst gewählt",
        "Image DateTime": "2025:11:05 13:06:01"
      },
      "geometry": {
        "coordinates": [
          8.484563380479814,
          48.85383037537152
        ],
        "type": "Point"
      }
    },
    {
      "type": "Feature",
      "properties": {
        "material": "SandsteinBlock",
        "note": "",
        "Image DateTime": "2025:11:05 13:05:17"
      },
      "geometry": {
        "coordinates": [
          8.484595966713309,
          48.85390369431616
        ],
        "type": "Point"
      }
    },
    {
      "type": "Feature",
      "properties": {
        "material": "Rindenmulch_fein",
        "note": "Name selbst gewählt",
        "Image DateTime": "2025:11:05 13:07:43"
      },
      "geometry": {
        "coordinates": [
          8.484309911727907,
          48.8537324263251
        ],
        "type": "Point"
      }
    },
    {
      "type": "Feature",
      "properties": {
        "material": "Rindenmulch_grob",
        "note": "Name selbst gewählt",
        "Image DateTime": "2025:11:05 13:06:38"
      },
      "geometry": {
        "coordinates": [
          8.484499007463457,
          48.853725366926966
        ],
        "type": "Point"
      }
    },
    {
      "type": "Feature",
      "properties": {
        "material": "Lava_56-120mm",
        "note": "",
        "Image DateTime": "2025:11:05 11:52:08"
      },
      "geometry": {
        "coordinates": [
          8.485109016785046,
          48.853505202258326
        ],
        "type": "Point"
      }
    },
    {
      "type": "Feature",
      "properties": {
        "material": "Quarzsand",
        "note": "Name selbst gewählt",
        "Image DateTime": "2025:11:05 11:56:03"
      },
      "geometry": {
        "coordinates": [
          8.485069121772625,
          48.8534698416638
        ],
        "type": "Point"
      }
    },
    {
      "type": "Feature",
      "properties": {
        "material": "TrennbloeckeBeton1",
        "note": "",
        "Image DateTime": "2025:11:05 12:34:00"
      },
      "geometry": {
        "coordinates": [
          8.485073184928977,
          48.85349232875
        ],
        "type": "Point"
      }
    },
    {
      "type": "Feature",
      "properties": {
        "material": "Juraschotter_22-45mm",
        "note": "",
        "Image DateTime": "2025:11:05 11:43:47"
      },
      "geometry": {
        "coordinates": [
          8.4850177995518,
          48.85358183269882
        ],
        "type": "Point"
      }
    },
    {
      "type": "Feature",
      "properties": {
        "material": "Juraschotter_63-120mm",
        "note": "",
        "Image DateTime": "2025:11:05 11:43:39"
      },
      "geometry": {
        "coordinates": [
          8.484967747997112,
          48.85361663546069
        ],
        "type": "Point"
      }
    },
    {
      "type": "Feature",
      "properties": {
        "material": "Jurasplitt_11-22mm",
        "note": "",
        "Image DateTime": "2025:11:05 11:43:32"
      },
      "geometry": {
        "coordinates": [
          8.484915679369182,
          48.85365582020177
        ],
        "type": "Point"
      }
    },
    {
      "type": "Feature",
      "properties": {
        "material": "Lava_16-56mm",
        "note": "Name selbst gewählt, rechter Lavahaufen vordere Boxen",
        "Image DateTime": "2025:11:05 11:44:58"
      },
      "geometry": {
        "coordinates": [
          8.48507159011714,
          48.853544241049974
        ],
        "type": "Point"
      }
    },
    {
      "type": "Feature",
      "properties": {
        "material": "AsphaltNassPfuetzen",
        "note": "",
        "Image DateTime": "2025:11:05 13:01:30"
      },
      "geometry": {
        "coordinates": [
          8.485143199722222,
          48.8535765
        ],
        "type": "Point"
      }
    },
    {
      "type": "Feature",
      "properties": {
        "material": "AsphaltTrockenVerschmutzung2",
        "note": "",
        "Image DateTime": "2025:11:05 13:03:08"
      },
      "geometry": {
        "coordinates": [
          8.484946599999999,
          48.8537119
        ],
        "type": "Point"
      }
    },
    {
      "type": "Feature",
      "properties": {
        "material": "Muschelkalkstein_45-125mm",
        "note": "",
        "Image DateTime": "2025:11:05 11:37:49"
      },
      "geometry": {
        "coordinates": [
          8.484866920745286,
          48.85368564196213
        ],
        "type": "Point"
      }
    },
    {
      "type": "Feature",
      "properties": {
        "material": "Kies_grob",
        "note": "Name selbst gewählt",
        "Image DateTime": "2025:11:05 11:33:20"
      },
      "geometry": {
        "coordinates": [
          8.484812865237878,
          48.85370835054272
        ],
        "type": "Point"
      }
    },
    {
      "type": "Feature",
      "properties": {
        "material": "AsphaltTrockenVerschmutzung1",
        "note": "",
        "Image DateTime": "2025:11:05 12:52:00"
      },
      "geometry": {
        "coordinates": [
          8.485806099722222,
          48.85335609972223
        ],
        "type": "Point"
      }
    },
    {
      "type": "Feature",
      "properties": {
        "material": "Erdmischung",
        "note": "Name selbst gewählt",
        "Image DateTime": "2025:11:05 12:15:01"
      },
      "geometry": {
        "coordinates": [
          8.485091775655748,
          48.852813813779846
        ],
        "type": "Point"
      }
    },
    {
      "type": "Feature",
      "properties": {
        "material": "GranitGabionen_56-80mm",
        "note": "",
        "Image DateTime": "2025:11:05 12:32:19"
      },
      "geometry": {
        "coordinates": [
          8.485229299999999,
          48.8533436
        ],
        "type": "Point"
      }
    },
    {
      "type": "Feature",
      "properties": {
        "material": "Granitschotter_16-32mm",
        "note": "",
        "Image DateTime": "2025:11:05 12:31:15"
      },
      "geometry": {
        "coordinates": [
          8.485286199722221,
          48.8533071
        ],
        "type": "Point"
      }
    },
    {
      "type": "Feature",
      "properties": {
        "material": "GranitSplitt_11-16mm",
        "note": "",
        "Image DateTime": "2025:11:05 12:30:04"
      },
      "geometry": {
        "coordinates": [
          8.485333070640024,
          48.853270424212205
        ],
        "type": "Point"
      }
    },
    {
      "type": "Feature",
      "properties": {
        "material": "Granit_Bruchfindlinge_Grosse_Krotzen",
        "note": "",
        "Image DateTime": "2025:11:05 12:05:59"
      },
      "geometry": {
        "coordinates": [
          8.4851883965687,
          48.85338015892782
        ],
        "type": "Point"
      }
    },
    {
      "type": "Feature",
      "properties": {
        "material": "Graureferenz",
        "note": "",
        "Image DateTime": "2025:11:05 11:46:23"
      },
      "geometry": {
        "coordinates": [
          8.485204300419415,
          48.85364684325202
        ],
        "type": "Point"
      }
    },
    {
      "type": "Feature",
      "properties": {
        "material": "HumusHaufenVonLinks1",
        "note": "",
        "Image DateTime": "2025:11:05 11:47:48"
      },
      "geometry": {
        "coordinates": [
          8.485021889410715,
          48.85386484406199
        ],
        "type": "Point"
      }
    },
    {
      "type": "Feature",
      "properties": {
        "material": "HumusHaufenVonLinks2",
        "note": "",
        "Image DateTime": "2025:11:05 11:47:55"
      },
      "geometry": {
        "coordinates": [
          8.485033957460757,
          48.85377399540105
        ],
        "type": "Point"
      }
    },
    {
      "type": "Feature",
      "properties": {
        "material": "HumusHaufenVonLinks3",
        "note": "",
        "Image DateTime": "2025:11:05 12:37:17"
      },
      "geometry": {
        "coordinates": [
          8.485126544175571,
          48.85370868026469
        ],
        "type": "Point"
      }
    },
    {
      "type": "Feature",
      "properties": {
        "material": "HumusHaufenVonLinks5",
        "note": "",
        "Image DateTime": "2025:11:05 12:39:30"
      },
      "geometry": {
        "coordinates": [
          8.485288786762496,
          48.85357895709874
        ],
        "type": "Point"
      }
    },
    {
      "type": "Feature",
      "properties": {
        "material": "HumusHaufenVonLinks6",
        "note": "",
        "Image DateTime": "2025:11:05 12:40:49"
      },
      "geometry": {
        "coordinates": [
          8.485369201989014,
          48.85351016999454
        ],
        "type": "Point"
      }
    },
    {
      "type": "Feature",
      "properties": {
        "material": "HumusHaufenVonLinks7",
        "note": "",
        "Image DateTime": "2025:11:05 12:41:51"
      },
      "geometry": {
        "coordinates": [
          8.485461763316856,
          48.85345015559713
        ],
        "type": "Point"
      }
    },
    {
      "type": "Feature",
      "properties": {
        "material": "Kies_fein",
        "note": "Name selbst gewählt",
        "Image DateTime": "2025:11:05 12:28:07"
      },
      "geometry": {
        "coordinates": [
          8.48539020953365,
          48.85323658739713
        ],
        "type": "Point"
      }
    },
    {
      "type": "Feature",
      "properties": {
        "material": "Kies_sehrfein",
        "note": "Name selbst gewählt",
        "Image DateTime": "2025:11:05 11:57:20"
      },
      "geometry": {
        "coordinates": [
          8.485019384542063,
          48.853492430997186
        ],
        "type": "Point"
      }
    },
    {
      "type": "Feature",
      "properties": {
        "material": "Lavasand_fein",
        "note": "Name selbst gewählt",
        "Image DateTime": "2025:11:05 12:21:24"
      },
      "geometry": {
        "coordinates": [
          8.485459299999999,
          48.8526078
        ],
        "type": "Point"
      }
    },
    {
      "type": "Feature",
      "properties": {
        "material": "Lavasand_grob",
        "note": "Name selbst gewählt",
        "Image DateTime": "2025:11:05 12:18:18"
      },
      "geometry": {
        "coordinates": [
          8.485462999722222,
          48.852756499722226
        ],
        "type": "Point"
      }
    },
    {
      "type": "Feature",
      "properties": {
        "material": "Mischgut",
        "note": "Spektren anschauen",
        "Image DateTime": "2025:11:05 11:58:39"
      },
      "geometry": {
        "coordinates": [
          8.48496812554004,
          48.85352514962296
        ],
        "type": "Point"
      }
    },
    {
      "type": "Feature",
      "properties": {
        "material": "Oberbodengemisch",
        "note": "",
        "Image DateTime": "2025:11:05 12:25:43"
      },
      "geometry": {
        "coordinates": [
          8.485514469806473,
          48.852986127217356
        ],
        "type": "Point"
      }
    },
    {
      "type": "Feature",
      "properties": {
        "material": "Rheinkies",
        "note": "Name selbst gewählt",
        "Image DateTime": "2025:11:05 12:02:12"
      },
      "geometry": {
        "coordinates": [
          8.484777960441892,
          48.853657375448755
        ],
        "type": "Point"
      }
    },
    {
      "type": "Feature",
      "properties": {
        "material": "Rheinsand_0-2mm",
        "note": "",
        "Image DateTime": "2025:11:05 12:01:02"
      },
      "geometry": {
        "coordinates": [
          8.48483548263602,
          48.853615153955495
        ],
        "type": "Point"
      }
    },
    {
      "type": "Feature",
      "properties": {
        "material": "RindenMulchLangerHaufenRechts",
        "note": "Name selbst gewählt",
        "Image DateTime": "2025:11:05 12:43:53"
      },
      "geometry": {
        "coordinates": [
          8.485798199722222,
          48.853427
        ],
        "type": "Point"
      }
    },
    {
      "type": "Feature",
      "properties": {
        "material": "SchwarzesMulch",
        "note": "Name selbst gewählt",
        "Image DateTime": "2025:11:05 12:20:23"
      },
      "geometry": {
        "coordinates": [
          8.48525404930115,
          48.85273880624749
        ],
        "type": "Point"
      }
    },
    {
      "type": "Feature",
      "properties": {
        "material": "SedimentErde",
        "note": "Name selbst gewählt",
        "Image DateTime": "2025:11:05 12:48:22"
      },
      "geometry": {
        "coordinates": [
          8.486011599722222,
          48.85325029972223
        ],
        "type": "Point"
      }
    },
    {
      "type": "Feature",
      "properties": {
        "material": "Splitt_2-8mm",
        "note": "",
        "Image DateTime": "2025:11:05 11:59:49"
      },
      "geometry": {
        "coordinates": [
          8.484911871911516,
          48.85356118407734
        ],
        "type": "Point"
      }
    },
    {
      "type": "Feature",
      "properties": {
        "material": "Vegetationssubstrat",
        "note": "",
        "Image DateTime": "2025:11:05 12:16:33"
      },
      "geometry": {
        "coordinates": [
          8.485289099722221,
          48.8528461
        ],
        "type": "Point"
      }
    },
    {
      "type": "Feature",
      "properties": {
        "material": "ZiegelSplitt2",
        "note": "Name selbst gewählt",
        "Image DateTime": "2025:11:05 12:47:13"
      },
      "geometry": {
        "coordinates": [
          8.486024944567411,
          48.85315196231962
        ],
        "type": "Point"
      }
    },
    {
      "type": "Feature",
      "properties": {
        "material": "ZiegelSplittErdgemisch1",
        "note": "Name selbst gewählt",
        "Image DateTime": "2025:11:05 12:44:57"
      },
      "geometry": {
        "coordinates": [
          8.485680393329789,
          48.853323101281916
        ],
        "type": "Point"
      }
    },
    {
      "type": "Feature",
      "properties": {
        "material": "ZiegelSplittErdgemisch2",
        "note": "Name selbst gewählt",
        "Image DateTime": "2025:11:05 12:49:06"
      },
      "geometry": {
        "coordinates": [
          8.48585328616128,
          48.853189046527014
        ],
        "type": "Point"
      }
    }
  ]
}